<?xml version="1.0" encoding="UTF-8"?><gpx creator="Wikiloc - https://www.wikiloc.com" version="1.1" xmlns="http://www.topografix.com/GPX/1/1" xmlns:xsi="http://www.w3.org/2001/XMLSchema-instance" xsi:schemaLocation="http://www.topografix.com/GPX/1/1 http://www.topografix.com/GPX/1/1/gpx.xsd"><metadata><name>Wikiloc - KAŞ - DEMRE - FİNİKE - GELİDONYA - ADRASAN (LIKYA YOLU BÖLÜM 2 - LYCIAN WAY PART 2)</name><author><name>erolgeygel</name><link href="https://www.wikiloc.com/wikiloc/user.do?id=1859487"><text>erolgeygel on Wikiloc</text></link></author><link href="https://www.wikiloc.com/hiking-trails/kas-demre-finike-gelidonya-adrasan-likya-yolu-bolum-2-lycian-way-part-2-62186618"><text>KAŞ - DEMRE - FİNİKE - GELİDONYA - ADRASAN (LIKYA YOLU BÖLÜM 2 - LYCIAN WAY PART 2) on Wikiloc</text></link><time>2017-04-15T10:31:51Z</time></metadata><wpt lat="36.349702" lon="30.050282"><ele>1762.4</ele><time>2020-12-13T14:06:52.412Z</time><name>1780 M</name><cmt></cmt><desc></desc></wpt><wpt lat="36.248716" lon="30.435660"><ele>239.5</ele><time>2020-12-13T14:07:01.389Z</time><name>ADRASANA İNİŞ</name><cmt></cmt><desc></desc></wpt><wpt lat="36.329947" lon="30.002825"><ele>827.2</ele><time>2020-12-13T14:07:17.405Z</time><name>ALAKİLİSE</name><cmt></cmt><desc></desc></wpt><wpt lat="36.156155" lon="29.712985"><ele>2.8</ele><time>2020-12-13T14:07:24.061Z</time><name>APERLAİ - KÖRMEN ADASI</name><cmt></cmt><desc></desc></wpt><wpt lat="36.159468" lon="29.787947"><ele>1.3</ele><time>2020-12-13T14:07:32.369Z</time><name>SU NOKTASI</name><cmt></cmt><desc></desc></wpt><wpt lat="36.306267" lon="29.974296"><ele>653.4</ele><time>2020-12-13T14:07:41.384Z</time><name>SU NOKTASI</name><cmt></cmt><desc></desc></wpt><wpt lat="36.300830" lon="29.972483"><ele>586.4</ele><time>2020-12-13T14:07:51.514Z</time><name>ASVALTA ÇIKIŞ</name><cmt></cmt><desc></desc></wpt><wpt lat="36.285476" lon="29.968961"><ele>30.9</ele><time>2020-12-13T14:08:01.495Z</time><name>PATİKAYA GİRİŞ</name><cmt></cmt><desc></desc></wpt><wpt lat="36.190793" lon="29.753475"><ele>298.2</ele><time>2020-12-13T14:08:18.524Z</time><name>BOĞAZÇIK</name><cmt></cmt><desc></desc></wpt><wpt lat="36.234132" lon="29.921905"><ele>4.6</ele><time>2020-12-13T14:08:27.762Z</time><name>ÇAĞILLI PLAJI</name><cmt></cmt><desc></desc></wpt><wpt lat="36.212721" lon="29.888038"><ele>7.3</ele><time>2020-12-13T14:08:38.217Z</time><name>ÇAYAĞZI - ÜÇAĞIZ</name><cmt></cmt><desc></desc></wpt><wpt lat="36.227614" lon="29.943397"><ele>.0</ele><time>2020-12-13T14:08:48.361Z</time><name>ÇAYAĞZI PLAJI</name><cmt></cmt><desc></desc></wpt><wpt lat="36.164419" lon="29.726200"><ele>15.8</ele><time>2020-12-13T14:08:58.277Z</time><name>ÇIKIŞ</name><cmt></cmt><desc></desc></wpt><wpt lat="36.154154" lon="29.656648"><ele>6.5</ele><time>2020-12-13T14:09:13.492Z</time><name>SU NOKTASI</name><cmt></cmt><desc></desc></wpt><wpt lat="36.239415" lon="29.986215"><ele>6.3</ele><time>2020-12-13T14:09:23.625Z</time><name>DEMRE</name><cmt></cmt><desc></desc></wpt><wpt lat="36.357800" lon="30.017424"><ele>1618.3</ele><time>2020-12-13T14:09:32.352Z</time><name>Erenler mevkisi.</name><cmt></cmt><desc></desc></wpt><wpt lat="36.297594" lon="30.145835"><ele>1.0</ele><time>2020-12-13T14:09:42.897Z</time><name>FİNİKE - MAVİKENT MİNİBÜS YAPILABİLİR</name><cmt></cmt><desc></desc></wpt><wpt lat="36.296037" lon="30.146067"><ele>6.3</ele><time>2020-12-13T14:09:51.729Z</time><name>FİNİKE</name><cmt></cmt><desc></desc></wpt><wpt lat="36.219286" lon="30.409416"><ele>224.3</ele><time>2020-12-13T14:10:09.424Z</time><name>GELİDONYA FENERİ</name><cmt></cmt><desc></desc></wpt><wpt lat="36.360925" lon="30.029911"><ele>1611.3</ele><time>2020-12-13T14:10:22.257Z</time><name>KAMP ERENLER</name><cmt></cmt><desc></desc></wpt><wpt lat="36.287625" lon="30.089275"><ele>827.9</ele><time>2020-12-13T14:10:31.743Z</time><name>GÖL</name><cmt></cmt><desc></desc></wpt><wpt lat="36.274945" lon="30.408524"><ele>1.2</ele><time>2020-12-13T14:10:41.812Z</time><name>KARAÖZ</name><cmt></cmt><desc></desc></wpt><wpt lat="36.354808" lon="30.042892"><ele>1767.3</ele><time>2020-12-13T14:10:51.964Z</time><name>KARLIÖZ TEPESİ</name><cmt></cmt><desc></desc></wpt><wpt lat="36.199321" lon="29.640899"><ele>4.3</ele><time>2020-12-13T14:11:12.024Z</time><name>KAŞ</name><cmt></cmt><desc></desc></wpt><wpt lat="36.194562" lon="29.865410"><ele>2.5</ele><time>2020-12-13T14:11:21.878Z</time><name>KEKOVA - SİMENA</name><cmt></cmt><desc></desc></wpt><wpt lat="36.353996" lon="30.014804"><ele>1568.5</ele><time>2020-12-13T14:11:32.913Z</time><name>KIRKMERDİVEN KİLİSESİ</name><cmt></cmt><desc></desc></wpt><wpt lat="36.254667" lon="30.406361"><ele>17.6</ele><time>2020-12-13T14:11:44.245Z</time><name>SU NOKTASI</name><cmt></cmt><desc></desc></wpt><wpt lat="36.225381" lon="29.897863"><ele>81.1</ele><time>2020-12-13T14:11:56.008Z</time><name>SU NOKTASI</name><cmt></cmt><desc></desc></wpt><wpt lat="36.152170" lon="29.678986"><ele>16.8</ele><time>2020-12-13T14:12:06.624Z</time><name>YİYECEK TAKVİYESİ</name><cmt></cmt><desc></desc></wpt><wpt lat="36.197333" lon="29.847213"><ele>4.0</ele><time>2020-12-13T14:12:32.638Z</time><name>ÜÇAĞIZ</name><cmt></cmt><desc></desc></wpt><wpt lat="36.156271" lon="29.712849"><ele>4.2</ele><time>2020-12-13T14:13:06.307Z</time><name>ÜZÜMLÜ</name><cmt></cmt><desc></desc></wpt><wpt lat="36.292540" lon="30.110371"><ele>605.9</ele><time>2020-12-13T14:13:18.713Z</time><name>SU NOKTASI</name><cmt></cmt><desc></desc></wpt><wpt lat="36.323617" lon="30.063177"><ele>1468.3</ele><time>2020-12-13T14:13:29.453Z</time><name>YATIK AĞAÇ</name><cmt></cmt><desc></desc></wpt><trk><name>KAŞ - DEMRE - FİNİKE - GELİDONYA - ADRASAN (LIKYA YOLU BÖLÜM...</name><cmt></cmt><desc></desc><trkseg><trkpt lat="36.199832" lon="29.639668"><ele>9.365</ele><time>2017-04-15T08:54:11Z</time></trkpt><trkpt lat="36.197465" lon="29.644414"><ele>14.468</ele><time>2017-04-15T08:54:31Z</time></trkpt><trkpt lat="36.196076" lon="29.646097"><ele>15.714</ele><time>2017-04-15T08:54:51Z</time></trkpt><trkpt lat="36.194561" lon="29.647440"><ele>29.008</ele><time>2017-04-15T08:55:11Z</time></trkpt><trkpt lat="36.192847" lon="29.650030"><ele>30.642</ele><time>2017-04-15T08:55:31Z</time></trkpt><trkpt lat="36.191307" lon="29.653127"><ele>9.928</ele><time>2017-04-15T08:55:51Z</time></trkpt><trkpt lat="36.190509" lon="29.655096"><ele>24.017</ele><time>2017-04-15T08:56:11Z</time></trkpt><trkpt lat="36.189848" lon="29.654795"><ele>38.294</ele><time>2017-04-15T08:56:31Z</time></trkpt><trkpt lat="36.188200" lon="29.653346"><ele>46.082</ele><time>2017-04-15T08:56:51Z</time></trkpt><trkpt lat="36.186289" lon="29.652373"><ele>39.272</ele><time>2017-04-15T08:57:11Z</time></trkpt><trkpt lat="36.184554" lon="29.652254"><ele>38.077</ele><time>2017-04-15T08:57:31Z</time></trkpt><trkpt lat="36.183270" lon="29.652890"><ele>45.374</ele><time>2017-04-15T08:57:51Z</time></trkpt><trkpt lat="36.182568" lon="29.653814"><ele>58.787</ele><time>2017-04-15T08:58:11Z</time></trkpt><trkpt lat="36.180957" lon="29.654287"><ele>58.342</ele><time>2017-04-15T08:58:31Z</time></trkpt><trkpt lat="36.180648" lon="29.655340"><ele>77.926</ele><time>2017-04-15T08:58:51Z</time></trkpt><trkpt lat="36.178595" lon="29.655728"><ele>90.008</ele><time>2017-04-15T08:59:11Z</time></trkpt><trkpt lat="36.177224" lon="29.655301"><ele>86.374</ele><time>2017-04-15T08:59:31Z</time></trkpt><trkpt lat="36.176698" lon="29.654965"><ele>79.970</ele><time>2017-04-15T08:59:51Z</time></trkpt><trkpt lat="36.175118" lon="29.654560"><ele>67.349</ele><time>2017-04-15T09:00:11Z</time></trkpt><trkpt lat="36.174342" lon="29.654481"><ele>73.996</ele><time>2017-04-15T09:00:31Z</time></trkpt><trkpt lat="36.172944" lon="29.654594"><ele>91.874</ele><time>2017-04-15T09:00:51Z</time></trkpt><trkpt lat="36.170740" lon="29.654156"><ele>84.484</ele><time>2017-04-15T09:01:11Z</time></trkpt><trkpt lat="36.169162" lon="29.653386"><ele>70.969</ele><time>2017-04-15T09:01:31Z</time></trkpt><trkpt lat="36.169044" lon="29.652648"><ele>47.166</ele><time>2017-04-15T09:01:51Z</time></trkpt><trkpt lat="36.168078" lon="29.653086"><ele>45.311</ele><time>2017-04-15T09:02:11Z</time></trkpt><trkpt lat="36.167040" lon="29.653320"><ele>49.721</ele><time>2017-04-15T09:02:31Z</time></trkpt><trkpt lat="36.164556" lon="29.653649"><ele>69.703</ele><time>2017-04-15T09:02:51Z</time></trkpt><trkpt lat="36.163390" lon="29.654139"><ele>75.208</ele><time>2017-04-15T09:03:11Z</time></trkpt><trkpt lat="36.162321" lon="29.655158"><ele>68.377</ele><time>2017-04-15T09:03:31Z</time></trkpt><trkpt lat="36.161249" lon="29.655857"><ele>61.953</ele><time>2017-04-15T09:03:51Z</time></trkpt><trkpt lat="36.160761" lon="29.655805"><ele>53.392</ele><time>2017-04-15T09:04:11Z</time></trkpt><trkpt lat="36.160152" lon="29.653871"><ele>37.929</ele><time>2017-04-15T09:04:31Z</time></trkpt><trkpt lat="36.159235" lon="29.653104"><ele>36.417</ele><time>2017-04-15T09:04:51Z</time></trkpt><trkpt lat="36.158437" lon="29.653021"><ele>43.317</ele><time>2017-04-15T09:05:11Z</time></trkpt><trkpt lat="36.157996" lon="29.653426"><ele>39.032</ele><time>2017-04-15T09:05:31Z</time></trkpt><trkpt lat="36.157555" lon="29.653430"><ele>30.049</ele><time>2017-04-15T09:05:51Z</time></trkpt><trkpt lat="36.156688" lon="29.653758"><ele>23.694</ele><time>2017-04-15T09:06:11Z</time></trkpt><trkpt lat="36.153888" lon="29.657016"><ele>8.557</ele><time>2017-04-15T09:06:31Z</time></trkpt><trkpt lat="36.153598" lon="29.657704"><ele>12.222</ele><time>2017-04-15T09:06:51Z</time></trkpt><trkpt lat="36.153587" lon="29.659325"><ele>35.108</ele><time>2017-04-15T09:07:11Z</time></trkpt><trkpt lat="36.154232" lon="29.662900"><ele>83.465</ele><time>2017-04-15T09:07:31Z</time></trkpt><trkpt lat="36.153224" lon="29.666238"><ele>98.981</ele><time>2017-04-15T09:07:51Z</time></trkpt><trkpt lat="36.153388" lon="29.667629"><ele>81.280</ele><time>2017-04-15T09:08:11Z</time></trkpt><trkpt lat="36.152860" lon="29.668483"><ele>44.157</ele><time>2017-04-15T09:08:31Z</time></trkpt><trkpt lat="36.153512" lon="29.672843"><ele>63.025</ele><time>2017-04-15T09:08:51Z</time></trkpt><trkpt lat="36.153732" lon="29.676346"><ele>38.315</ele><time>2017-04-15T09:09:11Z</time></trkpt><trkpt lat="36.153747" lon="29.677479"><ele>19.510</ele><time>2017-04-15T09:09:31Z</time></trkpt><trkpt lat="36.153607" lon="29.678139"><ele>6.317</ele><time>2017-04-15T09:09:51Z</time></trkpt><trkpt lat="36.153943" lon="29.678624"><ele>6.963</ele><time>2017-04-15T09:10:11Z</time></trkpt><trkpt lat="36.154488" lon="29.680359"><ele>21.944</ele><time>2017-04-15T09:10:31Z</time></trkpt><trkpt lat="36.153614" lon="29.683488"><ele>65.518</ele><time>2017-04-15T09:10:51Z</time></trkpt><trkpt lat="36.152147" lon="29.685974"><ele>67.008</ele><time>2017-04-15T09:11:11Z</time></trkpt><trkpt lat="36.151314" lon="29.687815"><ele>75.962</ele><time>2017-04-15T09:11:31Z</time></trkpt><trkpt lat="36.151521" lon="29.689082"><ele>94.638</ele><time>2017-04-15T09:11:51Z</time></trkpt><trkpt lat="36.151508" lon="29.690002"><ele>111.777</ele><time>2017-04-15T09:12:11Z</time></trkpt><trkpt lat="36.151191" lon="29.690965"><ele>119.164</ele><time>2017-04-15T09:12:31Z</time></trkpt><trkpt lat="36.151191" lon="29.691883"><ele>113.842</ele><time>2017-04-15T09:12:51Z</time></trkpt><trkpt lat="36.150818" lon="29.691944"><ele>106.812</ele><time>2017-04-15T09:13:11Z</time></trkpt><trkpt lat="36.150561" lon="29.692241"><ele>98.697</ele><time>2017-04-15T09:13:31Z</time></trkpt><trkpt lat="36.150052" lon="29.693333"><ele>50.054</ele><time>2017-04-15T09:13:51Z</time></trkpt><trkpt lat="36.150665" lon="29.694516"><ele>29.621</ele><time>2017-04-15T09:14:11Z</time></trkpt><trkpt lat="36.150397" lon="29.696106"><ele>17.041</ele><time>2017-04-15T09:14:31Z</time></trkpt><trkpt lat="36.149971" lon="29.697593"><ele>21.105</ele><time>2017-04-15T09:14:51Z</time></trkpt><trkpt lat="36.149567" lon="29.698065"><ele>19.408</ele><time>2017-04-15T09:15:11Z</time></trkpt><trkpt lat="36.148682" lon="29.700222"><ele>9.028</ele><time>2017-04-15T09:15:31Z</time></trkpt><trkpt lat="36.149035" lon="29.700652"><ele>17.444</ele><time>2017-04-15T09:15:51Z</time></trkpt><trkpt lat="36.149223" lon="29.701640"><ele>24.753</ele><time>2017-04-15T09:16:11Z</time></trkpt><trkpt lat="36.149462" lon="29.702133"><ele>29.160</ele><time>2017-04-15T09:16:31Z</time></trkpt><trkpt lat="36.149110" lon="29.703514"><ele>23.478</ele><time>2017-04-15T09:16:51Z</time></trkpt><trkpt lat="36.148473" lon="29.704085"><ele>19.888</ele><time>2017-04-15T09:17:11Z</time></trkpt><trkpt lat="36.148710" lon="29.705636"><ele>35.563</ele><time>2017-04-15T09:17:31Z</time></trkpt><trkpt lat="36.149576" lon="29.706966"><ele>65.940</ele><time>2017-04-15T09:17:51Z</time></trkpt><trkpt lat="36.150057" lon="29.707264"><ele>69.148</ele><time>2017-04-15T09:18:11Z</time></trkpt><trkpt lat="36.150967" lon="29.710504"><ele>41.861</ele><time>2017-04-15T09:18:31Z</time></trkpt><trkpt lat="36.151902" lon="29.711694"><ele>31.017</ele><time>2017-04-15T09:18:51Z</time></trkpt><trkpt lat="36.152740" lon="29.712641"><ele>17.508</ele><time>2017-04-15T09:19:11Z</time></trkpt><trkpt lat="36.154058" lon="29.712906"><ele>16.180</ele><time>2017-04-15T09:19:31Z</time></trkpt><trkpt lat="36.154808" lon="29.712722"><ele>10.896</ele><time>2017-04-15T09:19:51Z</time></trkpt><trkpt lat="36.156029" lon="29.712668"><ele>5.945</ele><time>2017-04-15T09:20:11Z</time></trkpt><trkpt lat="36.155755" lon="29.712260"><ele>9.092</ele><time>2017-04-15T09:20:31Z</time></trkpt><trkpt lat="36.157310" lon="29.713235"><ele>8.610</ele><time>2017-04-15T09:20:51Z</time></trkpt><trkpt lat="36.158802" lon="29.715976"><ele>21.270</ele><time>2017-04-15T09:21:11Z</time></trkpt><trkpt lat="36.159312" lon="29.716641"><ele>19.215</ele><time>2017-04-15T09:21:31Z</time></trkpt><trkpt lat="36.159917" lon="29.717110"><ele>20.992</ele><time>2017-04-15T09:21:51Z</time></trkpt><trkpt lat="36.160791" lon="29.717305"><ele>31.613</ele><time>2017-04-15T09:22:11Z</time></trkpt><trkpt lat="36.162192" lon="29.719010"><ele>6.843</ele><time>2017-04-15T09:22:31Z</time></trkpt><trkpt lat="36.162687" lon="29.719181"><ele>9.207</ele><time>2017-04-15T09:22:51Z</time></trkpt><trkpt lat="36.163279" lon="29.719747"><ele>8.308</ele><time>2017-04-15T09:23:11Z</time></trkpt><trkpt lat="36.164097" lon="29.723845"><ele>6.237</ele><time>2017-04-15T09:23:31Z</time></trkpt><trkpt lat="36.164370" lon="29.726272"><ele>14.943</ele><time>2017-04-15T09:23:51Z</time></trkpt><trkpt lat="36.164797" lon="29.726343"><ele>26.352</ele><time>2017-04-15T09:24:11Z</time></trkpt><trkpt lat="36.166094" lon="29.725977"><ele>44.939</ele><time>2017-04-15T09:24:31Z</time></trkpt><trkpt lat="36.167458" lon="29.726691"><ele>69.597</ele><time>2017-04-15T09:24:51Z</time></trkpt><trkpt lat="36.167961" lon="29.727595"><ele>79.367</ele><time>2017-04-15T09:25:11Z</time></trkpt><trkpt lat="36.167847" lon="29.728344"><ele>82.032</ele><time>2017-04-15T09:25:31Z</time></trkpt><trkpt lat="36.168180" lon="29.729404"><ele>89.249</ele><time>2017-04-15T09:25:51Z</time></trkpt><trkpt lat="36.169093" lon="29.730097"><ele>108.217</ele><time>2017-04-15T09:26:11Z</time></trkpt><trkpt lat="36.170609" lon="29.732021"><ele>145.287</ele><time>2017-04-15T09:26:31Z</time></trkpt><trkpt lat="36.171255" lon="29.731648"><ele>160.715</ele><time>2017-04-15T09:26:51Z</time></trkpt><trkpt lat="36.171941" lon="29.732140"><ele>178.508</ele><time>2017-04-15T09:27:11Z</time></trkpt><trkpt lat="36.174524" lon="29.734823"><ele>223.247</ele><time>2017-04-15T09:27:31Z</time></trkpt><trkpt lat="36.176761" lon="29.737777"><ele>271.433</ele><time>2017-04-15T09:27:51Z</time></trkpt><trkpt lat="36.176759" lon="29.738461"><ele>277.732</ele><time>2017-04-15T09:28:11Z</time></trkpt><trkpt lat="36.177284" lon="29.738965"><ele>290.779</ele><time>2017-04-15T09:28:31Z</time></trkpt><trkpt lat="36.177111" lon="29.740856"><ele>278.287</ele><time>2017-04-15T09:28:51Z</time></trkpt><trkpt lat="36.177434" lon="29.741764"><ele>272.027</ele><time>2017-04-15T09:29:11Z</time></trkpt><trkpt lat="36.179935" lon="29.744226"><ele>279.882</ele><time>2017-04-15T09:29:31Z</time></trkpt><trkpt lat="36.181520" lon="29.746467"><ele>286.359</ele><time>2017-04-15T09:29:51Z</time></trkpt><trkpt lat="36.182471" lon="29.747548"><ele>286.162</ele><time>2017-04-15T09:30:11Z</time></trkpt><trkpt lat="36.184284" lon="29.749129"><ele>290.483</ele><time>2017-04-15T09:30:31Z</time></trkpt><trkpt lat="36.187318" lon="29.750286"><ele>294.411</ele><time>2017-04-15T09:30:51Z</time></trkpt><trkpt lat="36.188722" lon="29.750994"><ele>297.408</ele><time>2017-04-15T09:31:11Z</time></trkpt><trkpt lat="36.190454" lon="29.752909"><ele>298.472</ele><time>2017-04-15T09:31:31Z</time></trkpt><trkpt lat="36.190197" lon="29.753956"><ele>303.798</ele><time>2017-04-15T09:31:51Z</time></trkpt><trkpt lat="36.188402" lon="29.755800"><ele>327.677</ele><time>2017-04-15T09:32:11Z</time></trkpt><trkpt lat="36.187685" lon="29.756977"><ele>337.054</ele><time>2017-04-15T09:32:31Z</time></trkpt><trkpt lat="36.186382" lon="29.758452"><ele>335.622</ele><time>2017-04-15T09:32:51Z</time></trkpt><trkpt lat="36.184759" lon="29.758814"><ele>340.382</ele><time>2017-04-15T09:33:11Z</time></trkpt><trkpt lat="36.184717" lon="29.759950"><ele>343.717</ele><time>2017-04-15T09:33:31Z</time></trkpt><trkpt lat="36.183718" lon="29.763538"><ele>319.744</ele><time>2017-04-15T09:33:51Z</time></trkpt><trkpt lat="36.184303" lon="29.765761"><ele>331.238</ele><time>2017-04-15T09:34:11Z</time></trkpt><trkpt lat="36.184930" lon="29.767172"><ele>337.970</ele><time>2017-04-15T09:34:31Z</time></trkpt><trkpt lat="36.185450" lon="29.767806"><ele>345.017</ele><time>2017-04-15T09:34:51Z</time></trkpt><trkpt lat="36.185949" lon="29.769552"><ele>346.808</ele><time>2017-04-15T09:35:11Z</time></trkpt><trkpt lat="36.185582" lon="29.770296"><ele>356.979</ele><time>2017-04-15T09:35:31Z</time></trkpt><trkpt lat="36.184980" lon="29.769982"><ele>358.825</ele><time>2017-04-15T09:35:51Z</time></trkpt><trkpt lat="36.183713" lon="29.770165"><ele>358.954</ele><time>2017-04-15T09:36:11Z</time></trkpt><trkpt lat="36.182013" lon="29.771010"><ele>355.211</ele><time>2017-04-15T09:36:31Z</time></trkpt><trkpt lat="36.180885" lon="29.771829"><ele>354.549</ele><time>2017-04-15T09:36:51Z</time></trkpt><trkpt lat="36.178980" lon="29.772269"><ele>373.839</ele><time>2017-04-15T09:37:11Z</time></trkpt><trkpt lat="36.178138" lon="29.772089"><ele>365.364</ele><time>2017-04-15T09:37:31Z</time></trkpt><trkpt lat="36.177423" lon="29.772358"><ele>354.771</ele><time>2017-04-15T09:37:51Z</time></trkpt><trkpt lat="36.175184" lon="29.773749"><ele>305.382</ele><time>2017-04-15T09:38:11Z</time></trkpt><trkpt lat="36.173881" lon="29.774165"><ele>290.943</ele><time>2017-04-15T09:38:31Z</time></trkpt><trkpt lat="36.173674" lon="29.775060"><ele>285.117</ele><time>2017-04-15T09:38:51Z</time></trkpt><trkpt lat="36.173711" lon="29.775988"><ele>276.708</ele><time>2017-04-15T09:39:11Z</time></trkpt><trkpt lat="36.173321" lon="29.776502"><ele>263.784</ele><time>2017-04-15T09:39:31Z</time></trkpt><trkpt lat="36.173396" lon="29.777586"><ele>255.350</ele><time>2017-04-15T09:39:51Z</time></trkpt><trkpt lat="36.172948" lon="29.778720"><ele>250.899</ele><time>2017-04-15T09:40:11Z</time></trkpt><trkpt lat="36.172616" lon="29.779344"><ele>245.286</ele><time>2017-04-15T09:40:31Z</time></trkpt><trkpt lat="36.172177" lon="29.779767"><ele>235.234</ele><time>2017-04-15T09:40:51Z</time></trkpt><trkpt lat="36.171450" lon="29.780136"><ele>225.994</ele><time>2017-04-15T09:41:11Z</time></trkpt><trkpt lat="36.170996" lon="29.780806"><ele>212.059</ele><time>2017-04-15T09:41:31Z</time></trkpt><trkpt lat="36.171169" lon="29.781863"><ele>199.956</ele><time>2017-04-15T09:41:51Z</time></trkpt><trkpt lat="36.171154" lon="29.783437"><ele>178.351</ele><time>2017-04-15T09:42:11Z</time></trkpt><trkpt lat="36.170892" lon="29.784309"><ele>165.301</ele><time>2017-04-15T09:42:31Z</time></trkpt><trkpt lat="36.170096" lon="29.785650"><ele>140.511</ele><time>2017-04-15T09:42:51Z</time></trkpt><trkpt lat="36.169183" lon="29.785934"><ele>133.008</ele><time>2017-04-15T09:43:11Z</time></trkpt><trkpt lat="36.168431" lon="29.785369"><ele>125.741</ele><time>2017-04-15T09:43:31Z</time></trkpt><trkpt lat="36.167636" lon="29.785101"><ele>117.657</ele><time>2017-04-15T09:43:51Z</time></trkpt><trkpt lat="36.166796" lon="29.785037"><ele>112.926</ele><time>2017-04-15T09:44:11Z</time></trkpt><trkpt lat="36.164576" lon="29.784173"><ele>90.923</ele><time>2017-04-15T09:44:31Z</time></trkpt><trkpt lat="36.163809" lon="29.784241"><ele>85.311</ele><time>2017-04-15T09:44:51Z</time></trkpt><trkpt lat="36.162829" lon="29.783799"><ele>80.721</ele><time>2017-04-15T09:45:11Z</time></trkpt><trkpt lat="36.162543" lon="29.782964"><ele>75.816</ele><time>2017-04-15T09:45:31Z</time></trkpt><trkpt lat="36.162051" lon="29.782255"><ele>73.213</ele><time>2017-04-15T09:45:51Z</time></trkpt><trkpt lat="36.161542" lon="29.782151"><ele>67.742</ele><time>2017-04-15T09:46:11Z</time></trkpt><trkpt lat="36.160233" lon="29.782788"><ele>55.022</ele><time>2017-04-15T09:46:31Z</time></trkpt><trkpt lat="36.159854" lon="29.783188"><ele>46.114</ele><time>2017-04-15T09:46:51Z</time></trkpt><trkpt lat="36.159733" lon="29.784417"><ele>30.808</ele><time>2017-04-15T09:47:11Z</time></trkpt><trkpt lat="36.159481" lon="29.784221"><ele>24.480</ele><time>2017-04-15T09:47:31Z</time></trkpt><trkpt lat="36.159433" lon="29.786644"><ele>0.296</ele><time>2017-04-15T09:47:51Z</time></trkpt><trkpt lat="36.159591" lon="29.787659"><ele>4.035</ele><time>2017-04-15T09:48:11Z</time></trkpt><trkpt lat="36.159247" lon="29.787096"><ele>1.322</ele><time>2017-04-15T09:48:31Z</time></trkpt><trkpt lat="36.159545" lon="29.787757"><ele>2.680</ele><time>2017-04-15T09:48:51Z</time></trkpt><trkpt lat="36.159499" lon="29.789313"><ele>4.920</ele><time>2017-04-15T09:49:11Z</time></trkpt><trkpt lat="36.160200" lon="29.791837"><ele>4.845</ele><time>2017-04-15T09:49:31Z</time></trkpt><trkpt lat="36.161481" lon="29.795085"><ele>6.992</ele><time>2017-04-15T09:49:51Z</time></trkpt><trkpt lat="36.162391" lon="29.796805"><ele>5.243</ele><time>2017-04-15T09:50:11Z</time></trkpt><trkpt lat="36.163294" lon="29.797770"><ele>8.664</ele><time>2017-04-15T09:50:31Z</time></trkpt><trkpt lat="36.163959" lon="29.799136"><ele>13.910</ele><time>2017-04-15T09:50:51Z</time></trkpt><trkpt lat="36.164930" lon="29.799530"><ele>7.508</ele><time>2017-04-15T09:51:11Z</time></trkpt><trkpt lat="36.165565" lon="29.797998"><ele>14.290</ele><time>2017-04-15T09:51:31Z</time></trkpt><trkpt lat="36.166252" lon="29.797664"><ele>17.936</ele><time>2017-04-15T09:51:51Z</time></trkpt><trkpt lat="36.167502" lon="29.798029"><ele>38.815</ele><time>2017-04-15T09:52:11Z</time></trkpt><trkpt lat="36.169068" lon="29.800045"><ele>68.672</ele><time>2017-04-15T09:52:31Z</time></trkpt><trkpt lat="36.169864" lon="29.800185"><ele>73.780</ele><time>2017-04-15T09:52:51Z</time></trkpt><trkpt lat="36.170544" lon="29.800613"><ele>79.020</ele><time>2017-04-15T09:53:11Z</time></trkpt><trkpt lat="36.173194" lon="29.802825"><ele>77.435</ele><time>2017-04-15T09:53:31Z</time></trkpt><trkpt lat="36.174101" lon="29.803833"><ele>75.282</ele><time>2017-04-15T09:53:51Z</time></trkpt><trkpt lat="36.176132" lon="29.805475"><ele>74.081</ele><time>2017-04-15T09:54:11Z</time></trkpt><trkpt lat="36.177601" lon="29.807229"><ele>70.661</ele><time>2017-04-15T09:54:31Z</time></trkpt><trkpt lat="36.178934" lon="29.809249"><ele>70.317</ele><time>2017-04-15T09:54:51Z</time></trkpt><trkpt lat="36.179982" lon="29.810264"><ele>72.908</ele><time>2017-04-15T09:55:11Z</time></trkpt><trkpt lat="36.180976" lon="29.812004"><ele>71.524</ele><time>2017-04-15T09:55:31Z</time></trkpt><trkpt lat="36.181489" lon="29.813310"><ele>69.530</ele><time>2017-04-15T09:55:51Z</time></trkpt><trkpt lat="36.181993" lon="29.815959"><ele>63.239</ele><time>2017-04-15T09:56:11Z</time></trkpt><trkpt lat="36.183131" lon="29.817291"><ele>46.386</ele><time>2017-04-15T09:56:31Z</time></trkpt><trkpt lat="36.183592" lon="29.818940"><ele>38.414</ele><time>2017-04-15T09:56:51Z</time></trkpt><trkpt lat="36.184559" lon="29.820873"><ele>30.314</ele><time>2017-04-15T09:57:11Z</time></trkpt><trkpt lat="36.185981" lon="29.824997"><ele>21.939</ele><time>2017-04-15T09:57:31Z</time></trkpt><trkpt lat="36.186471" lon="29.825874"><ele>11.046</ele><time>2017-04-15T09:57:51Z</time></trkpt><trkpt lat="36.187823" lon="29.827224"><ele>4.392</ele><time>2017-04-15T09:58:11Z</time></trkpt><trkpt lat="36.188423" lon="29.827566"><ele>6.873</ele><time>2017-04-15T09:58:31Z</time></trkpt><trkpt lat="36.188820" lon="29.828070"><ele>6.020</ele><time>2017-04-15T09:58:51Z</time></trkpt><trkpt lat="36.188965" lon="29.829018"><ele>5.008</ele><time>2017-04-15T09:59:11Z</time></trkpt><trkpt lat="36.189857" lon="29.831555"><ele>11.235</ele><time>2017-04-15T09:59:31Z</time></trkpt><trkpt lat="36.190278" lon="29.831892"><ele>14.111</ele><time>2017-04-15T09:59:51Z</time></trkpt><trkpt lat="36.190954" lon="29.832947"><ele>14.520</ele><time>2017-04-15T10:00:11Z</time></trkpt><trkpt lat="36.191662" lon="29.834266"><ele>16.887</ele><time>2017-04-15T10:00:31Z</time></trkpt><trkpt lat="36.191801" lon="29.834969"><ele>10.815</ele><time>2017-04-15T10:00:51Z</time></trkpt><trkpt lat="36.192144" lon="29.835658"><ele>8.235</ele><time>2017-04-15T10:01:11Z</time></trkpt><trkpt lat="36.192647" lon="29.836309"><ele>7.670</ele><time>2017-04-15T10:01:31Z</time></trkpt><trkpt lat="36.193387" lon="29.837763"><ele>6.237</ele><time>2017-04-15T10:01:51Z</time></trkpt><trkpt lat="36.194668" lon="29.838976"><ele>4.472</ele><time>2017-04-15T10:02:11Z</time></trkpt><trkpt lat="36.195600" lon="29.840359"><ele>10.713</ele><time>2017-04-15T10:02:31Z</time></trkpt><trkpt lat="36.196155" lon="29.841612"><ele>13.014</ele><time>2017-04-15T10:02:51Z</time></trkpt><trkpt lat="36.196157" lon="29.843743"><ele>6.308</ele><time>2017-04-15T10:03:11Z</time></trkpt><trkpt lat="36.196536" lon="29.844746"><ele>5.683</ele><time>2017-04-15T10:03:31Z</time></trkpt><trkpt lat="36.196650" lon="29.845535"><ele>9.789</ele><time>2017-04-15T10:03:51Z</time></trkpt><trkpt lat="36.197333" lon="29.847213"><ele>4.028</ele><time>2017-04-15T10:04:11Z</time></trkpt><trkpt lat="36.198267" lon="29.850733"><ele>19.335</ele><time>2017-04-15T10:04:31Z</time></trkpt><trkpt lat="36.198759" lon="29.855083"><ele>27.613</ele><time>2017-04-15T10:04:51Z</time></trkpt><trkpt lat="36.198416" lon="29.858852"><ele>41.433</ele><time>2017-04-15T10:05:11Z</time></trkpt><trkpt lat="36.197309" lon="29.863534"><ele>6.758</ele><time>2017-04-15T10:05:31Z</time></trkpt><trkpt lat="36.195829" lon="29.864744"><ele>0.185</ele><time>2017-04-15T10:05:51Z</time></trkpt><trkpt lat="36.194385" lon="29.865375"><ele>2.958</ele><time>2017-04-15T10:06:11Z</time></trkpt><trkpt lat="36.194390" lon="29.865748"><ele>4.852</ele><time>2017-04-15T10:06:31Z</time></trkpt><trkpt lat="36.195007" lon="29.867241"><ele>4.017</ele><time>2017-04-15T10:06:51Z</time></trkpt><trkpt lat="36.195486" lon="29.868956"><ele>4.408</ele><time>2017-04-15T10:07:11Z</time></trkpt><trkpt lat="36.196408" lon="29.869813"><ele>4.561</ele><time>2017-04-15T10:07:31Z</time></trkpt><trkpt lat="36.197239" lon="29.871698"><ele>6.917</ele><time>2017-04-15T10:07:51Z</time></trkpt><trkpt lat="36.198559" lon="29.873976"><ele>11.466</ele><time>2017-04-15T10:08:11Z</time></trkpt><trkpt lat="36.199440" lon="29.874353"><ele>14.333</ele><time>2017-04-15T10:08:31Z</time></trkpt><trkpt lat="36.200122" lon="29.876066"><ele>15.181</ele><time>2017-04-15T10:08:51Z</time></trkpt><trkpt lat="36.200330" lon="29.879672"><ele>19.221</ele><time>2017-04-15T10:09:11Z</time></trkpt><trkpt lat="36.201298" lon="29.882362"><ele>14.326</ele><time>2017-04-15T10:09:31Z</time></trkpt><trkpt lat="36.201378" lon="29.884087"><ele>15.513</ele><time>2017-04-15T10:09:51Z</time></trkpt><trkpt lat="36.202119" lon="29.885252"><ele>11.769</ele><time>2017-04-15T10:10:11Z</time></trkpt><trkpt lat="36.203190" lon="29.886168"><ele>14.204</ele><time>2017-04-15T10:10:31Z</time></trkpt><trkpt lat="36.203969" lon="29.887402"><ele>11.624</ele><time>2017-04-15T10:10:51Z</time></trkpt><trkpt lat="36.204401" lon="29.888370"><ele>8.208</ele><time>2017-04-15T10:11:11Z</time></trkpt><trkpt lat="36.205001" lon="29.890465"><ele>4.032</ele><time>2017-04-15T10:11:31Z</time></trkpt><trkpt lat="36.205741" lon="29.891706"><ele>8.068</ele><time>2017-04-15T10:11:51Z</time></trkpt><trkpt lat="36.206179" lon="29.892788"><ele>2.987</ele><time>2017-04-15T10:12:11Z</time></trkpt><trkpt lat="36.206677" lon="29.893181"><ele>7.774</ele><time>2017-04-15T10:12:31Z</time></trkpt><trkpt lat="36.207145" lon="29.893285"><ele>6.542</ele><time>2017-04-15T10:12:51Z</time></trkpt><trkpt lat="36.207807" lon="29.892780"><ele>14.942</ele><time>2017-04-15T10:13:11Z</time></trkpt><trkpt lat="36.209605" lon="29.890990"><ele>10.067</ele><time>2017-04-15T10:13:31Z</time></trkpt><trkpt lat="36.211259" lon="29.888433"><ele>20.914</ele><time>2017-04-15T10:13:51Z</time></trkpt><trkpt lat="36.212668" lon="29.887544"><ele>12.194</ele><time>2017-04-15T10:14:11Z</time></trkpt><trkpt lat="36.212744" lon="29.888428"><ele>7.657</ele><time>2017-04-15T10:14:31Z</time></trkpt><trkpt lat="36.214314" lon="29.889366"><ele>25.122</ele><time>2017-04-15T10:14:51Z</time></trkpt><trkpt lat="36.214663" lon="29.890106"><ele>31.108</ele><time>2017-04-15T10:15:11Z</time></trkpt><trkpt lat="36.215088" lon="29.890596"><ele>38.035</ele><time>2017-04-15T10:15:31Z</time></trkpt><trkpt lat="36.215847" lon="29.891028"><ele>46.661</ele><time>2017-04-15T10:15:51Z</time></trkpt><trkpt lat="36.217624" lon="29.894970"><ele>32.130</ele><time>2017-04-15T10:16:11Z</time></trkpt><trkpt lat="36.218357" lon="29.895535"><ele>29.057</ele><time>2017-04-15T10:16:31Z</time></trkpt><trkpt lat="36.219064" lon="29.896591"><ele>30.835</ele><time>2017-04-15T10:16:51Z</time></trkpt><trkpt lat="36.220115" lon="29.897591"><ele>32.585</ele><time>2017-04-15T10:17:11Z</time></trkpt><trkpt lat="36.222065" lon="29.898472"><ele>28.580</ele><time>2017-04-15T10:17:31Z</time></trkpt><trkpt lat="36.222597" lon="29.898311"><ele>42.837</ele><time>2017-04-15T10:17:51Z</time></trkpt><trkpt lat="36.223105" lon="29.897648"><ele>61.554</ele><time>2017-04-15T10:18:11Z</time></trkpt><trkpt lat="36.224456" lon="29.897105"><ele>76.256</ele><time>2017-04-15T10:18:31Z</time></trkpt><trkpt lat="36.224839" lon="29.897625"><ele>79.111</ele><time>2017-04-15T10:18:51Z</time></trkpt><trkpt lat="36.225529" lon="29.897881"><ele>81.308</ele><time>2017-04-15T10:19:11Z</time></trkpt><trkpt lat="36.226795" lon="29.899274"><ele>83.171</ele><time>2017-04-15T10:19:31Z</time></trkpt><trkpt lat="36.227161" lon="29.900186"><ele>79.717</ele><time>2017-04-15T10:19:51Z</time></trkpt><trkpt lat="36.227633" lon="29.900604"><ele>76.466</ele><time>2017-04-15T10:20:11Z</time></trkpt><trkpt lat="36.228422" lon="29.903324"><ele>60.343</ele><time>2017-04-15T10:20:31Z</time></trkpt><trkpt lat="36.228452" lon="29.905245"><ele>51.141</ele><time>2017-04-15T10:20:51Z</time></trkpt><trkpt lat="36.228701" lon="29.907196"><ele>43.151</ele><time>2017-04-15T10:21:11Z</time></trkpt><trkpt lat="36.229863" lon="29.910079"><ele>40.636</ele><time>2017-04-15T10:21:31Z</time></trkpt><trkpt lat="36.230023" lon="29.912984"><ele>45.193</ele><time>2017-04-15T10:21:51Z</time></trkpt><trkpt lat="36.230545" lon="29.915030"><ele>55.663</ele><time>2017-04-15T10:22:11Z</time></trkpt><trkpt lat="36.231007" lon="29.919015"><ele>58.244</ele><time>2017-04-15T10:22:31Z</time></trkpt><trkpt lat="36.231705" lon="29.920353"><ele>65.518</ele><time>2017-04-15T10:22:51Z</time></trkpt><trkpt lat="36.232358" lon="29.920268"><ele>56.308</ele><time>2017-04-15T10:23:11Z</time></trkpt><trkpt lat="36.232511" lon="29.921157"><ele>38.482</ele><time>2017-04-15T10:23:31Z</time></trkpt><trkpt lat="36.234041" lon="29.921929"><ele>4.528</ele><time>2017-04-15T10:23:51Z</time></trkpt><trkpt lat="36.234396" lon="29.922891"><ele>14.387</ele><time>2017-04-15T10:24:11Z</time></trkpt><trkpt lat="36.233766" lon="29.924410"><ele>21.914</ele><time>2017-04-15T10:24:31Z</time></trkpt><trkpt lat="36.233865" lon="29.925669"><ele>22.652</ele><time>2017-04-15T10:24:51Z</time></trkpt><trkpt lat="36.234168" lon="29.926636"><ele>25.562</ele><time>2017-04-15T10:25:11Z</time></trkpt><trkpt lat="36.233468" lon="29.928884"><ele>25.897</ele><time>2017-04-15T10:25:31Z</time></trkpt><trkpt lat="36.233654" lon="29.930068"><ele>17.414</ele><time>2017-04-15T10:25:51Z</time></trkpt><trkpt lat="36.232777" lon="29.931255"><ele>21.678</ele><time>2017-04-15T10:26:11Z</time></trkpt><trkpt lat="36.232162" lon="29.932402"><ele>24.933</ele><time>2017-04-15T10:26:31Z</time></trkpt><trkpt lat="36.231502" lon="29.935165"><ele>24.026</ele><time>2017-04-15T10:26:51Z</time></trkpt><trkpt lat="36.230460" lon="29.937345"><ele>18.708</ele><time>2017-04-15T10:27:11Z</time></trkpt><trkpt lat="36.230385" lon="29.938597"><ele>19.313</ele><time>2017-04-15T10:27:31Z</time></trkpt><trkpt lat="36.230618" lon="29.939281"><ele>7.929</ele><time>2017-04-15T10:27:51Z</time></trkpt><trkpt lat="36.230842" lon="29.939225"><ele>8.618</ele><time>2017-04-15T10:28:11Z</time></trkpt><trkpt lat="36.229376" lon="29.941462"><ele>0.055</ele><time>2017-04-15T10:28:31Z</time></trkpt><trkpt lat="36.228202" lon="29.942694"><ele>0.083</ele><time>2017-04-15T10:28:51Z</time></trkpt><trkpt lat="36.225736" lon="29.944782"><ele>4.673</ele><time>2017-04-15T10:29:11Z</time></trkpt><trkpt lat="36.225252" lon="29.945778"><ele>1.928</ele><time>2017-04-15T10:29:31Z</time></trkpt><trkpt lat="36.225841" lon="29.948914"><ele>2.125</ele><time>2017-04-15T10:29:51Z</time></trkpt><trkpt lat="36.227010" lon="29.950944"><ele>1.019</ele><time>2017-04-15T10:30:11Z</time></trkpt><trkpt lat="36.231343" lon="29.959927"><ele>0.009</ele><time>2017-04-15T10:30:31Z</time></trkpt><trkpt lat="36.233832" lon="29.966367"><ele>2.319</ele><time>2017-04-15T10:30:51Z</time></trkpt><trkpt lat="36.235795" lon="29.969959"><ele>4.108</ele><time>2017-04-15T10:31:11Z</time></trkpt><trkpt lat="36.236899" lon="29.972797"><ele>5.887</ele><time>2017-04-15T10:31:31Z</time></trkpt><trkpt lat="36.239058" lon="29.986090"><ele>7.133</ele><time>2017-04-15T10:31:51Z</time></trkpt><trkpt lat="36.242746" lon="29.985490"><ele>8.932</ele><time>2017-04-15T10:32:11Z</time></trkpt><trkpt lat="36.243564" lon="29.986420"><ele>11.889</ele><time>2017-04-15T10:32:31Z</time></trkpt><trkpt lat="36.243986" lon="29.987611"><ele>12.317</ele><time>2017-04-15T10:32:51Z</time></trkpt><trkpt lat="36.245962" lon="29.986936"><ele>12.467</ele><time>2017-04-15T10:33:11Z</time></trkpt><trkpt lat="36.248373" lon="29.987003"><ele>11.572</ele><time>2017-04-15T10:33:31Z</time></trkpt><trkpt lat="36.252458" lon="29.988086"><ele>12.199</ele><time>2017-04-15T10:33:51Z</time></trkpt><trkpt lat="36.254660" lon="29.988873"><ele>12.564</ele><time>2017-04-15T10:34:11Z</time></trkpt><trkpt lat="36.255477" lon="29.988978"><ele>14.706</ele><time>2017-04-15T10:34:31Z</time></trkpt><trkpt lat="36.255361" lon="29.988025"><ele>15.316</ele><time>2017-04-15T10:34:51Z</time></trkpt><trkpt lat="36.258700" lon="29.988958"><ele>17.708</ele><time>2017-04-15T10:35:11Z</time></trkpt><trkpt lat="36.260219" lon="29.990192"><ele>16.712</ele><time>2017-04-15T10:35:31Z</time></trkpt><trkpt lat="36.262792" lon="29.991304"><ele>19.728</ele><time>2017-04-15T10:35:51Z</time></trkpt><trkpt lat="36.265521" lon="29.991451"><ele>23.257</ele><time>2017-04-15T10:36:11Z</time></trkpt><trkpt lat="36.267304" lon="29.992089"><ele>19.814</ele><time>2017-04-15T10:36:31Z</time></trkpt><trkpt lat="36.270908" lon="29.988364"><ele>23.052</ele><time>2017-04-15T10:36:51Z</time></trkpt><trkpt lat="36.273720" lon="29.983349"><ele>23.632</ele><time>2017-04-15T10:37:11Z</time></trkpt><trkpt lat="36.275652" lon="29.977802"><ele>28.397</ele><time>2017-04-15T10:37:31Z</time></trkpt><trkpt lat="36.277169" lon="29.975707"><ele>30.864</ele><time>2017-04-15T10:37:51Z</time></trkpt><trkpt lat="36.281371" lon="29.972305"><ele>31.064</ele><time>2017-04-15T10:38:11Z</time></trkpt><trkpt lat="36.283555" lon="29.971140"><ele>30.806</ele><time>2017-04-15T10:38:31Z</time></trkpt><trkpt lat="36.285170" lon="29.969450"><ele>29.116</ele><time>2017-04-15T10:38:51Z</time></trkpt><trkpt lat="36.285651" lon="29.969892"><ele>38.308</ele><time>2017-04-15T10:39:11Z</time></trkpt><trkpt lat="36.285449" lon="29.970515"><ele>40.452</ele><time>2017-04-15T10:39:31Z</time></trkpt><trkpt lat="36.286013" lon="29.970420"><ele>80.078</ele><time>2017-04-15T10:39:51Z</time></trkpt><trkpt lat="36.285781" lon="29.971308"><ele>115.917</ele><time>2017-04-15T10:40:11Z</time></trkpt><trkpt lat="36.285228" lon="29.971702"><ele>104.434</ele><time>2017-04-15T10:40:31Z</time></trkpt><trkpt lat="36.285316" lon="29.971993"><ele>108.732</ele><time>2017-04-15T10:40:51Z</time></trkpt><trkpt lat="36.285807" lon="29.971912"><ele>148.442</ele><time>2017-04-15T10:41:11Z</time></trkpt><trkpt lat="36.285612" lon="29.972450"><ele>139.817</ele><time>2017-04-15T10:41:31Z</time></trkpt><trkpt lat="36.285830" lon="29.972596"><ele>171.444</ele><time>2017-04-15T10:41:51Z</time></trkpt><trkpt lat="36.285627" lon="29.973288"><ele>171.856</ele><time>2017-04-15T10:42:11Z</time></trkpt><trkpt lat="36.286449" lon="29.973438"><ele>196.559</ele><time>2017-04-15T10:42:31Z</time></trkpt><trkpt lat="36.286921" lon="29.974044"><ele>205.514</ele><time>2017-04-15T10:42:51Z</time></trkpt><trkpt lat="36.287391" lon="29.974275"><ele>210.808</ele><time>2017-04-15T10:43:11Z</time></trkpt><trkpt lat="36.287788" lon="29.974320"><ele>221.731</ele><time>2017-04-15T10:43:31Z</time></trkpt><trkpt lat="36.288100" lon="29.974104"><ele>233.817</ele><time>2017-04-15T10:43:51Z</time></trkpt><trkpt lat="36.288337" lon="29.973312"><ele>257.656</ele><time>2017-04-15T10:44:11Z</time></trkpt><trkpt lat="36.289823" lon="29.973762"><ele>284.923</ele><time>2017-04-15T10:44:31Z</time></trkpt><trkpt lat="36.290209" lon="29.973429"><ele>310.591</ele><time>2017-04-15T10:44:51Z</time></trkpt><trkpt lat="36.290994" lon="29.974811"><ele>326.451</ele><time>2017-04-15T10:45:11Z</time></trkpt><trkpt lat="36.291178" lon="29.974696"><ele>341.086</ele><time>2017-04-15T10:45:31Z</time></trkpt><trkpt lat="36.292151" lon="29.975247"><ele>364.123</ele><time>2017-04-15T10:45:51Z</time></trkpt><trkpt lat="36.292251" lon="29.974987"><ele>381.779</ele><time>2017-04-15T10:46:11Z</time></trkpt><trkpt lat="36.292892" lon="29.974855"><ele>392.305</ele><time>2017-04-15T10:46:31Z</time></trkpt><trkpt lat="36.293396" lon="29.974053"><ele>425.225</ele><time>2017-04-15T10:46:51Z</time></trkpt><trkpt lat="36.298360" lon="29.973528"><ele>516.908</ele><time>2017-04-15T10:47:11Z</time></trkpt><trkpt lat="36.300221" lon="29.972884"><ele>558.133</ele><time>2017-04-15T10:47:31Z</time></trkpt><trkpt lat="36.301018" lon="29.972919"><ele>578.489</ele><time>2017-04-15T10:47:51Z</time></trkpt><trkpt lat="36.305458" lon="29.974548"><ele>655.488</ele><time>2017-04-15T10:48:11Z</time></trkpt><trkpt lat="36.308390" lon="29.975341"><ele>657.255</ele><time>2017-04-15T10:48:31Z</time></trkpt><trkpt lat="36.310435" lon="29.975794"><ele>681.373</ele><time>2017-04-15T10:48:51Z</time></trkpt><trkpt lat="36.312543" lon="29.975740"><ele>724.893</ele><time>2017-04-15T10:49:11Z</time></trkpt><trkpt lat="36.313436" lon="29.975899"><ele>745.098</ele><time>2017-04-15T10:49:31Z</time></trkpt><trkpt lat="36.314733" lon="29.976668"><ele>781.895</ele><time>2017-04-15T10:49:51Z</time></trkpt><trkpt lat="36.315070" lon="29.977180"><ele>793.454</ele><time>2017-04-15T10:50:11Z</time></trkpt><trkpt lat="36.315826" lon="29.977652"><ele>809.856</ele><time>2017-04-15T10:50:31Z</time></trkpt><trkpt lat="36.316624" lon="29.977476"><ele>815.611</ele><time>2017-04-15T10:50:51Z</time></trkpt><trkpt lat="36.318364" lon="29.977556"><ele>844.608</ele><time>2017-04-15T10:51:11Z</time></trkpt><trkpt lat="36.319611" lon="29.978091"><ele>874.061</ele><time>2017-04-15T10:51:31Z</time></trkpt><trkpt lat="36.320129" lon="29.978745"><ele>881.957</ele><time>2017-04-15T10:51:51Z</time></trkpt><trkpt lat="36.322421" lon="29.980127"><ele>903.276</ele><time>2017-04-15T10:52:11Z</time></trkpt><trkpt lat="36.325107" lon="29.980260"><ele>884.843</ele><time>2017-04-15T10:52:31Z</time></trkpt><trkpt lat="36.325602" lon="29.980775"><ele>866.071</ele><time>2017-04-15T10:52:51Z</time></trkpt><trkpt lat="36.326305" lon="29.980989"><ele>864.321</ele><time>2017-04-15T10:53:11Z</time></trkpt><trkpt lat="36.326603" lon="29.983246"><ele>847.616</ele><time>2017-04-15T10:53:31Z</time></trkpt><trkpt lat="36.326486" lon="29.983984"><ele>833.933</ele><time>2017-04-15T10:53:51Z</time></trkpt><trkpt lat="36.326030" lon="29.984536"><ele>823.591</ele><time>2017-04-15T10:54:11Z</time></trkpt><trkpt lat="36.326097" lon="29.985320"><ele>817.681</ele><time>2017-04-15T10:54:31Z</time></trkpt><trkpt lat="36.325683" lon="29.986739"><ele>868.619</ele><time>2017-04-15T10:54:51Z</time></trkpt><trkpt lat="36.325602" lon="29.991864"><ele>938.308</ele><time>2017-04-15T10:55:11Z</time></trkpt><trkpt lat="36.325902" lon="29.993370"><ele>931.115</ele><time>2017-04-15T10:55:31Z</time></trkpt><trkpt lat="36.326338" lon="29.994160"><ele>905.731</ele><time>2017-04-15T10:55:51Z</time></trkpt><trkpt lat="36.328070" lon="29.995904"><ele>887.130</ele><time>2017-04-15T10:56:11Z</time></trkpt><trkpt lat="36.328370" lon="29.996639"><ele>879.237</ele><time>2017-04-15T10:56:31Z</time></trkpt><trkpt lat="36.328931" lon="29.998984"><ele>853.085</ele><time>2017-04-15T10:56:51Z</time></trkpt><trkpt lat="36.329723" lon="30.000797"><ele>832.035</ele><time>2017-04-15T10:57:11Z</time></trkpt><trkpt lat="36.329778" lon="30.001798"><ele>822.230</ele><time>2017-04-15T10:57:31Z</time></trkpt><trkpt lat="36.329289" lon="30.002370"><ele>819.117</ele><time>2017-04-15T10:57:51Z</time></trkpt><trkpt lat="36.329791" lon="30.001981"><ele>822.924</ele><time>2017-04-15T10:58:11Z</time></trkpt><trkpt lat="36.331228" lon="30.003801"><ele>843.004</ele><time>2017-04-15T10:58:31Z</time></trkpt><trkpt lat="36.333182" lon="30.005120"><ele>871.714</ele><time>2017-04-15T10:58:51Z</time></trkpt><trkpt lat="36.336756" lon="30.008572"><ele>931.908</ele><time>2017-04-15T10:59:11Z</time></trkpt><trkpt lat="36.340461" lon="30.010086"><ele>1017.188</ele><time>2017-04-15T10:59:31Z</time></trkpt><trkpt lat="36.341299" lon="30.010272"><ele>1046.594</ele><time>2017-04-15T10:59:51Z</time></trkpt><trkpt lat="36.342777" lon="30.011460"><ele>1077.223</ele><time>2017-04-15T11:00:11Z</time></trkpt><trkpt lat="36.343560" lon="30.012689"><ele>1096.080</ele><time>2017-04-15T11:00:31Z</time></trkpt><trkpt lat="36.345793" lon="30.011914"><ele>1190.598</ele><time>2017-04-15T11:00:51Z</time></trkpt><trkpt lat="36.345998" lon="30.011473"><ele>1204.838</ele><time>2017-04-15T11:01:11Z</time></trkpt><trkpt lat="36.346548" lon="30.011104"><ele>1239.143</ele><time>2017-04-15T11:01:31Z</time></trkpt><trkpt lat="36.346725" lon="30.011282"><ele>1244.670</ele><time>2017-04-15T11:01:51Z</time></trkpt><trkpt lat="36.347472" lon="30.010837"><ele>1291.832</ele><time>2017-04-15T11:02:11Z</time></trkpt><trkpt lat="36.347738" lon="30.011310"><ele>1298.692</ele><time>2017-04-15T11:02:31Z</time></trkpt><trkpt lat="36.348065" lon="30.010960"><ele>1324.711</ele><time>2017-04-15T11:02:51Z</time></trkpt><trkpt lat="36.348053" lon="30.010531"><ele>1329.008</ele><time>2017-04-15T11:03:11Z</time></trkpt><trkpt lat="36.348284" lon="30.010523"><ele>1341.099</ele><time>2017-04-15T11:03:31Z</time></trkpt><trkpt lat="36.349964" lon="30.012146"><ele>1407.195</ele><time>2017-04-15T11:03:51Z</time></trkpt><trkpt lat="36.351019" lon="30.012789"><ele>1445.024</ele><time>2017-04-15T11:04:11Z</time></trkpt><trkpt lat="36.351709" lon="30.013786"><ele>1468.351</ele><time>2017-04-15T11:04:31Z</time></trkpt><trkpt lat="36.352808" lon="30.013824"><ele>1549.029</ele><time>2017-04-15T11:04:51Z</time></trkpt><trkpt lat="36.353461" lon="30.014577"><ele>1563.259</ele><time>2017-04-15T11:05:11Z</time></trkpt><trkpt lat="36.354912" lon="30.015640"><ele>1593.694</ele><time>2017-04-15T11:05:31Z</time></trkpt><trkpt lat="36.357192" lon="30.016922"><ele>1619.891</ele><time>2017-04-15T11:05:51Z</time></trkpt><trkpt lat="36.359389" lon="30.018599"><ele>1641.131</ele><time>2017-04-15T11:06:11Z</time></trkpt><trkpt lat="36.361285" lon="30.019597"><ele>1673.161</ele><time>2017-04-15T11:06:31Z</time></trkpt><trkpt lat="36.363103" lon="30.022649"><ele>1688.007</ele><time>2017-04-15T11:06:51Z</time></trkpt><trkpt lat="36.362525" lon="30.024167"><ele>1674.808</ele><time>2017-04-15T11:07:11Z</time></trkpt><trkpt lat="36.362326" lon="30.026885"><ele>1637.489</ele><time>2017-04-15T11:07:31Z</time></trkpt><trkpt lat="36.361740" lon="30.028681"><ele>1609.695</ele><time>2017-04-15T11:07:51Z</time></trkpt><trkpt lat="36.360698" lon="30.030385"><ele>1618.014</ele><time>2017-04-15T11:08:11Z</time></trkpt><trkpt lat="36.359931" lon="30.031990"><ele>1642.991</ele><time>2017-04-15T11:08:31Z</time></trkpt><trkpt lat="36.360348" lon="30.033040"><ele>1662.629</ele><time>2017-04-15T11:08:51Z</time></trkpt><trkpt lat="36.359041" lon="30.034725"><ele>1706.849</ele><time>2017-04-15T11:09:11Z</time></trkpt><trkpt lat="36.358446" lon="30.036924"><ele>1710.354</ele><time>2017-04-15T11:09:31Z</time></trkpt><trkpt lat="36.357316" lon="30.039471"><ele>1745.251</ele><time>2017-04-15T11:09:51Z</time></trkpt><trkpt lat="36.356686" lon="30.040130"><ele>1749.363</ele><time>2017-04-15T11:10:11Z</time></trkpt><trkpt lat="36.355714" lon="30.040741"><ele>1752.844</ele><time>2017-04-15T11:10:31Z</time></trkpt><trkpt lat="36.354835" lon="30.040868"><ele>1734.318</ele><time>2017-04-15T11:10:51Z</time></trkpt><trkpt lat="36.354514" lon="30.041272"><ele>1745.708</ele><time>2017-04-15T11:11:11Z</time></trkpt><trkpt lat="36.354541" lon="30.043091"><ele>1765.262</ele><time>2017-04-15T11:11:31Z</time></trkpt><trkpt lat="36.353629" lon="30.044505"><ele>1770.298</ele><time>2017-04-15T11:11:51Z</time></trkpt><trkpt lat="36.353569" lon="30.045832"><ele>1765.337</ele><time>2017-04-15T11:12:11Z</time></trkpt><trkpt lat="36.354047" lon="30.046546"><ele>1774.954</ele><time>2017-04-15T11:12:31Z</time></trkpt><trkpt lat="36.354479" lon="30.047708"><ele>1754.262</ele><time>2017-04-15T11:12:51Z</time></trkpt><trkpt lat="36.353744" lon="30.048181"><ele>1739.682</ele><time>2017-04-15T11:13:11Z</time></trkpt><trkpt lat="36.352607" lon="30.048486"><ele>1742.537</ele><time>2017-04-15T11:13:31Z</time></trkpt><trkpt lat="36.351410" lon="30.048466"><ele>1739.724</ele><time>2017-04-15T11:13:51Z</time></trkpt><trkpt lat="36.350467" lon="30.048708"><ele>1745.347</ele><time>2017-04-15T11:14:11Z</time></trkpt><trkpt lat="36.349867" lon="30.048994"><ele>1736.229</ele><time>2017-04-15T11:14:31Z</time></trkpt><trkpt lat="36.349069" lon="30.049758"><ele>1727.621</ele><time>2017-04-15T11:14:51Z</time></trkpt><trkpt lat="36.348184" lon="30.050023"><ele>1720.208</ele><time>2017-04-15T11:15:11Z</time></trkpt><trkpt lat="36.346277" lon="30.050128"><ele>1715.950</ele><time>2017-04-15T11:15:31Z</time></trkpt><trkpt lat="36.345626" lon="30.050580"><ele>1713.026</ele><time>2017-04-15T11:15:51Z</time></trkpt><trkpt lat="36.345132" lon="30.051825"><ele>1696.125</ele><time>2017-04-15T11:16:11Z</time></trkpt><trkpt lat="36.344247" lon="30.052963"><ele>1685.652</ele><time>2017-04-15T11:16:31Z</time></trkpt><trkpt lat="36.342139" lon="30.053786"><ele>1663.180</ele><time>2017-04-15T11:16:51Z</time></trkpt><trkpt lat="36.341916" lon="30.054623"><ele>1661.190</ele><time>2017-04-15T11:17:11Z</time></trkpt><trkpt lat="36.342059" lon="30.055438"><ele>1657.115</ele><time>2017-04-15T11:17:31Z</time></trkpt><trkpt lat="36.340790" lon="30.055425"><ele>1662.332</ele><time>2017-04-15T11:17:51Z</time></trkpt><trkpt lat="36.339888" lon="30.055950"><ele>1646.711</ele><time>2017-04-15T11:18:11Z</time></trkpt><trkpt lat="36.336771" lon="30.055568"><ele>1635.321</ele><time>2017-04-15T11:18:31Z</time></trkpt><trkpt lat="36.336323" lon="30.056272"><ele>1638.503</ele><time>2017-04-15T11:18:51Z</time></trkpt><trkpt lat="36.335256" lon="30.057385"><ele>1628.408</ele><time>2017-04-15T11:19:11Z</time></trkpt><trkpt lat="36.333873" lon="30.057360"><ele>1654.197</ele><time>2017-04-15T11:19:31Z</time></trkpt><trkpt lat="36.331088" lon="30.058610"><ele>1627.233</ele><time>2017-04-15T11:19:51Z</time></trkpt><trkpt lat="36.330641" lon="30.059294"><ele>1612.432</ele><time>2017-04-15T11:20:11Z</time></trkpt><trkpt lat="36.330599" lon="30.060717"><ele>1591.319</ele><time>2017-04-15T11:20:31Z</time></trkpt><trkpt lat="36.330297" lon="30.061122"><ele>1575.777</ele><time>2017-04-15T11:20:51Z</time></trkpt><trkpt lat="36.329575" lon="30.061210"><ele>1555.837</ele><time>2017-04-15T11:21:11Z</time></trkpt><trkpt lat="36.328998" lon="30.060774"><ele>1536.052</ele><time>2017-04-15T11:21:31Z</time></trkpt><trkpt lat="36.328511" lon="30.060698"><ele>1516.839</ele><time>2017-04-15T11:21:51Z</time></trkpt><trkpt lat="36.328238" lon="30.060896"><ele>1504.778</ele><time>2017-04-15T11:22:11Z</time></trkpt><trkpt lat="36.327659" lon="30.060576"><ele>1494.333</ele><time>2017-04-15T11:22:31Z</time></trkpt><trkpt lat="36.326613" lon="30.060323"><ele>1483.126</ele><time>2017-04-15T11:22:51Z</time></trkpt><trkpt lat="36.325577" lon="30.061463"><ele>1472.208</ele><time>2017-04-15T11:23:11Z</time></trkpt><trkpt lat="36.324309" lon="30.062578"><ele>1471.793</ele><time>2017-04-15T11:23:31Z</time></trkpt><trkpt lat="36.322269" lon="30.063520"><ele>1455.669</ele><time>2017-04-15T11:23:51Z</time></trkpt><trkpt lat="36.321166" lon="30.065039"><ele>1449.878</ele><time>2017-04-15T11:24:11Z</time></trkpt><trkpt lat="36.320211" lon="30.065510"><ele>1436.325</ele><time>2017-04-15T11:24:31Z</time></trkpt><trkpt lat="36.319081" lon="30.065786"><ele>1423.493</ele><time>2017-04-15T11:24:51Z</time></trkpt><trkpt lat="36.317620" lon="30.065825"><ele>1397.683</ele><time>2017-04-15T11:25:11Z</time></trkpt><trkpt lat="36.316237" lon="30.065498"><ele>1372.058</ele><time>2017-04-15T11:25:31Z</time></trkpt><trkpt lat="36.315010" lon="30.065607"><ele>1376.825</ele><time>2017-04-15T11:25:51Z</time></trkpt><trkpt lat="36.311507" lon="30.066497"><ele>1318.283</ele><time>2017-04-15T11:26:11Z</time></trkpt><trkpt lat="36.311299" lon="30.066819"><ele>1312.725</ele><time>2017-04-15T11:26:31Z</time></trkpt><trkpt lat="36.311474" lon="30.067751"><ele>1309.817</ele><time>2017-04-15T11:26:51Z</time></trkpt><trkpt lat="36.310305" lon="30.068640"><ele>1301.608</ele><time>2017-04-15T11:27:11Z</time></trkpt><trkpt lat="36.309023" lon="30.070332"><ele>1278.224</ele><time>2017-04-15T11:27:31Z</time></trkpt><trkpt lat="36.309084" lon="30.071232"><ele>1279.820</ele><time>2017-04-15T11:27:51Z</time></trkpt><trkpt lat="36.308098" lon="30.072857"><ele>1268.589</ele><time>2017-04-15T11:28:11Z</time></trkpt><trkpt lat="36.307553" lon="30.074769"><ele>1233.216</ele><time>2017-04-15T11:28:31Z</time></trkpt><trkpt lat="36.300443" lon="30.073634"><ele>1038.624</ele><time>2017-04-15T11:28:51Z</time></trkpt><trkpt lat="36.299924" lon="30.073689"><ele>1033.084</ele><time>2017-04-15T11:29:11Z</time></trkpt><trkpt lat="36.298167" lon="30.075583"><ele>998.859</ele><time>2017-04-15T11:29:31Z</time></trkpt><trkpt lat="36.295042" lon="30.076912"><ele>926.216</ele><time>2017-04-15T11:29:51Z</time></trkpt><trkpt lat="36.294536" lon="30.076504"><ele>919.827</ele><time>2017-04-15T11:30:11Z</time></trkpt><trkpt lat="36.293176" lon="30.075807"><ele>897.868</ele><time>2017-04-15T11:30:31Z</time></trkpt><trkpt lat="36.292376" lon="30.074886"><ele>887.114</ele><time>2017-04-15T11:30:51Z</time></trkpt><trkpt lat="36.291514" lon="30.074718"><ele>878.308</ele><time>2017-04-15T11:31:11Z</time></trkpt><trkpt lat="36.290859" lon="30.075109"><ele>872.638</ele><time>2017-04-15T11:31:31Z</time></trkpt><trkpt lat="36.290856" lon="30.075461"><ele>865.934</ele><time>2017-04-15T11:31:51Z</time></trkpt><trkpt lat="36.291497" lon="30.075749"><ele>859.463</ele><time>2017-04-15T11:32:11Z</time></trkpt><trkpt lat="36.291197" lon="30.076688"><ele>839.050</ele><time>2017-04-15T11:32:31Z</time></trkpt><trkpt lat="36.291679" lon="30.078437"><ele>841.778</ele><time>2017-04-15T11:32:51Z</time></trkpt><trkpt lat="36.292721" lon="30.080060"><ele>838.198</ele><time>2017-04-15T11:33:11Z</time></trkpt><trkpt lat="36.291311" lon="30.081153"><ele>823.753</ele><time>2017-04-15T11:33:31Z</time></trkpt><trkpt lat="36.289930" lon="30.082706"><ele>838.570</ele><time>2017-04-15T11:33:51Z</time></trkpt><trkpt lat="36.288274" lon="30.085292"><ele>831.794</ele><time>2017-04-15T11:34:11Z</time></trkpt><trkpt lat="36.287841" lon="30.087206"><ele>827.357</ele><time>2017-04-15T11:34:31Z</time></trkpt><trkpt lat="36.287711" lon="30.089125"><ele>828.622</ele><time>2017-04-15T11:34:51Z</time></trkpt><trkpt lat="36.286138" lon="30.089722"><ele>827.108</ele><time>2017-04-15T11:35:11Z</time></trkpt><trkpt lat="36.286188" lon="30.090849"><ele>828.435</ele><time>2017-04-15T11:35:31Z</time></trkpt><trkpt lat="36.285983" lon="30.092426"><ele>826.151</ele><time>2017-04-15T11:35:51Z</time></trkpt><trkpt lat="36.285930" lon="30.092278"><ele>826.960</ele><time>2017-04-15T11:36:11Z</time></trkpt><trkpt lat="36.286657" lon="30.094723"><ele>817.497</ele><time>2017-04-15T11:36:31Z</time></trkpt><trkpt lat="36.286579" lon="30.097609"><ele>799.555</ele><time>2017-04-15T11:36:51Z</time></trkpt><trkpt lat="36.287267" lon="30.099847"><ele>752.765</ele><time>2017-04-15T11:37:11Z</time></trkpt><trkpt lat="36.287697" lon="30.101708"><ele>736.190</ele><time>2017-04-15T11:37:31Z</time></trkpt><trkpt lat="36.287607" lon="30.101898"><ele>731.917</ele><time>2017-04-15T11:37:51Z</time></trkpt><trkpt lat="36.288453" lon="30.102652"><ele>727.718</ele><time>2017-04-15T11:38:11Z</time></trkpt><trkpt lat="36.289284" lon="30.100255"><ele>720.098</ele><time>2017-04-15T11:38:31Z</time></trkpt><trkpt lat="36.290130" lon="30.102669"><ele>680.817</ele><time>2017-04-15T11:38:51Z</time></trkpt><trkpt lat="36.290739" lon="30.105227"><ele>653.908</ele><time>2017-04-15T11:39:11Z</time></trkpt><trkpt lat="36.292644" lon="30.109810"><ele>606.377</ele><time>2017-04-15T11:39:31Z</time></trkpt><trkpt lat="36.292202" lon="30.111127"><ele>605.523</ele><time>2017-04-15T11:39:51Z</time></trkpt><trkpt lat="36.289914" lon="30.113186"><ele>533.252</ele><time>2017-04-15T11:40:11Z</time></trkpt><trkpt lat="36.289228" lon="30.114188"><ele>511.499</ele><time>2017-04-15T11:40:31Z</time></trkpt><trkpt lat="36.288543" lon="30.114845"><ele>472.937</ele><time>2017-04-15T11:40:51Z</time></trkpt><trkpt lat="36.288006" lon="30.116977"><ele>434.067</ele><time>2017-04-15T11:41:11Z</time></trkpt><trkpt lat="36.286538" lon="30.120568"><ele>364.262</ele><time>2017-04-15T11:41:31Z</time></trkpt><trkpt lat="36.286094" lon="30.122347"><ele>335.339</ele><time>2017-04-15T11:41:51Z</time></trkpt><trkpt lat="36.284200" lon="30.124107"><ele>304.044</ele><time>2017-04-15T11:42:11Z</time></trkpt><trkpt lat="36.283654" lon="30.124397"><ele>287.005</ele><time>2017-04-15T11:42:31Z</time></trkpt><trkpt lat="36.282477" lon="30.126087"><ele>245.915</ele><time>2017-04-15T11:42:51Z</time></trkpt><trkpt lat="36.282700" lon="30.127465"><ele>233.208</ele><time>2017-04-15T11:43:11Z</time></trkpt><trkpt lat="36.283129" lon="30.128605"><ele>212.480</ele><time>2017-04-15T11:43:31Z</time></trkpt><trkpt lat="36.283366" lon="30.130358"><ele>201.086</ele><time>2017-04-15T11:43:51Z</time></trkpt><trkpt lat="36.283023" lon="30.132231"><ele>165.145</ele><time>2017-04-15T11:44:11Z</time></trkpt><trkpt lat="36.283336" lon="30.133165"><ele>172.562</ele><time>2017-04-15T11:44:31Z</time></trkpt><trkpt lat="36.283985" lon="30.133578"><ele>163.790</ele><time>2017-04-15T11:44:51Z</time></trkpt><trkpt lat="36.284519" lon="30.133241"><ele>180.010</ele><time>2017-04-15T11:45:11Z</time></trkpt><trkpt lat="36.284406" lon="30.134186"><ele>151.335</ele><time>2017-04-15T11:45:31Z</time></trkpt><trkpt lat="36.284528" lon="30.135496"><ele>121.642</ele><time>2017-04-15T11:45:51Z</time></trkpt><trkpt lat="36.284970" lon="30.136045"><ele>116.083</ele><time>2017-04-15T11:46:11Z</time></trkpt><trkpt lat="36.286181" lon="30.135798"><ele>111.225</ele><time>2017-04-15T11:46:31Z</time></trkpt><trkpt lat="36.287077" lon="30.136366"><ele>105.217</ele><time>2017-04-15T11:46:51Z</time></trkpt><trkpt lat="36.287827" lon="30.136496"><ele>117.508</ele><time>2017-04-15T11:47:11Z</time></trkpt><trkpt lat="36.288666" lon="30.137073"><ele>118.474</ele><time>2017-04-15T11:47:31Z</time></trkpt><trkpt lat="36.290197" lon="30.137271"><ele>108.050</ele><time>2017-04-15T11:47:51Z</time></trkpt><trkpt lat="36.292078" lon="30.137775"><ele>86.189</ele><time>2017-04-15T11:48:11Z</time></trkpt><trkpt lat="36.294731" lon="30.140098"><ele>58.386</ele><time>2017-04-15T11:48:31Z</time></trkpt><trkpt lat="36.294866" lon="30.141938"><ele>36.194</ele><time>2017-04-15T11:48:51Z</time></trkpt><trkpt lat="36.295990" lon="30.145877"><ele>5.764</ele><time>2017-04-15T11:49:11Z</time></trkpt><trkpt lat="36.295816" lon="30.145951"><ele>4.959</ele><time>2017-04-15T11:49:31Z</time></trkpt><trkpt lat="36.297072" lon="30.146055"><ele>3.376</ele><time>2017-04-15T11:49:51Z</time></trkpt><trkpt lat="36.300254" lon="30.147600"><ele>5.062</ele><time>2017-04-15T11:50:11Z</time></trkpt><trkpt lat="36.309315" lon="30.164251"><ele>3.183</ele><time>2017-04-15T11:50:31Z</time></trkpt><trkpt lat="36.315263" lon="30.186481"><ele>1.011</ele><time>2017-04-15T11:50:51Z</time></trkpt><trkpt lat="36.314849" lon="30.218453"><ele>1.508</ele><time>2017-04-15T11:51:11Z</time></trkpt><trkpt lat="36.314918" lon="30.226436"><ele>1.362</ele><time>2017-04-15T11:51:31Z</time></trkpt><trkpt lat="36.316820" lon="30.236220"><ele>0.658</ele><time>2017-04-15T11:51:51Z</time></trkpt><trkpt lat="36.316474" lon="30.257292"><ele>-1.787</ele><time>2017-04-15T11:52:11Z</time></trkpt><trkpt lat="36.319620" lon="30.272355"><ele>0.664</ele><time>2017-04-15T11:52:31Z</time></trkpt><trkpt lat="36.317373" lon="30.291495"><ele>3.762</ele><time>2017-04-15T11:52:51Z</time></trkpt><trkpt lat="36.311944" lon="30.309820"><ele>1.452</ele><time>2017-04-15T11:53:11Z</time></trkpt><trkpt lat="36.299943" lon="30.335526"><ele>2.697</ele><time>2017-04-15T11:53:31Z</time></trkpt><trkpt lat="36.291503" lon="30.344882"><ele>6.064</ele><time>2017-04-15T11:53:51Z</time></trkpt><trkpt lat="36.276594" lon="30.360546"><ele>12.174</ele><time>2017-04-15T11:54:11Z</time></trkpt><trkpt lat="36.271992" lon="30.370889"><ele>39.556</ele><time>2017-04-15T11:54:31Z</time></trkpt><trkpt lat="36.278185" lon="30.380630"><ele>45.821</ele><time>2017-04-15T11:54:51Z</time></trkpt><trkpt lat="36.274379" lon="30.385995"><ele>21.008</ele><time>2017-04-15T11:55:11Z</time></trkpt><trkpt lat="36.279292" lon="30.387540"><ele>14.463</ele><time>2017-04-15T11:55:31Z</time></trkpt><trkpt lat="36.281022" lon="30.394750"><ele>23.059</ele><time>2017-04-15T11:55:51Z</time></trkpt><trkpt lat="36.276836" lon="30.395780"><ele>52.548</ele><time>2017-04-15T11:56:11Z</time></trkpt><trkpt lat="36.274829" lon="30.400372"><ele>38.665</ele><time>2017-04-15T11:56:31Z</time></trkpt><trkpt lat="36.276801" lon="30.405521"><ele>23.243</ele><time>2017-04-15T11:56:51Z</time></trkpt><trkpt lat="36.278393" lon="30.406680"><ele>14.233</ele><time>2017-04-15T11:57:11Z</time></trkpt><trkpt lat="36.277943" lon="30.407925"><ele>6.588</ele><time>2017-04-15T11:57:31Z</time></trkpt><trkpt lat="36.275348" lon="30.407538"><ele>0.865</ele><time>2017-04-15T11:57:51Z</time></trkpt><trkpt lat="36.274552" lon="30.409427"><ele>4.783</ele><time>2017-04-15T11:58:11Z</time></trkpt><trkpt lat="36.276047" lon="30.410790"><ele>12.125</ele><time>2017-04-15T11:58:31Z</time></trkpt><trkpt lat="36.275257" lon="30.410010"><ele>5.217</ele><time>2017-04-15T11:58:51Z</time></trkpt><trkpt lat="36.273265" lon="30.410372"><ele>10.808</ele><time>2017-04-15T11:59:11Z</time></trkpt><trkpt lat="36.271413" lon="30.411420"><ele>12.634</ele><time>2017-04-15T11:59:31Z</time></trkpt><trkpt lat="36.269606" lon="30.413681"><ele>26.740</ele><time>2017-04-15T11:59:51Z</time></trkpt><trkpt lat="36.268486" lon="30.414830"><ele>24.079</ele><time>2017-04-15T12:00:11Z</time></trkpt><trkpt lat="36.263580" lon="30.414795"><ele>36.336</ele><time>2017-04-15T12:00:31Z</time></trkpt><trkpt lat="36.262812" lon="30.414206"><ele>41.734</ele><time>2017-04-15T12:00:51Z</time></trkpt><trkpt lat="36.263089" lon="30.413115"><ele>21.544</ele><time>2017-04-15T12:01:11Z</time></trkpt><trkpt lat="36.262450" lon="30.412258"><ele>8.759</ele><time>2017-04-15T12:01:31Z</time></trkpt><trkpt lat="36.260302" lon="30.411680"><ele>22.386</ele><time>2017-04-15T12:01:51Z</time></trkpt><trkpt lat="36.260079" lon="30.412602"><ele>44.043</ele><time>2017-04-15T12:02:11Z</time></trkpt><trkpt lat="36.258352" lon="30.411472"><ele>55.064</ele><time>2017-04-15T12:02:31Z</time></trkpt><trkpt lat="36.257053" lon="30.411146"><ele>37.910</ele><time>2017-04-15T12:02:51Z</time></trkpt><trkpt lat="36.255750" lon="30.410164"><ele>31.008</ele><time>2017-04-15T12:03:11Z</time></trkpt><trkpt lat="36.254302" lon="30.409883"><ele>46.860</ele><time>2017-04-15T12:03:31Z</time></trkpt><trkpt lat="36.253684" lon="30.407572"><ele>46.926</ele><time>2017-04-15T12:03:51Z</time></trkpt><trkpt lat="36.251775" lon="30.407060"><ele>40.095</ele><time>2017-04-15T12:04:11Z</time></trkpt><trkpt lat="36.249653" lon="30.405915"><ele>54.042</ele><time>2017-04-15T12:04:31Z</time></trkpt><trkpt lat="36.247827" lon="30.405145"><ele>56.930</ele><time>2017-04-15T12:04:51Z</time></trkpt><trkpt lat="36.245076" lon="30.405561"><ele>52.850</ele><time>2017-04-15T12:05:11Z</time></trkpt><trkpt lat="36.241863" lon="30.407740"><ele>71.345</ele><time>2017-04-15T12:05:31Z</time></trkpt><trkpt lat="36.240930" lon="30.408138"><ele>78.952</ele><time>2017-04-15T12:05:51Z</time></trkpt><trkpt lat="36.239265" lon="30.408109"><ele>86.167</ele><time>2017-04-15T12:06:11Z</time></trkpt><trkpt lat="36.238335" lon="30.408463"><ele>80.081</ele><time>2017-04-15T12:06:31Z</time></trkpt><trkpt lat="36.236792" lon="30.408440"><ele>74.219</ele><time>2017-04-15T12:06:51Z</time></trkpt><trkpt lat="36.235596" lon="30.407323"><ele>71.108</ele><time>2017-04-15T12:07:11Z</time></trkpt><trkpt lat="36.234101" lon="30.406341"><ele>62.392</ele><time>2017-04-15T12:07:31Z</time></trkpt><trkpt lat="36.231941" lon="30.406108"><ele>56.938</ele><time>2017-04-15T12:07:51Z</time></trkpt><trkpt lat="36.230149" lon="30.406103"><ele>48.287</ele><time>2017-04-15T12:08:11Z</time></trkpt><trkpt lat="36.228585" lon="30.406321"><ele>62.844</ele><time>2017-04-15T12:08:31Z</time></trkpt><trkpt lat="36.226097" lon="30.405863"><ele>74.662</ele><time>2017-04-15T12:08:51Z</time></trkpt><trkpt lat="36.224915" lon="30.405857"><ele>87.172</ele><time>2017-04-15T12:09:11Z</time></trkpt><trkpt lat="36.223137" lon="30.406034"><ele>89.487</ele><time>2017-04-15T12:09:31Z</time></trkpt><trkpt lat="36.219658" lon="30.406738"><ele>127.264</ele><time>2017-04-15T12:09:51Z</time></trkpt><trkpt lat="36.218562" lon="30.407537"><ele>139.974</ele><time>2017-04-15T12:10:11Z</time></trkpt><trkpt lat="36.217692" lon="30.408826"><ele>161.656</ele><time>2017-04-15T12:10:31Z</time></trkpt><trkpt lat="36.219392" lon="30.408478"><ele>194.821</ele><time>2017-04-15T12:10:51Z</time></trkpt><trkpt lat="36.219236" lon="30.409390"><ele>222.408</ele><time>2017-04-15T12:11:11Z</time></trkpt><trkpt lat="36.219637" lon="30.409591"><ele>233.723</ele><time>2017-04-15T12:11:31Z</time></trkpt><trkpt lat="36.222110" lon="30.410126"><ele>315.299</ele><time>2017-04-15T12:11:51Z</time></trkpt><trkpt lat="36.223236" lon="30.410891"><ele>343.368</ele><time>2017-04-15T12:12:11Z</time></trkpt><trkpt lat="36.224088" lon="30.411807"><ele>367.035</ele><time>2017-04-15T12:12:31Z</time></trkpt><trkpt lat="36.225021" lon="30.411936"><ele>400.413</ele><time>2017-04-15T12:12:51Z</time></trkpt><trkpt lat="36.225614" lon="30.412382"><ele>405.223</ele><time>2017-04-15T12:13:11Z</time></trkpt><trkpt lat="36.226361" lon="30.412495"><ele>417.278</ele><time>2017-04-15T12:13:31Z</time></trkpt><trkpt lat="36.227136" lon="30.413875"><ele>401.145</ele><time>2017-04-15T12:13:51Z</time></trkpt><trkpt lat="36.228430" lon="30.415282"><ele>406.739</ele><time>2017-04-15T12:14:11Z</time></trkpt><trkpt lat="36.229743" lon="30.416052"><ele>407.001</ele><time>2017-04-15T12:14:31Z</time></trkpt><trkpt lat="36.230146" lon="30.416589"><ele>393.521</ele><time>2017-04-15T12:14:51Z</time></trkpt><trkpt lat="36.231153" lon="30.417385"><ele>358.308</ele><time>2017-04-15T12:15:11Z</time></trkpt><trkpt lat="36.232891" lon="30.417534"><ele>277.429</ele><time>2017-04-15T12:15:31Z</time></trkpt><trkpt lat="36.233752" lon="30.418666"><ele>263.455</ele><time>2017-04-15T12:15:51Z</time></trkpt><trkpt lat="36.235401" lon="30.420237"><ele>246.134</ele><time>2017-04-15T12:16:11Z</time></trkpt><trkpt lat="36.236225" lon="30.421537"><ele>237.591</ele><time>2017-04-15T12:16:31Z</time></trkpt><trkpt lat="36.239273" lon="30.424133"><ele>220.169</ele><time>2017-04-15T12:16:51Z</time></trkpt><trkpt lat="36.240121" lon="30.424502"><ele>216.919</ele><time>2017-04-15T12:17:11Z</time></trkpt><trkpt lat="36.240698" lon="30.425499"><ele>205.434</ele><time>2017-04-15T12:17:31Z</time></trkpt><trkpt lat="36.240797" lon="30.426314"><ele>191.821</ele><time>2017-04-15T12:17:51Z</time></trkpt><trkpt lat="36.241485" lon="30.427011"><ele>194.623</ele><time>2017-04-15T12:18:11Z</time></trkpt><trkpt lat="36.243339" lon="30.429510"><ele>207.983</ele><time>2017-04-15T12:18:31Z</time></trkpt><trkpt lat="36.243948" lon="30.431010"><ele>214.111</ele><time>2017-04-15T12:18:51Z</time></trkpt><trkpt lat="36.244938" lon="30.431819"><ele>229.408</ele><time>2017-04-15T12:19:11Z</time></trkpt><trkpt lat="36.246309" lon="30.433709"><ele>235.788</ele><time>2017-04-15T12:19:31Z</time></trkpt><trkpt lat="36.248864" lon="30.435626"><ele>243.464</ele><time>2017-04-15T12:19:51Z</time></trkpt><trkpt lat="36.249226" lon="30.436784"><ele>240.053</ele><time>2017-04-15T12:20:11Z</time></trkpt><trkpt lat="36.249256" lon="30.438006"><ele>212.140</ele><time>2017-04-15T12:20:31Z</time></trkpt><trkpt lat="36.250375" lon="30.439024"><ele>232.268</ele><time>2017-04-15T12:20:51Z</time></trkpt><trkpt lat="36.250823" lon="30.439926"><ele>208.378</ele><time>2017-04-15T12:21:11Z</time></trkpt><trkpt lat="36.252298" lon="30.441049"><ele>128.863</ele><time>2017-04-15T12:21:31Z</time></trkpt><trkpt lat="36.252102" lon="30.441961"><ele>107.290</ele><time>2017-04-15T12:21:51Z</time></trkpt><trkpt lat="36.252324" lon="30.443040"><ele>110.715</ele><time>2017-04-15T12:22:11Z</time></trkpt><trkpt lat="36.253102" lon="30.444535"><ele>106.065</ele><time>2017-04-15T12:22:31Z</time></trkpt><trkpt lat="36.253889" lon="30.445247"><ele>101.411</ele><time>2017-04-15T12:22:51Z</time></trkpt><trkpt lat="36.256685" lon="30.446670"><ele>132.308</ele><time>2017-04-15T12:23:11Z</time></trkpt><trkpt lat="36.257268" lon="30.446625"><ele>145.877</ele><time>2017-04-15T12:23:31Z</time></trkpt><trkpt lat="36.258904" lon="30.446894"><ele>179.963</ele><time>2017-04-15T12:23:51Z</time></trkpt><trkpt lat="36.259605" lon="30.447204"><ele>191.152</ele><time>2017-04-15T12:24:11Z</time></trkpt><trkpt lat="36.260777" lon="30.446489"><ele>228.559</ele><time>2017-04-15T12:24:31Z</time></trkpt><trkpt lat="36.261149" lon="30.446591"><ele>242.127</ele><time>2017-04-15T12:24:51Z</time></trkpt><trkpt lat="36.262129" lon="30.447551"><ele>250.837</ele><time>2017-04-15T12:25:11Z</time></trkpt><trkpt lat="36.263993" lon="30.448661"><ele>294.162</ele><time>2017-04-15T12:25:31Z</time></trkpt><trkpt lat="36.265628" lon="30.448487"><ele>343.419</ele><time>2017-04-15T12:25:51Z</time></trkpt><trkpt lat="36.268942" lon="30.448920"><ele>378.369</ele><time>2017-04-15T12:26:11Z</time></trkpt><trkpt lat="36.270218" lon="30.448686"><ele>381.204</ele><time>2017-04-15T12:26:31Z</time></trkpt><trkpt lat="36.272913" lon="30.447761"><ele>407.724</ele><time>2017-04-15T12:26:51Z</time></trkpt><trkpt lat="36.276083" lon="30.447907"><ele>302.008</ele><time>2017-04-15T12:27:11Z</time></trkpt><trkpt lat="36.276871" lon="30.448175"><ele>279.192</ele><time>2017-04-15T12:27:31Z</time></trkpt><trkpt lat="36.279619" lon="30.449824"><ele>243.138</ele><time>2017-04-15T12:27:51Z</time></trkpt><trkpt lat="36.280703" lon="30.450232"><ele>210.877</ele><time>2017-04-15T12:28:11Z</time></trkpt><trkpt lat="36.283122" lon="30.453075"><ele>132.294</ele><time>2017-04-15T12:28:31Z</time></trkpt><trkpt lat="36.287836" lon="30.455058"><ele>72.482</ele><time>2017-04-15T12:28:51Z</time></trkpt><trkpt lat="36.292724" lon="30.460038"><ele>32.842</ele><time>2017-04-15T12:29:11Z</time></trkpt><trkpt lat="36.294436" lon="30.463423"><ele>13.417</ele><time>2017-04-15T12:29:31Z</time></trkpt><trkpt lat="36.299805" lon="30.465051"><ele>11.244</ele><time>2017-04-15T12:29:51Z</time></trkpt><trkpt lat="36.302234" lon="30.465962"><ele>9.564</ele><time>2017-04-15T12:30:11Z</time></trkpt><trkpt lat="36.303027" lon="30.465384"><ele>6.506</ele><time>2017-04-15T12:30:31Z</time></trkpt><trkpt lat="36.302775" lon="30.465890"><ele>0.116</ele><time>2017-04-15T12:30:51Z</time></trkpt><trkpt lat="36.301998" lon="30.466060"><ele>9.108</ele><time>2017-04-15T12:31:11Z</time></trkpt><trkpt lat="36.301897" lon="30.465015"><ele>32.212</ele><time>2017-04-15T12:31:31Z</time></trkpt><trkpt lat="36.302201" lon="30.465945"><ele>10.068</ele><time>2017-04-15T12:31:51Z</time></trkpt></trkseg></trk></gpx>