<?xml version="1.0" encoding="UTF-8"?><gpx creator="Wikiloc - https://www.wikiloc.com" version="1.1" xmlns="http://www.topografix.com/GPX/1/1" xmlns:xsi="http://www.w3.org/2001/XMLSchema-instance" xsi:schemaLocation="http://www.topografix.com/GPX/1/1 http://www.topografix.com/GPX/1/1/gpx.xsd"><metadata><name>Wikiloc - LİKYA YOLU - 3 (ADRASAN - OLİMPOS - BEYCİK - GEDELME - GÖYNÜK KANYONU - HİSARÇANDIR.)( LYCIAN WAY PART 3)</name><author><name>erolgeygel</name><link href="https://www.wikiloc.com/wikiloc/user.do?id=1859487"><text>erolgeygel on Wikiloc</text></link></author><link href="https://www.wikiloc.com/hiking-trails/likya-yolu-3-adrasan-olimpos-beycik-gedelme-goynuk-kanyonu-hisarcandir-lycian-way-part-3-63243096"><text>LİKYA YOLU - 3 (ADRASAN - OLİMPOS - BEYCİK - GEDELME - GÖYNÜK KANYONU - HİSARÇANDIR.)( LYCIAN WAY PART 3) on Wikiloc</text></link><time>2017-04-15T13:22:31Z</time></metadata><wpt lat="36.310379" lon="30.464169"><ele>.0</ele><time>2021-01-02T06:57:02.546Z</time><name>1 ADRASAN</name><cmt></cmt><desc></desc></wpt><wpt lat="36.328160" lon="30.464683"><ele>.0</ele><time>2021-01-02T06:57:09.713Z</time><name>2 MUSA DAĞI</name><cmt></cmt><desc></desc></wpt><wpt lat="36.342587" lon="30.473515"><ele>.0</ele><time>2021-01-02T06:57:17.941Z</time><name>3 PATİKA</name><cmt></cmt><desc></desc></wpt><wpt lat="36.357370" lon="30.473918"><ele>.0</ele><time>2021-01-02T06:57:25.012Z</time><name>4 KAMPA UYGUN</name><cmt></cmt><desc></desc></wpt><wpt lat="36.374569" lon="30.480636"><ele>.0</ele><time>2021-01-02T06:57:31.598Z</time><name>5 SANDAL AĞAÇLARI</name><cmt></cmt><desc></desc></wpt><wpt lat="36.393010" lon="30.471247"><ele>.0</ele><time>2021-01-02T06:57:39.161Z</time><name>6 OLİMPOS</name><cmt></cmt><desc></desc></wpt><wpt lat="36.396519" lon="30.475765"><ele>.0</ele><time>2021-01-02T06:57:46.935Z</time><name>7 OLİMPOS SAHİL</name><cmt></cmt><desc></desc></wpt><wpt lat="36.400747" lon="30.476105"><ele>.0</ele><time>2021-01-02T06:57:54.653Z</time><name>8 ÇIRALI SAHİL</name><cmt></cmt><desc></desc></wpt><wpt lat="36.429395" lon="30.464995"><ele>.0</ele><time>2021-01-02T06:58:02.249Z</time><name>9 LİKYA TABELA</name><cmt></cmt><desc></desc></wpt><wpt lat="36.431332" lon="30.456172"><ele>.0</ele><time>2021-01-02T06:58:10.611Z</time><name>10 YANARTAŞ</name><cmt></cmt><desc></desc></wpt><wpt lat="36.436022" lon="30.452765"><ele>.0</ele><time>2021-01-02T06:58:19.769Z</time><name>11 ÇIKIŞ</name><cmt></cmt><desc></desc></wpt><wpt lat="36.438884" lon="30.441579"><ele>.0</ele><time>2021-01-02T06:58:29.197Z</time><name>12  DERE GEÇİŞİ</name><cmt></cmt><desc></desc></wpt><wpt lat="36.451495" lon="30.431066"><ele>.0</ele><time>2021-01-02T06:58:36.821Z</time><name>13 SU NOKTASI</name><cmt></cmt><desc></desc></wpt><wpt lat="36.454776" lon="30.431799"><ele>.0</ele><time>2021-01-02T06:58:45.310Z</time><name>14 ULUPINAR</name><cmt></cmt><desc></desc></wpt><wpt lat="36.478788" lon="30.419251"><ele>.0</ele><time>2021-01-02T06:58:53.679Z</time><name>15 DERE</name><cmt></cmt><desc></desc></wpt><wpt lat="36.500257" lon="30.424488"><ele>.0</ele><time>2021-01-02T06:59:02.584Z</time><name>16 BEYCİK</name><cmt></cmt><desc></desc></wpt><wpt lat="36.526599" lon="30.422892"><ele>.0</ele><time>2021-01-02T06:59:09.819Z</time><name>17 SU - RAKIM 1300</name><cmt></cmt><desc></desc></wpt><wpt lat="36.539422" lon="30.417374"><ele>.0</ele><time>2021-01-02T06:59:25.382Z</time><name>18 RAKIM 1800 M</name><cmt></cmt><desc></desc></wpt><wpt lat="36.570793" lon="30.412870"><ele>.0</ele><time>2021-01-02T06:59:35.755Z</time><name>19 SU</name><cmt></cmt><desc></desc></wpt><wpt lat="36.575086" lon="30.422922"><ele>.0</ele><time>2021-01-02T06:59:44.804Z</time><name>20 KUZDERE YAYLASI</name><cmt></cmt><desc></desc></wpt><wpt lat="36.614787" lon="30.445649"><ele>.0</ele><time>2021-01-02T06:59:56.630Z</time><name>21 GEDELME</name><cmt></cmt><desc></desc></wpt><wpt lat="36.634835" lon="30.447325"><ele>.0</ele><time>2021-01-02T07:00:06.928Z</time><name>22 MEŞE ÇUKURU</name><cmt></cmt><desc></desc></wpt><wpt lat="36.664188" lon="30.453429"><ele>.0</ele><time>2021-01-02T07:00:17.234Z</time><name>23 GÖYNÜK YAYLA</name><cmt></cmt><desc></desc></wpt><wpt lat="36.676843" lon="30.482426"><ele>.0</ele><time>2021-01-02T07:00:27.017Z</time><name>24 KANYONA İNİŞ</name><cmt></cmt><desc></desc></wpt><wpt lat="36.682095" lon="30.532805"><ele>.0</ele><time>2021-01-02T07:00:37.213Z</time><name>25 GÖYNÜK</name><cmt></cmt><desc></desc></wpt><wpt lat="36.709101" lon="30.519849"><ele>.0</ele><time>2021-01-02T07:00:48.449Z</time><name>26 SARIÇINAR KAMP</name><cmt></cmt><desc></desc></wpt><wpt lat="36.743853" lon="30.501665"><ele>.0</ele><time>2021-01-02T07:00:58.709Z</time><name>27 HÜDACIK SIRTI GEÇİŞİ</name><cmt></cmt><desc></desc></wpt><wpt lat="36.752217" lon="30.477755"><ele>.0</ele><time>2021-01-02T07:01:10.206Z</time><name>28 PALAZ YAYLASI</name><cmt></cmt><desc></desc></wpt><wpt lat="36.758565" lon="30.477832"><ele>.0</ele><time>2021-01-02T07:01:23.326Z</time><name>29 YANGIN HAVUZU</name><cmt></cmt><desc></desc></wpt><wpt lat="36.772364" lon="30.469895"><ele>.0</ele><time>2021-01-02T07:01:35.897Z</time><name>30 HİSARÇANDIR</name><cmt></cmt><desc></desc></wpt><trk><name>LİKYA YOLU - 3 (ADRASAN - OLİMPOS - BEYCİK - GEDELME - GÖYNÜ...</name><cmt></cmt><desc></desc><trkseg><trkpt lat="36.302201" lon="30.465945"><ele>10.081</ele><time>2017-04-15T12:31:51Z</time></trkpt><trkpt lat="36.305119" lon="30.465038"><ele>3.961</ele><time>2017-04-15T12:32:11Z</time></trkpt><trkpt lat="36.310005" lon="30.464580"><ele>3.517</ele><time>2017-04-15T12:32:31Z</time></trkpt><trkpt lat="36.312751" lon="30.461917"><ele>4.108</ele><time>2017-04-15T12:32:51Z</time></trkpt><trkpt lat="36.314548" lon="30.461289"><ele>7.654</ele><time>2017-04-15T12:33:11Z</time></trkpt><trkpt lat="36.314601" lon="30.461848"><ele>5.361</ele><time>2017-04-15T12:33:31Z</time></trkpt><trkpt lat="36.315541" lon="30.463430"><ele>7.070</ele><time>2017-04-15T12:33:51Z</time></trkpt><trkpt lat="36.317508" lon="30.463638"><ele>6.482</ele><time>2017-04-15T12:34:11Z</time></trkpt><trkpt lat="36.318657" lon="30.463150"><ele>8.761</ele><time>2017-04-15T12:34:31Z</time></trkpt><trkpt lat="36.319294" lon="30.461925"><ele>10.528</ele><time>2017-04-15T12:34:51Z</time></trkpt><trkpt lat="36.320045" lon="30.461159"><ele>9.977</ele><time>2017-04-15T12:35:11Z</time></trkpt><trkpt lat="36.321290" lon="30.460598"><ele>10.684</ele><time>2017-04-15T12:35:31Z</time></trkpt><trkpt lat="36.321541" lon="30.460920"><ele>11.035</ele><time>2017-04-15T12:35:51Z</time></trkpt><trkpt lat="36.322432" lon="30.460375"><ele>13.086</ele><time>2017-04-15T12:36:11Z</time></trkpt><trkpt lat="36.322890" lon="30.460473"><ele>15.414</ele><time>2017-04-15T12:36:31Z</time></trkpt><trkpt lat="36.323540" lon="30.460790"><ele>15.108</ele><time>2017-04-15T12:36:51Z</time></trkpt><trkpt lat="36.323951" lon="30.461382"><ele>16.089</ele><time>2017-04-15T12:37:11Z</time></trkpt><trkpt lat="36.325139" lon="30.462167"><ele>19.236</ele><time>2017-04-15T12:37:31Z</time></trkpt><trkpt lat="36.325281" lon="30.462977"><ele>20.725</ele><time>2017-04-15T12:37:51Z</time></trkpt><trkpt lat="36.326466" lon="30.463909"><ele>26.067</ele><time>2017-04-15T12:38:11Z</time></trkpt><trkpt lat="36.326834" lon="30.463848"><ele>26.156</ele><time>2017-04-15T12:38:31Z</time></trkpt><trkpt lat="36.327524" lon="30.464090"><ele>30.463</ele><time>2017-04-15T12:38:51Z</time></trkpt><trkpt lat="36.327909" lon="30.464514"><ele>33.422</ele><time>2017-04-15T12:39:11Z</time></trkpt><trkpt lat="36.329895" lon="30.465264"><ele>60.059</ele><time>2017-04-15T12:39:31Z</time></trkpt><trkpt lat="36.330667" lon="30.465123"><ele>75.279</ele><time>2017-04-15T12:39:51Z</time></trkpt><trkpt lat="36.332152" lon="30.466056"><ele>80.705</ele><time>2017-04-15T12:40:11Z</time></trkpt><trkpt lat="36.335961" lon="30.465763"><ele>125.725</ele><time>2017-04-15T12:40:31Z</time></trkpt><trkpt lat="36.336727" lon="30.465868"><ele>126.808</ele><time>2017-04-15T12:40:51Z</time></trkpt><trkpt lat="36.337563" lon="30.465437"><ele>129.393</ele><time>2017-04-15T12:41:11Z</time></trkpt><trkpt lat="36.338167" lon="30.465305"><ele>127.610</ele><time>2017-04-15T12:41:31Z</time></trkpt><trkpt lat="36.338271" lon="30.466424"><ele>131.359</ele><time>2017-04-15T12:41:51Z</time></trkpt><trkpt lat="36.338031" lon="30.466656"><ele>134.531</ele><time>2017-04-15T12:42:11Z</time></trkpt><trkpt lat="36.337965" lon="30.468018"><ele>189.730</ele><time>2017-04-15T12:42:31Z</time></trkpt><trkpt lat="36.338263" lon="30.468341"><ele>204.697</ele><time>2017-04-15T12:42:51Z</time></trkpt><trkpt lat="36.338575" lon="30.469734"><ele>227.096</ele><time>2017-04-15T12:43:11Z</time></trkpt><trkpt lat="36.340656" lon="30.471176"><ele>227.113</ele><time>2017-04-15T12:43:31Z</time></trkpt><trkpt lat="36.340665" lon="30.471977"><ele>258.261</ele><time>2017-04-15T12:43:51Z</time></trkpt><trkpt lat="36.341459" lon="30.472444"><ele>279.521</ele><time>2017-04-15T12:44:11Z</time></trkpt><trkpt lat="36.342943" lon="30.473900"><ele>321.713</ele><time>2017-04-15T12:44:31Z</time></trkpt><trkpt lat="36.345552" lon="30.475143"><ele>340.908</ele><time>2017-04-15T12:44:51Z</time></trkpt><trkpt lat="36.348624" lon="30.476160"><ele>403.762</ele><time>2017-04-15T12:45:11Z</time></trkpt><trkpt lat="36.349395" lon="30.476169"><ele>424.429</ele><time>2017-04-15T12:45:31Z</time></trkpt><trkpt lat="36.350186" lon="30.476910"><ele>437.258</ele><time>2017-04-15T12:45:51Z</time></trkpt><trkpt lat="36.351289" lon="30.476833"><ele>461.530</ele><time>2017-04-15T12:46:11Z</time></trkpt><trkpt lat="36.351297" lon="30.477340"><ele>474.389</ele><time>2017-04-15T12:46:31Z</time></trkpt><trkpt lat="36.353909" lon="30.478077"><ele>552.216</ele><time>2017-04-15T12:46:51Z</time></trkpt><trkpt lat="36.354491" lon="30.478435"><ele>579.195</ele><time>2017-04-15T12:47:11Z</time></trkpt><trkpt lat="36.355418" lon="30.478066"><ele>606.242</ele><time>2017-04-15T12:47:31Z</time></trkpt><trkpt lat="36.356146" lon="30.477521"><ele>617.091</ele><time>2017-04-15T12:47:51Z</time></trkpt><trkpt lat="36.356512" lon="30.477043"><ele>634.581</ele><time>2017-04-15T12:48:11Z</time></trkpt><trkpt lat="36.356635" lon="30.475988"><ele>645.919</ele><time>2017-04-15T12:48:31Z</time></trkpt><trkpt lat="36.357260" lon="30.474386"><ele>668.008</ele><time>2017-04-15T12:48:51Z</time></trkpt><trkpt lat="36.358227" lon="30.473167"><ele>666.095</ele><time>2017-04-15T12:49:11Z</time></trkpt><trkpt lat="36.358310" lon="30.473368"><ele>673.372</ele><time>2017-04-15T12:49:31Z</time></trkpt><trkpt lat="36.361617" lon="30.473592"><ele>667.361</ele><time>2017-04-15T12:49:51Z</time></trkpt><trkpt lat="36.361968" lon="30.472837"><ele>657.373</ele><time>2017-04-15T12:50:11Z</time></trkpt><trkpt lat="36.363414" lon="30.473212"><ele>681.232</ele><time>2017-04-15T12:50:31Z</time></trkpt><trkpt lat="36.363814" lon="30.474299"><ele>708.779</ele><time>2017-04-15T12:50:51Z</time></trkpt><trkpt lat="36.363834" lon="30.475003"><ele>718.038</ele><time>2017-04-15T12:51:11Z</time></trkpt><trkpt lat="36.364036" lon="30.475549"><ele>720.015</ele><time>2017-04-15T12:51:31Z</time></trkpt><trkpt lat="36.364930" lon="30.475432"><ele>723.196</ele><time>2017-04-15T12:51:51Z</time></trkpt><trkpt lat="36.364189" lon="30.476015"><ele>716.031</ele><time>2017-04-15T12:52:11Z</time></trkpt><trkpt lat="36.364434" lon="30.480147"><ele>664.124</ele><time>2017-04-15T12:52:31Z</time></trkpt><trkpt lat="36.366193" lon="30.480303"><ele>636.208</ele><time>2017-04-15T12:52:51Z</time></trkpt><trkpt lat="36.366708" lon="30.480706"><ele>640.155</ele><time>2017-04-15T12:53:11Z</time></trkpt><trkpt lat="36.368229" lon="30.480941"><ele>613.552</ele><time>2017-04-15T12:53:31Z</time></trkpt><trkpt lat="36.369383" lon="30.481915"><ele>599.211</ele><time>2017-04-15T12:53:51Z</time></trkpt><trkpt lat="36.370115" lon="30.481471"><ele>564.083</ele><time>2017-04-15T12:54:11Z</time></trkpt><trkpt lat="36.371206" lon="30.481653"><ele>544.342</ele><time>2017-04-15T12:54:31Z</time></trkpt><trkpt lat="36.371220" lon="30.481381"><ele>535.259</ele><time>2017-04-15T12:54:51Z</time></trkpt><trkpt lat="36.372395" lon="30.480816"><ele>473.758</ele><time>2017-04-15T12:55:11Z</time></trkpt><trkpt lat="36.376718" lon="30.479664"><ele>332.485</ele><time>2017-04-15T12:55:31Z</time></trkpt><trkpt lat="36.379431" lon="30.476769"><ele>230.116</ele><time>2017-04-15T12:55:51Z</time></trkpt><trkpt lat="36.381654" lon="30.475479"><ele>173.876</ele><time>2017-04-15T12:56:11Z</time></trkpt><trkpt lat="36.382123" lon="30.474885"><ele>165.013</ele><time>2017-04-15T12:56:31Z</time></trkpt><trkpt lat="36.384250" lon="30.473600"><ele>150.808</ele><time>2017-04-15T12:56:51Z</time></trkpt><trkpt lat="36.387000" lon="30.472925"><ele>134.077</ele><time>2017-04-15T12:57:11Z</time></trkpt><trkpt lat="36.390102" lon="30.473223"><ele>92.484</ele><time>2017-04-15T12:57:31Z</time></trkpt><trkpt lat="36.392190" lon="30.472217"><ele>67.143</ele><time>2017-04-15T12:57:51Z</time></trkpt><trkpt lat="36.392427" lon="30.471662"><ele>36.445</ele><time>2017-04-15T12:58:11Z</time></trkpt><trkpt lat="36.410731" lon="30.478593"><ele>6.284</ele><time>2017-04-15T12:58:31Z</time></trkpt><trkpt lat="36.410569" lon="30.474725"><ele>4.191</ele><time>2017-04-15T12:58:51Z</time></trkpt><trkpt lat="36.413540" lon="30.472721"><ele>6.090</ele><time>2017-04-15T12:59:11Z</time></trkpt><trkpt lat="36.415827" lon="30.471379"><ele>18.377</ele><time>2017-04-15T12:59:31Z</time></trkpt><trkpt lat="36.420145" lon="30.468350"><ele>23.568</ele><time>2017-04-15T12:59:51Z</time></trkpt><trkpt lat="36.421922" lon="30.470264"><ele>8.542</ele><time>2017-04-15T13:00:11Z</time></trkpt><trkpt lat="36.423397" lon="30.470411"><ele>6.026</ele><time>2017-04-15T13:00:31Z</time></trkpt><trkpt lat="36.425763" lon="30.469513"><ele>16.108</ele><time>2017-04-15T13:00:51Z</time></trkpt><trkpt lat="36.427081" lon="30.467231"><ele>12.522</ele><time>2017-04-15T13:01:11Z</time></trkpt><trkpt lat="36.429396" lon="30.464984"><ele>19.319</ele><time>2017-04-15T13:01:31Z</time></trkpt><trkpt lat="36.430095" lon="30.460667"><ele>77.318</ele><time>2017-04-15T13:01:51Z</time></trkpt><trkpt lat="36.430193" lon="30.459138"><ele>110.150</ele><time>2017-04-15T13:02:11Z</time></trkpt><trkpt lat="36.430470" lon="30.457986"><ele>137.059</ele><time>2017-04-15T13:02:31Z</time></trkpt><trkpt lat="36.431175" lon="30.456478"><ele>145.626</ele><time>2017-04-15T13:02:51Z</time></trkpt><trkpt lat="36.432016" lon="30.455231"><ele>188.565</ele><time>2017-04-15T13:03:11Z</time></trkpt><trkpt lat="36.432557" lon="30.454691"><ele>209.882</ele><time>2017-04-15T13:03:31Z</time></trkpt><trkpt lat="36.433558" lon="30.454368"><ele>248.877</ele><time>2017-04-15T13:03:51Z</time></trkpt><trkpt lat="36.433486" lon="30.455137"><ele>239.161</ele><time>2017-04-15T13:04:11Z</time></trkpt><trkpt lat="36.434555" lon="30.453422"><ele>308.727</ele><time>2017-04-15T13:04:31Z</time></trkpt><trkpt lat="36.435498" lon="30.453098"><ele>330.808</ele><time>2017-04-15T13:04:51Z</time></trkpt><trkpt lat="36.436157" lon="30.452699"><ele>336.363</ele><time>2017-04-15T13:05:11Z</time></trkpt><trkpt lat="36.439000" lon="30.445812"><ele>217.130</ele><time>2017-04-15T13:05:31Z</time></trkpt><trkpt lat="36.439971" lon="30.441217"><ele>142.069</ele><time>2017-04-15T13:05:51Z</time></trkpt><trkpt lat="36.439815" lon="30.441168"><ele>141.431</ele><time>2017-04-15T13:06:11Z</time></trkpt><trkpt lat="36.442675" lon="30.439870"><ele>158.870</ele><time>2017-04-15T13:06:31Z</time></trkpt><trkpt lat="36.444264" lon="30.438207"><ele>202.467</ele><time>2017-04-15T13:06:51Z</time></trkpt><trkpt lat="36.445590" lon="30.437735"><ele>202.676</ele><time>2017-04-15T13:07:11Z</time></trkpt><trkpt lat="36.446578" lon="30.435975"><ele>211.713</ele><time>2017-04-15T13:07:31Z</time></trkpt><trkpt lat="36.448737" lon="30.435058"><ele>208.981</ele><time>2017-04-15T13:07:51Z</time></trkpt><trkpt lat="36.449893" lon="30.434027"><ele>223.961</ele><time>2017-04-15T13:08:11Z</time></trkpt><trkpt lat="36.448863" lon="30.432412"><ele>249.517</ele><time>2017-04-15T13:08:31Z</time></trkpt><trkpt lat="36.448152" lon="30.431758"><ele>279.608</ele><time>2017-04-15T13:08:51Z</time></trkpt><trkpt lat="36.450717" lon="30.430925"><ele>266.244</ele><time>2017-04-15T13:09:11Z</time></trkpt><trkpt lat="36.451492" lon="30.430305"><ele>282.571</ele><time>2017-04-15T13:09:31Z</time></trkpt><trkpt lat="36.453909" lon="30.429667"><ele>302.540</ele><time>2017-04-15T13:09:51Z</time></trkpt><trkpt lat="36.455688" lon="30.428462"><ele>322.862</ele><time>2017-04-15T13:10:11Z</time></trkpt><trkpt lat="36.455680" lon="30.427320"><ele>346.991</ele><time>2017-04-15T13:10:31Z</time></trkpt><trkpt lat="36.457164" lon="30.425754"><ele>370.378</ele><time>2017-04-15T13:10:51Z</time></trkpt><trkpt lat="36.458585" lon="30.425417"><ele>379.047</ele><time>2017-04-15T13:11:11Z</time></trkpt><trkpt lat="36.459510" lon="30.424631"><ele>401.174</ele><time>2017-04-15T13:11:31Z</time></trkpt><trkpt lat="36.460398" lon="30.424625"><ele>415.492</ele><time>2017-04-15T13:11:51Z</time></trkpt><trkpt lat="36.462060" lon="30.423876"><ele>421.473</ele><time>2017-04-15T13:12:11Z</time></trkpt><trkpt lat="36.463930" lon="30.423878"><ele>435.220</ele><time>2017-04-15T13:12:31Z</time></trkpt><trkpt lat="36.465942" lon="30.423206"><ele>450.608</ele><time>2017-04-15T13:12:51Z</time></trkpt><trkpt lat="36.467523" lon="30.422321"><ele>461.195</ele><time>2017-04-15T13:13:11Z</time></trkpt><trkpt lat="36.468746" lon="30.422295"><ele>475.462</ele><time>2017-04-15T13:13:31Z</time></trkpt><trkpt lat="36.470097" lon="30.422475"><ele>486.931</ele><time>2017-04-15T13:13:51Z</time></trkpt><trkpt lat="36.471152" lon="30.421214"><ele>498.943</ele><time>2017-04-15T13:14:11Z</time></trkpt><trkpt lat="36.472812" lon="30.419613"><ele>516.982</ele><time>2017-04-15T13:14:31Z</time></trkpt><trkpt lat="36.474293" lon="30.419326"><ele>529.789</ele><time>2017-04-15T13:14:51Z</time></trkpt><trkpt lat="36.475857" lon="30.417845"><ele>543.898</ele><time>2017-04-15T13:15:11Z</time></trkpt><trkpt lat="36.476527" lon="30.418750"><ele>539.215</ele><time>2017-04-15T13:15:31Z</time></trkpt><trkpt lat="36.477572" lon="30.419568"><ele>535.283</ele><time>2017-04-15T13:15:51Z</time></trkpt><trkpt lat="36.478258" lon="30.419137"><ele>532.525</ele><time>2017-04-15T13:16:11Z</time></trkpt><trkpt lat="36.479362" lon="30.419230"><ele>546.017</ele><time>2017-04-15T13:16:31Z</time></trkpt><trkpt lat="36.482651" lon="30.417023"><ele>654.508</ele><time>2017-04-15T13:16:51Z</time></trkpt><trkpt lat="36.482586" lon="30.418621"><ele>667.354</ele><time>2017-04-15T13:17:11Z</time></trkpt><trkpt lat="36.483036" lon="30.418237"><ele>673.171</ele><time>2017-04-15T13:17:31Z</time></trkpt><trkpt lat="36.485682" lon="30.421210"><ele>704.960</ele><time>2017-04-15T13:17:51Z</time></trkpt><trkpt lat="36.487178" lon="30.422148"><ele>694.782</ele><time>2017-04-15T13:18:11Z</time></trkpt><trkpt lat="36.489307" lon="30.421567"><ele>726.411</ele><time>2017-04-15T13:18:31Z</time></trkpt><trkpt lat="36.488870" lon="30.422982"><ele>703.228</ele><time>2017-04-15T13:18:51Z</time></trkpt><trkpt lat="36.487978" lon="30.424725"><ele>684.717</ele><time>2017-04-15T13:19:11Z</time></trkpt><trkpt lat="36.487757" lon="30.426225"><ele>671.834</ele><time>2017-04-15T13:19:31Z</time></trkpt><trkpt lat="36.487275" lon="30.427620"><ele>663.526</ele><time>2017-04-15T13:19:51Z</time></trkpt><trkpt lat="36.487923" lon="30.428984"><ele>652.447</ele><time>2017-04-15T13:20:11Z</time></trkpt><trkpt lat="36.488686" lon="30.429526"><ele>644.711</ele><time>2017-04-15T13:20:31Z</time></trkpt><trkpt lat="36.489654" lon="30.431375"><ele>650.508</ele><time>2017-04-15T13:20:51Z</time></trkpt><trkpt lat="36.490048" lon="30.431797"><ele>657.248</ele><time>2017-04-15T13:21:11Z</time></trkpt><trkpt lat="36.491298" lon="30.431584"><ele>687.345</ele><time>2017-04-15T13:21:31Z</time></trkpt><trkpt lat="36.492439" lon="30.431107"><ele>699.924</ele><time>2017-04-15T13:21:51Z</time></trkpt><trkpt lat="36.493674" lon="30.431018"><ele>719.416</ele><time>2017-04-15T13:22:11Z</time></trkpt><trkpt lat="36.494864" lon="30.431377"><ele>715.495</ele><time>2017-04-15T13:22:31Z</time></trkpt><trkpt lat="36.495846" lon="30.432543"><ele>711.492</ele><time>2017-04-15T13:22:51Z</time></trkpt><trkpt lat="36.496851" lon="30.432518"><ele>720.711</ele><time>2017-04-15T13:23:11Z</time></trkpt><trkpt lat="36.498877" lon="30.430679"><ele>746.458</ele><time>2017-04-15T13:23:31Z</time></trkpt><trkpt lat="36.500055" lon="30.430198"><ele>762.896</ele><time>2017-04-15T13:23:51Z</time></trkpt><trkpt lat="36.500960" lon="30.428627"><ele>775.431</ele><time>2017-04-15T13:24:11Z</time></trkpt><trkpt lat="36.502170" lon="30.427909"><ele>786.524</ele><time>2017-04-15T13:24:31Z</time></trkpt><trkpt lat="36.503492" lon="30.427540"><ele>794.708</ele><time>2017-04-15T13:24:51Z</time></trkpt><trkpt lat="36.504055" lon="30.426529"><ele>809.875</ele><time>2017-04-15T13:25:11Z</time></trkpt><trkpt lat="36.504301" lon="30.423976"><ele>845.222</ele><time>2017-04-15T13:25:31Z</time></trkpt><trkpt lat="36.504569" lon="30.423701"><ele>851.071</ele><time>2017-04-15T13:25:51Z</time></trkpt><trkpt lat="36.505033" lon="30.423652"><ele>862.083</ele><time>2017-04-15T13:26:11Z</time></trkpt><trkpt lat="36.505121" lon="30.422620"><ele>878.272</ele><time>2017-04-15T13:26:31Z</time></trkpt><trkpt lat="36.505618" lon="30.421683"><ele>895.789</ele><time>2017-04-15T13:26:51Z</time></trkpt><trkpt lat="36.506373" lon="30.420881"><ele>912.158</ele><time>2017-04-15T13:27:11Z</time></trkpt><trkpt lat="36.507750" lon="30.420009"><ele>950.265</ele><time>2017-04-15T13:27:31Z</time></trkpt><trkpt lat="36.508412" lon="30.420910"><ele>957.326</ele><time>2017-04-15T13:27:51Z</time></trkpt><trkpt lat="36.509518" lon="30.420245"><ele>977.047</ele><time>2017-04-15T13:28:11Z</time></trkpt><trkpt lat="36.512516" lon="30.419241"><ele>996.311</ele><time>2017-04-15T13:28:31Z</time></trkpt><trkpt lat="36.513973" lon="30.419480"><ele>1020.308</ele><time>2017-04-15T13:28:51Z</time></trkpt><trkpt lat="36.516165" lon="30.419575"><ele>1069.878</ele><time>2017-04-15T13:29:11Z</time></trkpt><trkpt lat="36.517366" lon="30.420002"><ele>1099.235</ele><time>2017-04-15T13:29:31Z</time></trkpt><trkpt lat="36.517753" lon="30.420936"><ele>1110.954</ele><time>2017-04-15T13:29:51Z</time></trkpt><trkpt lat="36.518664" lon="30.421176"><ele>1121.846</ele><time>2017-04-15T13:30:11Z</time></trkpt><trkpt lat="36.520275" lon="30.421003"><ele>1152.985</ele><time>2017-04-15T13:30:31Z</time></trkpt><trkpt lat="36.522611" lon="30.421827"><ele>1186.592</ele><time>2017-04-15T13:30:51Z</time></trkpt><trkpt lat="36.523765" lon="30.422362"><ele>1192.291</ele><time>2017-04-15T13:31:11Z</time></trkpt><trkpt lat="36.524786" lon="30.423049"><ele>1207.348</ele><time>2017-04-15T13:31:31Z</time></trkpt><trkpt lat="36.525579" lon="30.423116"><ele>1228.719</ele><time>2017-04-15T13:31:51Z</time></trkpt><trkpt lat="36.525821" lon="30.423006"><ele>1236.009</ele><time>2017-04-15T13:32:11Z</time></trkpt><trkpt lat="36.526297" lon="30.423300"><ele>1250.319</ele><time>2017-04-15T13:32:31Z</time></trkpt><trkpt lat="36.527429" lon="30.422904"><ele>1293.308</ele><time>2017-04-15T13:32:51Z</time></trkpt><trkpt lat="36.528171" lon="30.421470"><ele>1357.767</ele><time>2017-04-15T13:33:11Z</time></trkpt><trkpt lat="36.531650" lon="30.421917"><ele>1463.494</ele><time>2017-04-15T13:33:31Z</time></trkpt><trkpt lat="36.531885" lon="30.420453"><ele>1513.143</ele><time>2017-04-15T13:33:51Z</time></trkpt><trkpt lat="36.533947" lon="30.420163"><ele>1580.525</ele><time>2017-04-15T13:34:11Z</time></trkpt><trkpt lat="36.534522" lon="30.419067"><ele>1641.914</ele><time>2017-04-15T13:34:31Z</time></trkpt><trkpt lat="36.535937" lon="30.417202"><ele>1733.241</ele><time>2017-04-15T13:34:51Z</time></trkpt><trkpt lat="36.536848" lon="30.417321"><ele>1752.780</ele><time>2017-04-15T13:35:11Z</time></trkpt><trkpt lat="36.537748" lon="30.416752"><ele>1768.827</ele><time>2017-04-15T13:35:31Z</time></trkpt><trkpt lat="36.538699" lon="30.417113"><ele>1795.097</ele><time>2017-04-15T13:35:51Z</time></trkpt><trkpt lat="36.539953" lon="30.417071"><ele>1806.023</ele><time>2017-04-15T13:36:11Z</time></trkpt><trkpt lat="36.540175" lon="30.417565"><ele>1817.025</ele><time>2017-04-15T13:36:31Z</time></trkpt><trkpt lat="36.540958" lon="30.417825"><ele>1815.408</ele><time>2017-04-15T13:36:51Z</time></trkpt><trkpt lat="36.542234" lon="30.417869"><ele>1795.985</ele><time>2017-04-15T13:37:11Z</time></trkpt><trkpt lat="36.544205" lon="30.418195"><ele>1782.452</ele><time>2017-04-15T13:37:31Z</time></trkpt><trkpt lat="36.544016" lon="30.416554"><ele>1757.551</ele><time>2017-04-15T13:37:51Z</time></trkpt><trkpt lat="36.544588" lon="30.414616"><ele>1714.733</ele><time>2017-04-15T13:38:11Z</time></trkpt><trkpt lat="36.545467" lon="30.413520"><ele>1697.212</ele><time>2017-04-15T13:38:31Z</time></trkpt><trkpt lat="36.546185" lon="30.412912"><ele>1678.999</ele><time>2017-04-15T13:38:51Z</time></trkpt><trkpt lat="36.546162" lon="30.413511"><ele>1679.518</ele><time>2017-04-15T13:39:11Z</time></trkpt><trkpt lat="36.547808" lon="30.414588"><ele>1653.865</ele><time>2017-04-15T13:39:31Z</time></trkpt><trkpt lat="36.547606" lon="30.413560"><ele>1636.035</ele><time>2017-04-15T13:39:51Z</time></trkpt><trkpt lat="36.548132" lon="30.413635"><ele>1615.386</ele><time>2017-04-15T13:40:11Z</time></trkpt><trkpt lat="36.549344" lon="30.413380"><ele>1599.014</ele><time>2017-04-15T13:40:31Z</time></trkpt><trkpt lat="36.549611" lon="30.415144"><ele>1567.408</ele><time>2017-04-15T13:40:51Z</time></trkpt><trkpt lat="36.549910" lon="30.415390"><ele>1544.239</ele><time>2017-04-15T13:41:11Z</time></trkpt><trkpt lat="36.550688" lon="30.415587"><ele>1516.816</ele><time>2017-04-15T13:41:31Z</time></trkpt><trkpt lat="36.550994" lon="30.416451"><ele>1484.535</ele><time>2017-04-15T13:41:51Z</time></trkpt><trkpt lat="36.551570" lon="30.416847"><ele>1454.847</ele><time>2017-04-15T13:42:11Z</time></trkpt><trkpt lat="36.552873" lon="30.416738"><ele>1421.336</ele><time>2017-04-15T13:42:31Z</time></trkpt><trkpt lat="36.553415" lon="30.416519"><ele>1416.773</ele><time>2017-04-15T13:42:51Z</time></trkpt><trkpt lat="36.555784" lon="30.416066"><ele>1372.912</ele><time>2017-04-15T13:43:11Z</time></trkpt><trkpt lat="36.556884" lon="30.415019"><ele>1376.249</ele><time>2017-04-15T13:43:31Z</time></trkpt><trkpt lat="36.558349" lon="30.414609"><ele>1367.677</ele><time>2017-04-15T13:43:51Z</time></trkpt><trkpt lat="36.559758" lon="30.414471"><ele>1328.161</ele><time>2017-04-15T13:44:11Z</time></trkpt><trkpt lat="36.560561" lon="30.415961"><ele>1234.227</ele><time>2017-04-15T13:44:31Z</time></trkpt><trkpt lat="36.564769" lon="30.417866"><ele>1151.408</ele><time>2017-04-15T13:44:51Z</time></trkpt><trkpt lat="36.566905" lon="30.415319"><ele>1162.373</ele><time>2017-04-15T13:45:11Z</time></trkpt><trkpt lat="36.567231" lon="30.413779"><ele>1173.040</ele><time>2017-04-15T13:45:31Z</time></trkpt><trkpt lat="36.568010" lon="30.412404"><ele>1159.849</ele><time>2017-04-15T13:45:51Z</time></trkpt><trkpt lat="36.570202" lon="30.411765"><ele>1159.571</ele><time>2017-04-15T13:46:11Z</time></trkpt><trkpt lat="36.571070" lon="30.412858"><ele>1153.480</ele><time>2017-04-15T13:46:31Z</time></trkpt><trkpt lat="36.570725" lon="30.416077"><ele>1072.577</ele><time>2017-04-15T13:46:51Z</time></trkpt><trkpt lat="36.571322" lon="30.418240"><ele>1005.396</ele><time>2017-04-15T13:47:11Z</time></trkpt><trkpt lat="36.572114" lon="30.419199"><ele>976.533</ele><time>2017-04-15T13:47:31Z</time></trkpt><trkpt lat="36.572764" lon="30.419713"><ele>967.129</ele><time>2017-04-15T13:47:51Z</time></trkpt><trkpt lat="36.572874" lon="30.420771"><ele>948.600</ele><time>2017-04-15T13:48:11Z</time></trkpt><trkpt lat="36.574603" lon="30.421412"><ele>931.120</ele><time>2017-04-15T13:48:31Z</time></trkpt><trkpt lat="36.574749" lon="30.422354"><ele>907.908</ele><time>2017-04-15T13:48:51Z</time></trkpt><trkpt lat="36.575713" lon="30.423450"><ele>898.828</ele><time>2017-04-15T13:49:11Z</time></trkpt><trkpt lat="36.579060" lon="30.423986"><ele>897.675</ele><time>2017-04-15T13:49:31Z</time></trkpt><trkpt lat="36.580890" lon="30.426286"><ele>877.844</ele><time>2017-04-15T13:49:51Z</time></trkpt><trkpt lat="36.581686" lon="30.426692"><ele>879.386</ele><time>2017-04-15T13:50:11Z</time></trkpt><trkpt lat="36.582702" lon="30.426217"><ele>894.255</ele><time>2017-04-15T13:50:31Z</time></trkpt><trkpt lat="36.583467" lon="30.425503"><ele>907.862</ele><time>2017-04-15T13:50:51Z</time></trkpt><trkpt lat="36.585061" lon="30.425157"><ele>899.861</ele><time>2017-04-15T13:51:11Z</time></trkpt><trkpt lat="36.586127" lon="30.425160"><ele>901.258</ele><time>2017-04-15T13:51:31Z</time></trkpt><trkpt lat="36.587467" lon="30.425500"><ele>921.159</ele><time>2017-04-15T13:51:51Z</time></trkpt><trkpt lat="36.588823" lon="30.426283"><ele>921.703</ele><time>2017-04-15T13:52:11Z</time></trkpt><trkpt lat="36.591387" lon="30.426804"><ele>934.023</ele><time>2017-04-15T13:52:31Z</time></trkpt><trkpt lat="36.592648" lon="30.426404"><ele>933.108</ele><time>2017-04-15T13:52:51Z</time></trkpt><trkpt lat="36.593934" lon="30.425419"><ele>926.891</ele><time>2017-04-15T13:53:11Z</time></trkpt><trkpt lat="36.593925" lon="30.424236"><ele>934.658</ele><time>2017-04-15T13:53:31Z</time></trkpt><trkpt lat="36.594882" lon="30.423185"><ele>940.277</ele><time>2017-04-15T13:53:51Z</time></trkpt><trkpt lat="36.596502" lon="30.422605"><ele>942.139</ele><time>2017-04-15T13:54:11Z</time></trkpt><trkpt lat="36.596967" lon="30.421872"><ele>936.258</ele><time>2017-04-15T13:54:31Z</time></trkpt><trkpt lat="36.598188" lon="30.421492"><ele>933.565</ele><time>2017-04-15T13:54:51Z</time></trkpt><trkpt lat="36.599450" lon="30.420767"><ele>937.774</ele><time>2017-04-15T13:55:11Z</time></trkpt><trkpt lat="36.601279" lon="30.423098"><ele>919.291</ele><time>2017-04-15T13:55:31Z</time></trkpt><trkpt lat="36.602579" lon="30.423948"><ele>905.333</ele><time>2017-04-15T13:55:51Z</time></trkpt><trkpt lat="36.603565" lon="30.424266"><ele>895.823</ele><time>2017-04-15T13:56:11Z</time></trkpt><trkpt lat="36.603956" lon="30.426064"><ele>883.715</ele><time>2017-04-15T13:56:31Z</time></trkpt><trkpt lat="36.604863" lon="30.427737"><ele>867.508</ele><time>2017-04-15T13:56:51Z</time></trkpt><trkpt lat="36.605206" lon="30.429190"><ele>856.269</ele><time>2017-04-15T13:57:11Z</time></trkpt><trkpt lat="36.605212" lon="30.430930"><ele>849.716</ele><time>2017-04-15T13:57:31Z</time></trkpt><trkpt lat="36.604835" lon="30.433360"><ele>835.415</ele><time>2017-04-15T13:57:51Z</time></trkpt><trkpt lat="36.606349" lon="30.436956"><ele>817.257</ele><time>2017-04-15T13:58:11Z</time></trkpt><trkpt lat="36.607089" lon="30.438290"><ele>809.216</ele><time>2017-04-15T13:58:31Z</time></trkpt><trkpt lat="36.606752" lon="30.440889"><ele>794.833</ele><time>2017-04-15T13:58:51Z</time></trkpt><trkpt lat="36.605190" lon="30.441356"><ele>773.912</ele><time>2017-04-15T13:59:11Z</time></trkpt><trkpt lat="36.604048" lon="30.439478"><ele>755.869</ele><time>2017-04-15T13:59:31Z</time></trkpt><trkpt lat="36.604501" lon="30.441592"><ele>745.496</ele><time>2017-04-15T13:59:51Z</time></trkpt><trkpt lat="36.609342" lon="30.444568"><ele>683.731</ele><time>2017-04-15T14:00:11Z</time></trkpt><trkpt lat="36.610666" lon="30.444647"><ele>684.924</ele><time>2017-04-15T14:00:31Z</time></trkpt><trkpt lat="36.611656" lon="30.445124"><ele>689.708</ele><time>2017-04-15T14:00:51Z</time></trkpt><trkpt lat="36.612883" lon="30.444922"><ele>692.125</ele><time>2017-04-15T14:01:11Z</time></trkpt><trkpt lat="36.614366" lon="30.444887"><ele>684.132</ele><time>2017-04-15T14:01:31Z</time></trkpt><trkpt lat="36.614487" lon="30.445689"><ele>681.231</ele><time>2017-04-15T14:01:51Z</time></trkpt><trkpt lat="36.614619" lon="30.445530"><ele>681.693</ele><time>2017-04-15T14:02:11Z</time></trkpt><trkpt lat="36.614042" lon="30.447094"><ele>678.082</ele><time>2017-04-15T14:02:31Z</time></trkpt><trkpt lat="36.614191" lon="30.449673"><ele>671.369</ele><time>2017-04-15T14:02:51Z</time></trkpt><trkpt lat="36.615183" lon="30.452682"><ele>663.638</ele><time>2017-04-15T14:03:11Z</time></trkpt><trkpt lat="36.617985" lon="30.454032"><ele>637.045</ele><time>2017-04-15T14:03:31Z</time></trkpt><trkpt lat="36.618952" lon="30.454638"><ele>657.936</ele><time>2017-04-15T14:03:51Z</time></trkpt><trkpt lat="36.620000" lon="30.454445"><ele>669.017</ele><time>2017-04-15T14:04:11Z</time></trkpt><trkpt lat="36.620827" lon="30.453533"><ele>680.318</ele><time>2017-04-15T14:04:31Z</time></trkpt><trkpt lat="36.623050" lon="30.452711"><ele>715.008</ele><time>2017-04-15T14:04:51Z</time></trkpt><trkpt lat="36.624761" lon="30.452929"><ele>734.869</ele><time>2017-04-15T14:05:11Z</time></trkpt><trkpt lat="36.625925" lon="30.452423"><ele>739.156</ele><time>2017-04-15T14:05:31Z</time></trkpt><trkpt lat="36.626824" lon="30.452255"><ele>748.815</ele><time>2017-04-15T14:05:51Z</time></trkpt><trkpt lat="36.630676" lon="30.452350"><ele>802.237</ele><time>2017-04-15T14:06:11Z</time></trkpt><trkpt lat="36.631229" lon="30.451979"><ele>811.636</ele><time>2017-04-15T14:06:31Z</time></trkpt><trkpt lat="36.631985" lon="30.450195"><ele>835.653</ele><time>2017-04-15T14:06:51Z</time></trkpt><trkpt lat="36.632371" lon="30.446220"><ele>910.042</ele><time>2017-04-15T14:07:11Z</time></trkpt><trkpt lat="36.632687" lon="30.445673"><ele>922.959</ele><time>2017-04-15T14:07:31Z</time></trkpt><trkpt lat="36.632807" lon="30.446775"><ele>930.063</ele><time>2017-04-15T14:07:51Z</time></trkpt><trkpt lat="36.633154" lon="30.447315"><ele>944.944</ele><time>2017-04-15T14:08:11Z</time></trkpt><trkpt lat="36.633331" lon="30.446925"><ele>960.118</ele><time>2017-04-15T14:08:31Z</time></trkpt><trkpt lat="36.633913" lon="30.447193"><ele>968.108</ele><time>2017-04-15T14:08:51Z</time></trkpt><trkpt lat="36.634775" lon="30.447082"><ele>964.452</ele><time>2017-04-15T14:09:11Z</time></trkpt><trkpt lat="36.635459" lon="30.447309"><ele>956.639</ele><time>2017-04-15T14:09:31Z</time></trkpt><trkpt lat="36.635641" lon="30.448505"><ele>951.348</ele><time>2017-04-15T14:09:51Z</time></trkpt><trkpt lat="36.636395" lon="30.448786"><ele>952.690</ele><time>2017-04-15T14:10:11Z</time></trkpt><trkpt lat="36.637175" lon="30.448488"><ele>949.449</ele><time>2017-04-15T14:10:31Z</time></trkpt><trkpt lat="36.638552" lon="30.448689"><ele>939.646</ele><time>2017-04-15T14:10:51Z</time></trkpt><trkpt lat="36.638489" lon="30.449515"><ele>938.025</ele><time>2017-04-15T14:11:11Z</time></trkpt><trkpt lat="36.639411" lon="30.451412"><ele>934.822</ele><time>2017-04-15T14:11:31Z</time></trkpt><trkpt lat="36.640519" lon="30.452188"><ele>940.639</ele><time>2017-04-15T14:11:51Z</time></trkpt><trkpt lat="36.641999" lon="30.452148"><ele>937.601</ele><time>2017-04-15T14:12:11Z</time></trkpt><trkpt lat="36.641995" lon="30.450778"><ele>949.521</ele><time>2017-04-15T14:12:31Z</time></trkpt><trkpt lat="36.642399" lon="30.451340"><ele>930.608</ele><time>2017-04-15T14:12:51Z</time></trkpt><trkpt lat="36.643416" lon="30.450666"><ele>896.959</ele><time>2017-04-15T14:13:11Z</time></trkpt><trkpt lat="36.645108" lon="30.450939"><ele>841.776</ele><time>2017-04-15T14:13:31Z</time></trkpt><trkpt lat="36.645666" lon="30.450785"><ele>823.335</ele><time>2017-04-15T14:13:51Z</time></trkpt><trkpt lat="36.646011" lon="30.450438"><ele>823.487</ele><time>2017-04-15T14:14:11Z</time></trkpt><trkpt lat="36.647994" lon="30.449858"><ele>813.266</ele><time>2017-04-15T14:14:31Z</time></trkpt><trkpt lat="36.649064" lon="30.448199"><ele>829.553</ele><time>2017-04-15T14:14:51Z</time></trkpt><trkpt lat="36.652190" lon="30.448649"><ele>880.142</ele><time>2017-04-15T14:15:11Z</time></trkpt><trkpt lat="36.652985" lon="30.449944"><ele>887.219</ele><time>2017-04-15T14:15:31Z</time></trkpt><trkpt lat="36.653177" lon="30.451783"><ele>890.486</ele><time>2017-04-15T14:15:51Z</time></trkpt><trkpt lat="36.653789" lon="30.452696"><ele>897.660</ele><time>2017-04-15T14:16:11Z</time></trkpt><trkpt lat="36.654701" lon="30.452716"><ele>905.726</ele><time>2017-04-15T14:16:31Z</time></trkpt><trkpt lat="36.655266" lon="30.453336"><ele>919.708</ele><time>2017-04-15T14:16:51Z</time></trkpt><trkpt lat="36.656652" lon="30.453302"><ele>954.364</ele><time>2017-04-15T14:17:11Z</time></trkpt><trkpt lat="36.659225" lon="30.452862"><ele>973.491</ele><time>2017-04-15T14:17:31Z</time></trkpt><trkpt lat="36.663217" lon="30.452643"><ele>895.890</ele><time>2017-04-15T14:17:51Z</time></trkpt><trkpt lat="36.664580" lon="30.453608"><ele>870.682</ele><time>2017-04-15T14:18:11Z</time></trkpt><trkpt lat="36.667517" lon="30.455285"><ele>847.151</ele><time>2017-04-15T14:18:31Z</time></trkpt><trkpt lat="36.668310" lon="30.455575"><ele>845.218</ele><time>2017-04-15T14:18:51Z</time></trkpt><trkpt lat="36.669524" lon="30.454115"><ele>841.727</ele><time>2017-04-15T14:19:11Z</time></trkpt><trkpt lat="36.670155" lon="30.455171"><ele>821.524</ele><time>2017-04-15T14:19:31Z</time></trkpt><trkpt lat="36.671352" lon="30.455885"><ele>794.773</ele><time>2017-04-15T14:19:51Z</time></trkpt><trkpt lat="36.672224" lon="30.457047"><ele>728.485</ele><time>2017-04-15T14:20:11Z</time></trkpt><trkpt lat="36.672391" lon="30.457849"><ele>716.313</ele><time>2017-04-15T14:20:31Z</time></trkpt><trkpt lat="36.673090" lon="30.459698"><ele>699.908</ele><time>2017-04-15T14:20:51Z</time></trkpt><trkpt lat="36.674191" lon="30.459941"><ele>720.293</ele><time>2017-04-15T14:21:11Z</time></trkpt><trkpt lat="36.674313" lon="30.460724"><ele>721.940</ele><time>2017-04-15T14:21:31Z</time></trkpt><trkpt lat="36.674254" lon="30.462679"><ele>704.179</ele><time>2017-04-15T14:21:51Z</time></trkpt><trkpt lat="36.674428" lon="30.463176"><ele>698.841</ele><time>2017-04-15T14:22:11Z</time></trkpt><trkpt lat="36.676778" lon="30.463942"><ele>688.070</ele><time>2017-04-15T14:22:31Z</time></trkpt><trkpt lat="36.678470" lon="30.464309"><ele>695.737</ele><time>2017-04-15T14:22:51Z</time></trkpt><trkpt lat="36.677606" lon="30.466741"><ele>658.726</ele><time>2017-04-15T14:23:11Z</time></trkpt><trkpt lat="36.678844" lon="30.467910"><ele>646.993</ele><time>2017-04-15T14:23:31Z</time></trkpt><trkpt lat="36.679390" lon="30.467815"><ele>646.852</ele><time>2017-04-15T14:23:51Z</time></trkpt><trkpt lat="36.679390" lon="30.468896"><ele>639.553</ele><time>2017-04-15T14:24:11Z</time></trkpt><trkpt lat="36.679018" lon="30.469545"><ele>631.108</ele><time>2017-04-15T14:24:31Z</time></trkpt><trkpt lat="36.678391" lon="30.469834"><ele>612.708</ele><time>2017-04-15T14:24:51Z</time></trkpt><trkpt lat="36.678127" lon="30.470384"><ele>608.351</ele><time>2017-04-15T14:25:11Z</time></trkpt><trkpt lat="36.677660" lon="30.470804"><ele>597.228</ele><time>2017-04-15T14:25:31Z</time></trkpt><trkpt lat="36.677070" lon="30.473043"><ele>561.877</ele><time>2017-04-15T14:25:51Z</time></trkpt><trkpt lat="36.676651" lon="30.473421"><ele>546.639</ele><time>2017-04-15T14:26:11Z</time></trkpt><trkpt lat="36.675929" lon="30.477301"><ele>484.138</ele><time>2017-04-15T14:26:31Z</time></trkpt><trkpt lat="36.675823" lon="30.478882"><ele>451.675</ele><time>2017-04-15T14:26:51Z</time></trkpt><trkpt lat="36.675812" lon="30.480545"><ele>430.624</ele><time>2017-04-15T14:27:11Z</time></trkpt><trkpt lat="36.675960" lon="30.481157"><ele>414.691</ele><time>2017-04-15T14:27:31Z</time></trkpt><trkpt lat="36.676919" lon="30.482441"><ele>420.938</ele><time>2017-04-15T14:27:51Z</time></trkpt><trkpt lat="36.677301" lon="30.486094"><ele>367.270</ele><time>2017-04-15T14:28:11Z</time></trkpt><trkpt lat="36.678287" lon="30.486759"><ele>352.917</ele><time>2017-04-15T14:28:31Z</time></trkpt><trkpt lat="36.678182" lon="30.488285"><ele>355.008</ele><time>2017-04-15T14:28:51Z</time></trkpt><trkpt lat="36.678425" lon="30.489114"><ele>336.199</ele><time>2017-04-15T14:29:11Z</time></trkpt><trkpt lat="36.678245" lon="30.491553"><ele>346.786</ele><time>2017-04-15T14:29:31Z</time></trkpt><trkpt lat="36.677578" lon="30.493433"><ele>336.665</ele><time>2017-04-15T14:29:51Z</time></trkpt><trkpt lat="36.676197" lon="30.494527"><ele>304.777</ele><time>2017-04-15T14:30:11Z</time></trkpt><trkpt lat="36.675557" lon="30.498263"><ele>374.026</ele><time>2017-04-15T14:30:31Z</time></trkpt><trkpt lat="36.674822" lon="30.499237"><ele>419.783</ele><time>2017-04-15T14:30:51Z</time></trkpt><trkpt lat="36.673616" lon="30.500267"><ele>466.742</ele><time>2017-04-15T14:31:11Z</time></trkpt><trkpt lat="36.672807" lon="30.501355"><ele>507.469</ele><time>2017-04-15T14:31:31Z</time></trkpt><trkpt lat="36.669787" lon="30.501564"><ele>583.983</ele><time>2017-04-15T14:31:51Z</time></trkpt><trkpt lat="36.672917" lon="30.502934"><ele>590.125</ele><time>2017-04-15T14:32:11Z</time></trkpt><trkpt lat="36.674121" lon="30.505028"><ele>649.017</ele><time>2017-04-15T14:32:31Z</time></trkpt><trkpt lat="36.674095" lon="30.505893"><ele>695.508</ele><time>2017-04-15T14:32:51Z</time></trkpt><trkpt lat="36.673584" lon="30.506342"><ele>724.464</ele><time>2017-04-15T14:33:11Z</time></trkpt><trkpt lat="36.673218" lon="30.506933"><ele>729.281</ele><time>2017-04-15T14:33:31Z</time></trkpt><trkpt lat="36.673976" lon="30.508030"><ele>688.430</ele><time>2017-04-15T14:33:51Z</time></trkpt><trkpt lat="36.674256" lon="30.509786"><ele>561.512</ele><time>2017-04-15T14:34:11Z</time></trkpt><trkpt lat="36.674799" lon="30.511471"><ele>477.721</ele><time>2017-04-15T14:34:31Z</time></trkpt><trkpt lat="36.674574" lon="30.513295"><ele>440.068</ele><time>2017-04-15T14:34:51Z</time></trkpt><trkpt lat="36.673418" lon="30.516050"><ele>416.587</ele><time>2017-04-15T14:35:11Z</time></trkpt><trkpt lat="36.673488" lon="30.517527"><ele>389.244</ele><time>2017-04-15T14:35:31Z</time></trkpt><trkpt lat="36.671745" lon="30.519073"><ele>368.677</ele><time>2017-04-15T14:35:51Z</time></trkpt><trkpt lat="36.673300" lon="30.521284"><ele>346.261</ele><time>2017-04-15T14:36:11Z</time></trkpt><trkpt lat="36.675703" lon="30.521797"><ele>299.727</ele><time>2017-04-15T14:36:31Z</time></trkpt><trkpt lat="36.675179" lon="30.523666"><ele>271.608</ele><time>2017-04-15T14:36:51Z</time></trkpt><trkpt lat="36.675941" lon="30.525281"><ele>230.333</ele><time>2017-04-15T14:37:11Z</time></trkpt><trkpt lat="36.679520" lon="30.526698"><ele>135.650</ele><time>2017-04-15T14:37:31Z</time></trkpt><trkpt lat="36.682441" lon="30.531246"><ele>56.299</ele><time>2017-04-15T14:37:51Z</time></trkpt><trkpt lat="36.682584" lon="30.532036"><ele>64.891</ele><time>2017-04-15T14:38:11Z</time></trkpt><trkpt lat="36.682296" lon="30.533140"><ele>60.880</ele><time>2017-04-15T14:38:31Z</time></trkpt><trkpt lat="36.682801" lon="30.542168"><ele>48.787</ele><time>2017-04-15T14:38:51Z</time></trkpt><trkpt lat="36.682127" lon="30.544824"><ele>52.276</ele><time>2017-04-15T14:39:11Z</time></trkpt><trkpt lat="36.681656" lon="30.547898"><ele>42.163</ele><time>2017-04-15T14:39:31Z</time></trkpt><trkpt lat="36.680931" lon="30.550075"><ele>35.725</ele><time>2017-04-15T14:39:51Z</time></trkpt><trkpt lat="36.681374" lon="30.551015"><ele>36.326</ele><time>2017-04-15T14:40:11Z</time></trkpt><trkpt lat="36.681493" lon="30.550868"><ele>38.008</ele><time>2017-04-15T14:40:31Z</time></trkpt><trkpt lat="36.681422" lon="30.550990"><ele>36.808</ele><time>2017-04-15T14:40:51Z</time></trkpt><trkpt lat="36.680936" lon="30.549912"><ele>35.878</ele><time>2017-04-15T14:41:11Z</time></trkpt><trkpt lat="36.680933" lon="30.549021"><ele>34.725</ele><time>2017-04-15T14:41:31Z</time></trkpt><trkpt lat="36.681263" lon="30.547948"><ele>38.254</ele><time>2017-04-15T14:41:51Z</time></trkpt><trkpt lat="36.681984" lon="30.546955"><ele>39.976</ele><time>2017-04-15T14:42:11Z</time></trkpt><trkpt lat="36.682172" lon="30.544315"><ele>49.395</ele><time>2017-04-15T14:42:31Z</time></trkpt><trkpt lat="36.682812" lon="30.541925"><ele>50.142</ele><time>2017-04-15T14:42:51Z</time></trkpt><trkpt lat="36.682670" lon="30.540761"><ele>53.451</ele><time>2017-04-15T14:43:11Z</time></trkpt><trkpt lat="36.682835" lon="30.539391"><ele>56.168</ele><time>2017-04-15T14:43:31Z</time></trkpt><trkpt lat="36.682681" lon="30.537806"><ele>55.222</ele><time>2017-04-15T14:43:51Z</time></trkpt><trkpt lat="36.682718" lon="30.536423"><ele>59.762</ele><time>2017-04-15T14:44:11Z</time></trkpt><trkpt lat="36.682345" lon="30.533488"><ele>60.708</ele><time>2017-04-15T14:44:31Z</time></trkpt><trkpt lat="36.682578" lon="30.531616"><ele>62.408</ele><time>2017-04-15T14:44:51Z</time></trkpt><trkpt lat="36.683299" lon="30.528790"><ele>68.488</ele><time>2017-04-15T14:45:11Z</time></trkpt><trkpt lat="36.683280" lon="30.527691"><ele>70.475</ele><time>2017-04-15T14:45:31Z</time></trkpt><trkpt lat="36.683773" lon="30.526785"><ele>90.444</ele><time>2017-04-15T14:45:51Z</time></trkpt><trkpt lat="36.687101" lon="30.526022"><ele>121.696</ele><time>2017-04-15T14:46:11Z</time></trkpt><trkpt lat="36.688565" lon="30.526283"><ele>135.695</ele><time>2017-04-15T14:46:31Z</time></trkpt><trkpt lat="36.691698" lon="30.524895"><ele>160.152</ele><time>2017-04-15T14:46:51Z</time></trkpt><trkpt lat="36.694252" lon="30.523285"><ele>194.441</ele><time>2017-04-15T14:47:11Z</time></trkpt><trkpt lat="36.699266" lon="30.522249"><ele>253.878</ele><time>2017-04-15T14:47:31Z</time></trkpt><trkpt lat="36.699776" lon="30.522448"><ele>262.873</ele><time>2017-04-15T14:47:51Z</time></trkpt><trkpt lat="36.702032" lon="30.520529"><ele>352.985</ele><time>2017-04-15T14:48:11Z</time></trkpt><trkpt lat="36.703970" lon="30.519485"><ele>379.513</ele><time>2017-04-15T14:48:31Z</time></trkpt><trkpt lat="36.707558" lon="30.519233"><ele>449.108</ele><time>2017-04-15T14:48:51Z</time></trkpt><trkpt lat="36.708679" lon="30.519711"><ele>453.413</ele><time>2017-04-15T14:49:11Z</time></trkpt><trkpt lat="36.708681" lon="30.519382"><ele>456.980</ele><time>2017-04-15T14:49:31Z</time></trkpt><trkpt lat="36.708960" lon="30.519764"><ele>448.139</ele><time>2017-04-15T14:49:51Z</time></trkpt><trkpt lat="36.709352" lon="30.519893"><ele>449.171</ele><time>2017-04-15T14:50:11Z</time></trkpt><trkpt lat="36.709930" lon="30.517550"><ele>510.680</ele><time>2017-04-15T14:50:31Z</time></trkpt><trkpt lat="36.711291" lon="30.518427"><ele>547.297</ele><time>2017-04-15T14:50:51Z</time></trkpt><trkpt lat="36.712221" lon="30.517178"><ele>599.116</ele><time>2017-04-15T14:51:11Z</time></trkpt><trkpt lat="36.713364" lon="30.516568"><ele>631.423</ele><time>2017-04-15T14:51:31Z</time></trkpt><trkpt lat="36.715148" lon="30.516327"><ele>658.861</ele><time>2017-04-15T14:51:51Z</time></trkpt><trkpt lat="36.716015" lon="30.517316"><ele>645.921</ele><time>2017-04-15T14:52:11Z</time></trkpt><trkpt lat="36.717001" lon="30.516978"><ele>673.613</ele><time>2017-04-15T14:52:31Z</time></trkpt><trkpt lat="36.717929" lon="30.516149"><ele>676.508</ele><time>2017-04-15T14:52:51Z</time></trkpt><trkpt lat="36.718949" lon="30.516151"><ele>691.412</ele><time>2017-04-15T14:53:11Z</time></trkpt><trkpt lat="36.719705" lon="30.515627"><ele>697.229</ele><time>2017-04-15T14:53:31Z</time></trkpt><trkpt lat="36.719994" lon="30.515727"><ele>698.848</ele><time>2017-04-15T14:53:51Z</time></trkpt><trkpt lat="36.724968" lon="30.514396"><ele>768.620</ele><time>2017-04-15T14:54:11Z</time></trkpt><trkpt lat="36.726409" lon="30.513128"><ele>796.929</ele><time>2017-04-15T14:54:31Z</time></trkpt><trkpt lat="36.728961" lon="30.512657"><ele>880.216</ele><time>2017-04-15T14:54:51Z</time></trkpt><trkpt lat="36.729967" lon="30.511861"><ele>909.885</ele><time>2017-04-15T14:55:11Z</time></trkpt><trkpt lat="36.730162" lon="30.512259"><ele>917.362</ele><time>2017-04-15T14:55:31Z</time></trkpt><trkpt lat="36.733119" lon="30.510024"><ele>1000.517</ele><time>2017-04-15T14:55:51Z</time></trkpt><trkpt lat="36.735241" lon="30.509389"><ele>1041.987</ele><time>2017-04-15T14:56:11Z</time></trkpt><trkpt lat="36.735876" lon="30.508858"><ele>1051.415</ele><time>2017-04-15T14:56:31Z</time></trkpt><trkpt lat="36.740704" lon="30.507145"><ele>1063.708</ele><time>2017-04-15T14:56:51Z</time></trkpt><trkpt lat="36.742118" lon="30.504437"><ele>1066.337</ele><time>2017-04-15T14:57:11Z</time></trkpt><trkpt lat="36.743090" lon="30.503238"><ele>1080.094</ele><time>2017-04-15T14:57:31Z</time></trkpt><trkpt lat="36.744025" lon="30.502609"><ele>1089.823</ele><time>2017-04-15T14:57:51Z</time></trkpt><trkpt lat="36.743974" lon="30.501829"><ele>1120.075</ele><time>2017-04-15T14:58:11Z</time></trkpt><trkpt lat="36.744230" lon="30.500879"><ele>1161.934</ele><time>2017-04-15T14:58:31Z</time></trkpt><trkpt lat="36.743985" lon="30.499469"><ele>1239.471</ele><time>2017-04-15T14:58:51Z</time></trkpt><trkpt lat="36.744063" lon="30.499130"><ele>1251.910</ele><time>2017-04-15T14:59:11Z</time></trkpt><trkpt lat="36.744167" lon="30.499243"><ele>1246.397</ele><time>2017-04-15T14:59:31Z</time></trkpt><trkpt lat="36.743770" lon="30.498187"><ele>1313.471</ele><time>2017-04-15T14:59:51Z</time></trkpt><trkpt lat="36.744056" lon="30.497615"><ele>1343.741</ele><time>2017-04-15T15:00:11Z</time></trkpt><trkpt lat="36.743882" lon="30.497325"><ele>1361.315</ele><time>2017-04-15T15:00:31Z</time></trkpt><trkpt lat="36.744467" lon="30.496994"><ele>1353.408</ele><time>2017-04-15T15:00:51Z</time></trkpt><trkpt lat="36.744537" lon="30.496125"><ele>1331.283</ele><time>2017-04-15T15:01:11Z</time></trkpt><trkpt lat="36.744382" lon="30.495585"><ele>1329.110</ele><time>2017-04-15T15:01:31Z</time></trkpt><trkpt lat="36.743418" lon="30.494369"><ele>1358.059</ele><time>2017-04-15T15:01:51Z</time></trkpt><trkpt lat="36.742938" lon="30.490440"><ele>1389.071</ele><time>2017-04-15T15:02:11Z</time></trkpt><trkpt lat="36.742467" lon="30.489064"><ele>1388.210</ele><time>2017-04-15T15:02:31Z</time></trkpt><trkpt lat="36.742426" lon="30.488541"><ele>1400.977</ele><time>2017-04-15T15:02:51Z</time></trkpt><trkpt lat="36.743419" lon="30.486837"><ele>1414.496</ele><time>2017-04-15T15:03:11Z</time></trkpt><trkpt lat="36.743971" lon="30.485179"><ele>1441.973</ele><time>2017-04-15T15:03:31Z</time></trkpt><trkpt lat="36.744002" lon="30.483778"><ele>1475.644</ele><time>2017-04-15T15:03:51Z</time></trkpt><trkpt lat="36.743823" lon="30.483629"><ele>1482.505</ele><time>2017-04-15T15:04:11Z</time></trkpt><trkpt lat="36.746687" lon="30.483530"><ele>1479.215</ele><time>2017-04-15T15:04:31Z</time></trkpt><trkpt lat="36.746460" lon="30.483396"><ele>1477.108</ele><time>2017-04-15T15:04:51Z</time></trkpt><trkpt lat="36.746089" lon="30.481220"><ele>1469.110</ele><time>2017-04-15T15:05:11Z</time></trkpt><trkpt lat="36.746531" lon="30.479699"><ele>1457.047</ele><time>2017-04-15T15:05:31Z</time></trkpt><trkpt lat="36.745870" lon="30.479085"><ele>1456.116</ele><time>2017-04-15T15:05:51Z</time></trkpt><trkpt lat="36.745928" lon="30.477659"><ele>1435.938</ele><time>2017-04-15T15:06:11Z</time></trkpt><trkpt lat="36.745075" lon="30.475525"><ele>1424.097</ele><time>2017-04-15T15:06:31Z</time></trkpt><trkpt lat="36.744608" lon="30.473793"><ele>1397.254</ele><time>2017-04-15T15:06:51Z</time></trkpt><trkpt lat="36.745860" lon="30.474605"><ele>1384.523</ele><time>2017-04-15T15:07:11Z</time></trkpt><trkpt lat="36.746111" lon="30.475641"><ele>1384.230</ele><time>2017-04-15T15:07:31Z</time></trkpt><trkpt lat="36.747753" lon="30.476671"><ele>1352.946</ele><time>2017-04-15T15:07:51Z</time></trkpt><trkpt lat="36.748140" lon="30.477524"><ele>1359.588</ele><time>2017-04-15T15:08:11Z</time></trkpt><trkpt lat="36.748633" lon="30.476720"><ele>1339.516</ele><time>2017-04-15T15:08:31Z</time></trkpt><trkpt lat="36.750301" lon="30.476604"><ele>1328.808</ele><time>2017-04-15T15:08:51Z</time></trkpt><trkpt lat="36.750894" lon="30.477188"><ele>1315.140</ele><time>2017-04-15T15:09:11Z</time></trkpt><trkpt lat="36.751623" lon="30.477625"><ele>1303.377</ele><time>2017-04-15T15:09:31Z</time></trkpt><trkpt lat="36.752018" lon="30.477669"><ele>1297.796</ele><time>2017-04-15T15:09:51Z</time></trkpt><trkpt lat="36.753004" lon="30.477438"><ele>1296.218</ele><time>2017-04-15T15:10:11Z</time></trkpt><trkpt lat="36.753748" lon="30.476421"><ele>1291.827</ele><time>2017-04-15T15:10:31Z</time></trkpt><trkpt lat="36.755333" lon="30.476133"><ele>1300.684</ele><time>2017-04-15T15:10:51Z</time></trkpt><trkpt lat="36.757068" lon="30.474228"><ele>1289.383</ele><time>2017-04-15T15:11:11Z</time></trkpt><trkpt lat="36.757910" lon="30.474875"><ele>1276.620</ele><time>2017-04-15T15:11:31Z</time></trkpt><trkpt lat="36.757860" lon="30.475572"><ele>1283.133</ele><time>2017-04-15T15:11:51Z</time></trkpt><trkpt lat="36.757434" lon="30.476946"><ele>1266.923</ele><time>2017-04-15T15:12:11Z</time></trkpt><trkpt lat="36.755887" lon="30.478193"><ele>1259.515</ele><time>2017-04-15T15:12:31Z</time></trkpt><trkpt lat="36.758418" lon="30.477526"><ele>1236.208</ele><time>2017-04-15T15:12:51Z</time></trkpt><trkpt lat="36.758905" lon="30.478742"><ele>1218.189</ele><time>2017-04-15T15:13:11Z</time></trkpt><trkpt lat="36.757977" lon="30.478963"><ele>1214.376</ele><time>2017-04-15T15:13:31Z</time></trkpt><trkpt lat="36.757558" lon="30.479219"><ele>1213.195</ele><time>2017-04-15T15:13:51Z</time></trkpt><trkpt lat="36.758689" lon="30.479686"><ele>1201.117</ele><time>2017-04-15T15:14:11Z</time></trkpt><trkpt lat="36.759627" lon="30.479567"><ele>1193.286</ele><time>2017-04-15T15:14:31Z</time></trkpt><trkpt lat="36.760370" lon="30.478948"><ele>1189.193</ele><time>2017-04-15T15:14:51Z</time></trkpt><trkpt lat="36.761829" lon="30.478158"><ele>1171.652</ele><time>2017-04-15T15:15:11Z</time></trkpt><trkpt lat="36.763321" lon="30.476574"><ele>1154.639</ele><time>2017-04-15T15:15:31Z</time></trkpt><trkpt lat="36.764506" lon="30.474934"><ele>1138.136</ele><time>2017-04-15T15:15:51Z</time></trkpt><trkpt lat="36.765200" lon="30.474962"><ele>1125.717</ele><time>2017-04-15T15:16:11Z</time></trkpt><trkpt lat="36.764344" lon="30.475637"><ele>1121.518</ele><time>2017-04-15T15:16:31Z</time></trkpt><trkpt lat="36.764186" lon="30.476408"><ele>1114.108</ele><time>2017-04-15T15:16:51Z</time></trkpt><trkpt lat="36.763614" lon="30.477461"><ele>1117.599</ele><time>2017-04-15T15:17:11Z</time></trkpt><trkpt lat="36.763827" lon="30.479436"><ele>1103.446</ele><time>2017-04-15T15:17:31Z</time></trkpt><trkpt lat="36.763593" lon="30.480334"><ele>1105.295</ele><time>2017-04-15T15:17:51Z</time></trkpt><trkpt lat="36.763093" lon="30.481188"><ele>1097.227</ele><time>2017-04-15T15:18:11Z</time></trkpt><trkpt lat="36.764427" lon="30.479709"><ele>1083.916</ele><time>2017-04-15T15:18:31Z</time></trkpt><trkpt lat="36.765381" lon="30.477952"><ele>1066.993</ele><time>2017-04-15T15:18:51Z</time></trkpt><trkpt lat="36.767214" lon="30.477431"><ele>1033.012</ele><time>2017-04-15T15:19:11Z</time></trkpt><trkpt lat="36.767020" lon="30.476758"><ele>1031.839</ele><time>2017-04-15T15:19:31Z</time></trkpt><trkpt lat="36.769166" lon="30.471477"><ele>966.798</ele><time>2017-04-15T15:19:51Z</time></trkpt><trkpt lat="36.769382" lon="30.472641"><ele>950.915</ele><time>2017-04-15T15:20:11Z</time></trkpt><trkpt lat="36.769742" lon="30.471625"><ele>932.826</ele><time>2017-04-15T15:20:31Z</time></trkpt><trkpt lat="36.769728" lon="30.470112"><ele>921.008</ele><time>2017-04-15T15:20:51Z</time></trkpt><trkpt lat="36.769875" lon="30.470116"><ele>916.955</ele><time>2017-04-15T15:21:11Z</time></trkpt><trkpt lat="36.770358" lon="30.471876"><ele>903.262</ele><time>2017-04-15T15:21:31Z</time></trkpt><trkpt lat="36.771237" lon="30.470932"><ele>892.091</ele><time>2017-04-15T15:21:51Z</time></trkpt><trkpt lat="36.772146" lon="30.470680"><ele>882.273</ele><time>2017-04-15T15:22:11Z</time></trkpt><trkpt lat="36.772482" lon="30.469941"><ele>873.862</ele><time>2017-04-15T15:22:31Z</time></trkpt></trkseg></trk></gpx>