<?xml version="1.0" encoding="UTF-8"?><gpx creator="Wikiloc - https://www.wikiloc.com" version="1.1" xmlns="http://www.topografix.com/GPX/1/1" xmlns:xsi="http://www.w3.org/2001/XMLSchema-instance" xsi:schemaLocation="http://www.topografix.com/GPX/1/1 http://www.topografix.com/GPX/1/1/gpx.xsd"><metadata><name>Wikiloc - LİKYA YOLU - OVACIK - ALINCA - KALKAN - KAŞ 140 KM (LIKYA YOLU BÖLÜM 1 - LYCIAN WAY PART 1)</name><author><name>erolgeygel</name><link href="https://www.wikiloc.com/wikiloc/user.do?id=1859487"><text>erolgeygel on Wikiloc</text></link></author><link href="https://www.wikiloc.com/hiking-trails/likya-yolu-ovacik-alinca-kalkan-kas-140-km-likya-yolu-bolum-1-lycian-way-part-1-56385922"><text>LİKYA YOLU - OVACIK - ALINCA - KALKAN - KAŞ 140 KM (LIKYA YOLU BÖLÜM 1 - LYCIAN WAY PART 1) on Wikiloc</text></link><time>2017-05-26T07:23:26Z</time></metadata><wpt lat="36.329467" lon="29.226875"><ele>.0</ele><time>2020-09-08T17:43:29.574Z</time><name>AHŞAP KÖPRÜ</name><cmt></cmt><desc></desc></wpt><wpt lat="36.448279" lon="29.142245"><ele>.0</ele><time>2020-09-08T17:43:39.414Z</time><name>ALINCA KONAKLAMA</name><cmt></cmt><desc></desc></wpt><wpt lat="36.382647" lon="29.170786"><ele>.0</ele><time>2020-09-08T17:43:46.041Z</time><name>BEL KÖYÜ</name><cmt></cmt><desc></desc></wpt><wpt lat="36.255191" lon="29.435349"><ele>.0</ele><time>2020-09-08T17:43:54.009Z</time><name>BEZİRGAN ÇIKIŞI</name><cmt></cmt><desc></desc></wpt><wpt lat="36.275715" lon="29.462283"><ele>.0</ele><time>2020-09-08T17:44:01.602Z</time><name>BEZİRGAN</name><cmt></cmt><desc></desc></wpt><wpt lat="36.363563" lon="29.352796"><ele>.0</ele><time>2020-09-08T17:44:09.343Z</time><name>ÇAVDIR</name><cmt></cmt><desc></desc></wpt><wpt lat="36.463611" lon="29.143329"><ele>.0</ele><time>2020-09-08T17:44:16.498Z</time><name>ÇIKIŞ</name><cmt></cmt><desc></desc></wpt><wpt lat="36.234523" lon="29.667541"><ele>.0</ele><time>2020-09-08T17:44:24.266Z</time><name>ÇUKURBAĞ</name><cmt></cmt><desc></desc></wpt><wpt lat="36.354272" lon="29.186237"><ele>.0</ele><time>2020-09-08T17:44:32.551Z</time><name>GAVURAĞILI İMİŞ DİKKAT!</name><cmt></cmt><desc></desc></wpt><wpt lat="36.401226" lon="29.136932"><ele>.0</ele><time>2020-09-08T17:44:40.529Z</time><name>GE KÖYÜ</name><cmt></cmt><desc></desc></wpt><wpt lat="36.239368" lon="29.544721"><ele>.0</ele><time>2020-09-08T17:44:48.955Z</time><name>GÖKÇEÖREN KÖYÜ</name><cmt></cmt><desc></desc></wpt><wpt lat="36.467923" lon="29.123741"><ele>.0</ele><time>2020-09-08T17:44:59.013Z</time><name>KABAK</name><cmt></cmt><desc></desc></wpt><wpt lat="36.276993" lon="29.412163"><ele>.0</ele><time>2020-09-08T17:45:06.778Z</time><name>KALKAN</name><cmt></cmt><desc></desc></wpt><wpt lat="36.276993" lon="29.412163"><ele>.0</ele><time>2020-09-08T17:45:14.302Z</time><name>KALKAN</name><cmt></cmt><desc></desc></wpt><wpt lat="36.203783" lon="29.640756"><ele>.0</ele><time>2020-09-08T17:45:21.632Z</time><name>KAŞ</name><cmt></cmt><desc></desc></wpt><wpt lat="36.437635" lon="29.141670"><ele>.0</ele><time>2020-09-08T17:45:34.186Z</time><name>KAYADAN MANZARA SEYRİ</name><cmt></cmt><desc></desc></wpt><wpt lat="36.524439" lon="29.154847"><ele>.0</ele><time>2020-09-08T17:45:41.519Z</time><name>KOZAĞAÇ KÖYÜ 6. KM</name><cmt></cmt><desc></desc></wpt><wpt lat="36.524439" lon="29.154847"><ele>.0</ele><time>2020-09-08T17:45:54.611Z</time><name>KOZAĞAÇ KÖYÜ 6. KM</name><cmt></cmt><desc></desc></wpt><wpt lat="36.535082" lon="29.140180"><ele>.0</ele><time>2020-09-08T17:46:04.995Z</time><name>MANZARA 615 RAKIM</name><cmt></cmt><desc></desc></wpt><wpt lat="36.467252" lon="29.143681"><ele>.0</ele><time>2020-09-08T17:46:14.233Z</time><name>MANZARA</name><cmt></cmt><desc></desc></wpt><wpt lat="36.558446" lon="29.138691"><ele>.0</ele><time>2020-09-08T17:46:24.213Z</time><name>OVACIK BAŞLANGIÇ</name><cmt></cmt><desc></desc></wpt><wpt lat="36.400552" lon="29.136381"><ele>.0</ele><time>2020-09-08T17:46:35.874Z</time><name>SAĞDAN GİDERSENİZ YEDİBURUNLAR</name><cmt></cmt><desc></desc></wpt><wpt lat="36.263109" lon="29.480058"><ele>.0</ele><time>2020-09-08T17:46:45.220Z</time><name>SARIBELEN</name><cmt></cmt><desc></desc></wpt><wpt lat="36.479886" lon="29.129658"><ele>.0</ele><time>2020-09-08T17:46:54.407Z</time><name>SU</name><cmt></cmt><desc></desc></wpt><wpt lat="36.504801" lon="29.149159"><ele>.0</ele><time>2020-09-08T17:47:04.235Z</time><name>SU</name><cmt></cmt><desc></desc></wpt><wpt lat="36.335551" lon="29.204039"><ele>.0</ele><time>2020-09-08T17:47:12.654Z</time><name>SU</name><cmt></cmt><desc></desc></wpt><wpt lat="36.208469" lon="29.645444"><ele>.0</ele><time>2020-09-08T17:47:25.833Z</time><name>UYUYAN DEV DAĞI</name><cmt></cmt><desc></desc></wpt><wpt lat="36.318094" lon="29.400569"><ele>.0</ele><time>2020-09-08T17:47:34.818Z</time><name>ÜZÜMLÜ</name><cmt></cmt><desc></desc></wpt><wpt lat="36.356624" lon="29.318464"><ele>.0</ele><time>2020-09-08T17:47:44.951Z</time><name>XANTOS</name><cmt></cmt><desc></desc></wpt><trk><name>LİKYA YOLU - OVACIK - ALINCA - KALKAN - KAŞ 140 KM (LIKYA YO...</name><cmt></cmt><desc></desc><trkseg><trkpt lat="36.558033" lon="29.139255"><ele>439.363</ele><time>2017-05-20T05:28:22Z</time></trkpt><trkpt lat="36.555405" lon="29.135905"><ele>297.244</ele><time>2017-05-20T05:32:50Z</time></trkpt><trkpt lat="36.549003" lon="29.133877"><ele>284.618</ele><time>2017-05-20T05:42:46Z</time></trkpt><trkpt lat="36.546795" lon="29.134540"><ele>295.208</ele><time>2017-05-20T05:48:10Z</time></trkpt><trkpt lat="36.545970" lon="29.133833"><ele>351.171</ele><time>2017-05-20T05:52:33Z</time></trkpt><trkpt lat="36.544448" lon="29.134638"><ele>352.652</ele><time>2017-05-20T05:59:26Z</time></trkpt><trkpt lat="36.543457" lon="29.133935"><ele>366.319</ele><time>2017-05-20T06:01:54Z</time></trkpt><trkpt lat="36.541415" lon="29.134178"><ele>406.184</ele><time>2017-05-20T06:08:42Z</time></trkpt><trkpt lat="36.535703" lon="29.139705"><ele>554.041</ele><time>2017-05-20T06:34:35Z</time></trkpt><trkpt lat="36.535913" lon="29.140322"><ele>569.245</ele><time>2017-05-20T06:37:04Z</time></trkpt><trkpt lat="36.534923" lon="29.140272"><ele>598.428</ele><time>2017-05-20T06:40:23Z</time></trkpt><trkpt lat="36.534563" lon="29.142218"><ele>597.428</ele><time>2017-05-20T06:44:52Z</time></trkpt><trkpt lat="36.531232" lon="29.140867"><ele>706.893</ele><time>2017-05-20T06:57:42Z</time></trkpt><trkpt lat="36.527817" lon="29.148238"><ele>733.265</ele><time>2017-05-20T07:13:33Z</time></trkpt><trkpt lat="36.524090" lon="29.152027"><ele>771.721</ele><time>2017-05-20T07:21:39Z</time></trkpt><trkpt lat="36.523885" lon="29.154423"><ele>766.308</ele><time>2017-05-20T07:24:42Z</time></trkpt><trkpt lat="36.524753" lon="29.155352"><ele>748.714</ele><time>2017-05-20T07:31:41Z</time></trkpt><trkpt lat="36.525175" lon="29.158802"><ele>753.355</ele><time>2017-05-20T07:36:30Z</time></trkpt><trkpt lat="36.524695" lon="29.160555"><ele>732.322</ele><time>2017-05-20T07:38:39Z</time></trkpt><trkpt lat="36.523257" lon="29.161860"><ele>710.747</ele><time>2017-05-20T07:41:08Z</time></trkpt><trkpt lat="36.520685" lon="29.161708"><ele>703.224</ele><time>2017-05-20T07:44:35Z</time></trkpt><trkpt lat="36.520020" lon="29.162480"><ele>697.688</ele><time>2017-05-20T07:46:20Z</time></trkpt><trkpt lat="36.517863" lon="29.160580"><ele>718.621</ele><time>2017-05-20T07:50:18Z</time></trkpt><trkpt lat="36.516632" lon="29.160587"><ele>716.461</ele><time>2017-05-20T07:53:17Z</time></trkpt><trkpt lat="36.514977" lon="29.156873"><ele>747.268</ele><time>2017-05-20T07:59:05Z</time></trkpt><trkpt lat="36.515583" lon="29.154700"><ele>754.942</ele><time>2017-05-20T08:02:37Z</time></trkpt><trkpt lat="36.513700" lon="29.153138"><ele>759.526</ele><time>2017-05-20T08:05:36Z</time></trkpt><trkpt lat="36.509603" lon="29.154425"><ele>725.208</ele><time>2017-05-20T08:11:40Z</time></trkpt><trkpt lat="36.507637" lon="29.157490"><ele>695.791</ele><time>2017-05-20T08:23:08Z</time></trkpt><trkpt lat="36.507517" lon="29.154650"><ele>691.832</ele><time>2017-05-20T08:27:04Z</time></trkpt><trkpt lat="36.505715" lon="29.155547"><ele>660.929</ele><time>2017-05-20T08:30:43Z</time></trkpt><trkpt lat="36.504040" lon="29.152942"><ele>588.164</ele><time>2017-05-20T08:36:37Z</time></trkpt><trkpt lat="36.505277" lon="29.148003"><ele>552.061</ele><time>2017-05-20T08:52:43Z</time></trkpt><trkpt lat="36.504857" lon="29.146728"><ele>543.825</ele><time>2017-05-20T08:54:12Z</time></trkpt><trkpt lat="36.503223" lon="29.145627"><ele>530.688</ele><time>2017-05-20T08:56:38Z</time></trkpt><trkpt lat="36.500695" lon="29.142020"><ele>469.958</ele><time>2017-05-20T09:03:14Z</time></trkpt><trkpt lat="36.498747" lon="29.142762"><ele>430.081</ele><time>2017-05-20T09:08:35Z</time></trkpt><trkpt lat="36.496435" lon="29.141343"><ele>371.461</ele><time>2017-05-20T09:20:50Z</time></trkpt><trkpt lat="36.495543" lon="29.138070"><ele>334.917</ele><time>2017-05-20T09:26:33Z</time></trkpt><trkpt lat="36.493937" lon="29.135770"><ele>310.208</ele><time>2017-05-20T09:31:27Z</time></trkpt><trkpt lat="36.494657" lon="29.135443"><ele>312.133</ele><time>2017-05-20T09:32:43Z</time></trkpt><trkpt lat="36.495360" lon="29.136998"><ele>303.334</ele><time>2017-05-20T09:34:57Z</time></trkpt><trkpt lat="36.496378" lon="29.137023"><ele>260.051</ele><time>2017-05-20T09:41:06Z</time></trkpt><trkpt lat="36.494942" lon="29.136530"><ele>268.866</ele><time>2017-05-20T09:47:23Z</time></trkpt><trkpt lat="36.494618" lon="29.135455"><ele>285.413</ele><time>2017-05-20T09:49:00Z</time></trkpt><trkpt lat="36.493993" lon="29.135703"><ele>270.847</ele><time>2017-05-20T09:51:13Z</time></trkpt><trkpt lat="36.493292" lon="29.134343"><ele>293.310</ele><time>2017-05-20T09:53:23Z</time></trkpt><trkpt lat="36.491882" lon="29.133893"><ele>301.370</ele><time>2017-05-20T09:55:27Z</time></trkpt><trkpt lat="36.488688" lon="29.130403"><ele>413.289</ele><time>2017-05-20T10:20:27Z</time></trkpt><trkpt lat="36.486733" lon="29.130120"><ele>434.006</ele><time>2017-05-20T10:27:55Z</time></trkpt><trkpt lat="36.484793" lon="29.128645"><ele>427.326</ele><time>2017-05-20T10:33:19Z</time></trkpt><trkpt lat="36.480025" lon="29.129617"><ele>369.808</ele><time>2017-05-20T10:44:54Z</time></trkpt><trkpt lat="36.477627" lon="29.124073"><ele>390.693</ele><time>2017-05-20T11:08:35Z</time></trkpt><trkpt lat="36.476758" lon="29.123458"><ele>382.964</ele><time>2017-05-20T11:10:10Z</time></trkpt><trkpt lat="36.476678" lon="29.121288"><ele>394.711</ele><time>2017-05-20T11:12:53Z</time></trkpt><trkpt lat="36.472472" lon="29.123488"><ele>380.336</ele><time>2017-05-20T11:20:26Z</time></trkpt><trkpt lat="36.472430" lon="29.122808"><ele>369.223</ele><time>2017-05-20T11:21:26Z</time></trkpt><trkpt lat="36.470995" lon="29.122682"><ele>339.377</ele><time>2017-05-20T11:24:50Z</time></trkpt><trkpt lat="36.469352" lon="29.123920"><ele>300.180</ele><time>2017-05-20T11:31:40Z</time></trkpt><trkpt lat="36.467525" lon="29.124927"><ele>219.230</ele><time>2017-05-20T11:43:20Z</time></trkpt><trkpt lat="36.467475" lon="29.124722"><ele>224.832</ele><time>2017-05-21T06:09:42Z</time></trkpt><trkpt lat="36.467575" lon="29.122762"><ele>210.692</ele><time>2017-05-21T06:12:27Z</time></trkpt><trkpt lat="36.468600" lon="29.124427"><ele>236.911</ele><time>2017-05-21T06:16:35Z</time></trkpt><trkpt lat="36.470935" lon="29.125600"><ele>278.208</ele><time>2017-05-21T06:21:10Z</time></trkpt><trkpt lat="36.470198" lon="29.127553"><ele>292.678</ele><time>2017-05-21T06:25:26Z</time></trkpt><trkpt lat="36.470377" lon="29.129455"><ele>313.159</ele><time>2017-05-21T06:30:15Z</time></trkpt><trkpt lat="36.468660" lon="29.132878"><ele>348.226</ele><time>2017-05-21T06:40:09Z</time></trkpt><trkpt lat="36.468150" lon="29.132618"><ele>354.681</ele><time>2017-05-21T06:41:17Z</time></trkpt><trkpt lat="36.467948" lon="29.134213"><ele>354.618</ele><time>2017-05-21T06:45:36Z</time></trkpt><trkpt lat="36.470835" lon="29.137762"><ele>297.372</ele><time>2017-05-21T06:54:36Z</time></trkpt><trkpt lat="36.471695" lon="29.141970"><ele>324.685</ele><time>2017-05-21T07:05:40Z</time></trkpt><trkpt lat="36.472535" lon="29.142668"><ele>339.075</ele><time>2017-05-21T07:07:38Z</time></trkpt><trkpt lat="36.472597" lon="29.145458"><ele>372.893</ele><time>2017-05-21T07:12:38Z</time></trkpt><trkpt lat="36.470570" lon="29.145190"><ele>371.665</ele><time>2017-05-21T07:16:01Z</time></trkpt><trkpt lat="36.471210" lon="29.144890"><ele>385.321</ele><time>2017-05-21T07:16:22Z</time></trkpt><trkpt lat="36.470572" lon="29.144213"><ele>381.908</ele><time>2017-05-21T07:19:00Z</time></trkpt><trkpt lat="36.468533" lon="29.146465"><ele>380.344</ele><time>2017-05-21T07:27:04Z</time></trkpt><trkpt lat="36.467678" lon="29.146018"><ele>389.575</ele><time>2017-05-21T07:33:14Z</time></trkpt><trkpt lat="36.467238" lon="29.143640"><ele>410.122</ele><time>2017-05-21T07:39:38Z</time></trkpt><trkpt lat="36.466098" lon="29.143535"><ele>417.787</ele><time>2017-05-21T07:43:36Z</time></trkpt><trkpt lat="36.464918" lon="29.145047"><ele>422.214</ele><time>2017-05-21T07:47:48Z</time></trkpt><trkpt lat="36.463268" lon="29.143730"><ele>462.428</ele><time>2017-05-21T07:54:20Z</time></trkpt><trkpt lat="36.462885" lon="29.144787"><ele>471.411</ele><time>2017-05-21T07:58:58Z</time></trkpt><trkpt lat="36.458878" lon="29.143805"><ele>512.811</ele><time>2017-05-21T08:10:24Z</time></trkpt><trkpt lat="36.457073" lon="29.145418"><ele>549.166</ele><time>2017-05-21T08:17:45Z</time></trkpt><trkpt lat="36.454157" lon="29.141945"><ele>614.629</ele><time>2017-05-21T08:29:51Z</time></trkpt><trkpt lat="36.452718" lon="29.142947"><ele>657.821</ele><time>2017-05-21T08:34:20Z</time></trkpt><trkpt lat="36.448022" lon="29.142275"><ele>730.708</ele><time>2017-05-21T08:49:21Z</time></trkpt><trkpt lat="36.448140" lon="29.143132"><ele>730.671</ele><time>2017-05-21T08:53:13Z</time></trkpt><trkpt lat="36.447645" lon="29.140835"><ele>703.732</ele><time>2017-05-21T08:57:31Z</time></trkpt><trkpt lat="36.446282" lon="29.143557"><ele>666.459</ele><time>2017-05-21T09:02:13Z</time></trkpt><trkpt lat="36.444580" lon="29.141193"><ele>612.244</ele><time>2017-05-21T09:13:40Z</time></trkpt><trkpt lat="36.444757" lon="29.140115"><ele>585.231</ele><time>2017-05-21T09:27:02Z</time></trkpt><trkpt lat="36.443423" lon="29.140845"><ele>547.565</ele><time>2017-05-21T09:53:50Z</time></trkpt><trkpt lat="36.443027" lon="29.143975"><ele>510.328</ele><time>2017-05-21T10:02:54Z</time></trkpt><trkpt lat="36.440895" lon="29.143935"><ele>493.358</ele><time>2017-05-21T10:09:45Z</time></trkpt><trkpt lat="36.439233" lon="29.144948"><ele>482.184</ele><time>2017-05-21T10:14:19Z</time></trkpt><trkpt lat="36.437637" lon="29.141650"><ele>469.307</ele><time>2017-05-21T10:32:03Z</time></trkpt><trkpt lat="36.436478" lon="29.141262"><ele>483.117</ele><time>2017-05-21T10:35:47Z</time></trkpt><trkpt lat="36.436990" lon="29.140645"><ele>468.908</ele><time>2017-05-21T10:38:00Z</time></trkpt><trkpt lat="36.434580" lon="29.140795"><ele>444.083</ele><time>2017-05-21T10:43:15Z</time></trkpt><trkpt lat="36.434513" lon="29.142155"><ele>427.264</ele><time>2017-05-21T10:45:10Z</time></trkpt><trkpt lat="36.432888" lon="29.144708"><ele>430.991</ele><time>2017-05-21T10:49:38Z</time></trkpt><trkpt lat="36.429453" lon="29.146205"><ele>409.686</ele><time>2017-05-21T11:03:56Z</time></trkpt><trkpt lat="36.429072" lon="29.144937"><ele>420.213</ele><time>2017-05-21T11:05:34Z</time></trkpt><trkpt lat="36.423845" lon="29.143308"><ele>466.857</ele><time>2017-05-21T11:17:59Z</time></trkpt><trkpt lat="36.420853" lon="29.146208"><ele>490.310</ele><time>2017-05-21T11:34:00Z</time></trkpt><trkpt lat="36.417452" lon="29.145895"><ele>532.560</ele><time>2017-05-21T11:43:44Z</time></trkpt><trkpt lat="36.415370" lon="29.143718"><ele>575.858</ele><time>2017-05-21T11:49:34Z</time></trkpt><trkpt lat="36.411793" lon="29.144933"><ele>582.252</ele><time>2017-05-21T11:55:42Z</time></trkpt><trkpt lat="36.410292" lon="29.144275"><ele>597.217</ele><time>2017-05-21T11:58:27Z</time></trkpt><trkpt lat="36.409697" lon="29.145455"><ele>585.508</ele><time>2017-05-21T12:00:24Z</time></trkpt><trkpt lat="36.409207" lon="29.144040"><ele>598.530</ele><time>2017-05-21T12:02:17Z</time></trkpt><trkpt lat="36.406458" lon="29.141612"><ele>595.971</ele><time>2017-05-21T12:07:32Z</time></trkpt><trkpt lat="36.404068" lon="29.140690"><ele>593.598</ele><time>2017-05-21T12:11:20Z</time></trkpt><trkpt lat="36.401522" lon="29.136870"><ele>612.843</ele><time>2017-05-21T13:04:26Z</time></trkpt><trkpt lat="36.399310" lon="29.135922"><ele>584.210</ele><time>2017-05-21T13:10:27Z</time></trkpt><trkpt lat="36.396923" lon="29.138848"><ele>556.964</ele><time>2017-05-21T13:16:16Z</time></trkpt><trkpt lat="36.395183" lon="29.139770"><ele>527.777</ele><time>2017-05-21T13:18:59Z</time></trkpt><trkpt lat="36.391087" lon="29.138983"><ele>516.987</ele><time>2017-05-21T13:25:05Z</time></trkpt><trkpt lat="36.389977" lon="29.140963"><ele>535.976</ele><time>2017-05-21T13:32:46Z</time></trkpt><trkpt lat="36.386430" lon="29.141883"><ele>534.290</ele><time>2017-05-21T13:39:50Z</time></trkpt><trkpt lat="36.386933" lon="29.146713"><ele>456.019</ele><time>2017-05-21T13:54:15Z</time></trkpt><trkpt lat="36.385983" lon="29.149015"><ele>435.908</ele><time>2017-05-21T14:04:10Z</time></trkpt><trkpt lat="36.387252" lon="29.150223"><ele>453.952</ele><time>2017-05-22T03:31:18Z</time></trkpt><trkpt lat="36.387657" lon="29.153233"><ele>453.153</ele><time>2017-05-22T03:37:41Z</time></trkpt><trkpt lat="36.389212" lon="29.156078"><ele>446.050</ele><time>2017-05-22T03:42:40Z</time></trkpt><trkpt lat="36.388188" lon="29.156432"><ele>449.355</ele><time>2017-05-22T03:46:10Z</time></trkpt><trkpt lat="36.387862" lon="29.157495"><ele>458.172</ele><time>2017-05-22T03:49:39Z</time></trkpt><trkpt lat="36.383768" lon="29.157002"><ele>513.986</ele><time>2017-05-22T03:59:09Z</time></trkpt><trkpt lat="36.381827" lon="29.159437"><ele>531.999</ele><time>2017-05-22T04:05:00Z</time></trkpt><trkpt lat="36.382243" lon="29.160428"><ele>529.049</ele><time>2017-05-22T04:08:03Z</time></trkpt><trkpt lat="36.381472" lon="29.162498"><ele>547.958</ele><time>2017-05-22T04:12:35Z</time></trkpt><trkpt lat="36.381655" lon="29.165747"><ele>565.852</ele><time>2017-05-22T04:19:29Z</time></trkpt><trkpt lat="36.383083" lon="29.167192"><ele>589.917</ele><time>2017-05-22T04:23:49Z</time></trkpt><trkpt lat="36.382778" lon="29.171002"><ele>626.008</ele><time>2017-05-22T04:33:36Z</time></trkpt><trkpt lat="36.378065" lon="29.173382"><ele>680.640</ele><time>2017-05-22T04:53:42Z</time></trkpt><trkpt lat="36.374160" lon="29.172812"><ele>657.821</ele><time>2017-05-22T04:59:18Z</time></trkpt><trkpt lat="36.373347" lon="29.173458"><ele>665.558</ele><time>2017-05-22T05:00:40Z</time></trkpt><trkpt lat="36.374275" lon="29.176377"><ele>672.593</ele><time>2017-05-22T05:05:15Z</time></trkpt><trkpt lat="36.368123" lon="29.179452"><ele>634.090</ele><time>2017-05-22T05:21:18Z</time></trkpt><trkpt lat="36.366828" lon="29.179383"><ele>612.384</ele><time>2017-05-22T05:23:11Z</time></trkpt><trkpt lat="36.364935" lon="29.181067"><ele>621.697</ele><time>2017-05-22T05:26:32Z</time></trkpt><trkpt lat="36.362338" lon="29.180483"><ele>600.097</ele><time>2017-05-22T05:35:43Z</time></trkpt><trkpt lat="36.360958" lon="29.184362"><ele>632.277</ele><time>2017-05-22T05:48:04Z</time></trkpt><trkpt lat="36.357225" lon="29.186643"><ele>656.561</ele><time>2017-05-22T05:55:14Z</time></trkpt><trkpt lat="36.355153" lon="29.186190"><ele>542.527</ele><time>2017-05-22T06:06:28Z</time></trkpt><trkpt lat="36.355250" lon="29.185523"><ele>530.708</ele><time>2017-05-22T06:09:01Z</time></trkpt><trkpt lat="36.351527" lon="29.186953"><ele>422.232</ele><time>2017-05-22T06:21:57Z</time></trkpt><trkpt lat="36.348693" lon="29.186443"><ele>366.783</ele><time>2017-05-22T06:29:28Z</time></trkpt><trkpt lat="36.345042" lon="29.189418"><ele>248.420</ele><time>2017-05-22T06:46:16Z</time></trkpt><trkpt lat="36.345075" lon="29.190582"><ele>230.345</ele><time>2017-05-22T06:50:57Z</time></trkpt><trkpt lat="36.340667" lon="29.193717"><ele>178.172</ele><time>2017-05-22T07:01:45Z</time></trkpt><trkpt lat="36.339453" lon="29.199258"><ele>117.926</ele><time>2017-05-22T07:10:03Z</time></trkpt><trkpt lat="36.338017" lon="29.200558"><ele>116.269</ele><time>2017-05-22T07:13:06Z</time></trkpt><trkpt lat="36.336595" lon="29.199672"><ele>100.129</ele><time>2017-05-22T07:16:35Z</time></trkpt><trkpt lat="36.335492" lon="29.204053"><ele>59.886</ele><time>2017-05-22T07:22:57Z</time></trkpt><trkpt lat="36.333995" lon="29.204383"><ele>45.960</ele><time>2017-05-22T07:26:27Z</time></trkpt><trkpt lat="36.334060" lon="29.203502"><ele>29.226</ele><time>2017-05-22T07:28:20Z</time></trkpt><trkpt lat="36.333782" lon="29.205257"><ele>-5.808</ele><time>2017-05-22T08:04:11Z</time></trkpt><trkpt lat="36.331935" lon="29.206143"><ele>46.263</ele><time>2017-05-22T08:08:34Z</time></trkpt><trkpt lat="36.331958" lon="29.206833"><ele>53.164</ele><time>2017-05-22T08:11:36Z</time></trkpt><trkpt lat="36.331088" lon="29.205997"><ele>78.681</ele><time>2017-05-22T08:14:04Z</time></trkpt><trkpt lat="36.330113" lon="29.207442"><ele>100.216</ele><time>2017-05-22T08:21:23Z</time></trkpt><trkpt lat="36.330027" lon="29.211990"><ele>90.543</ele><time>2017-05-22T08:28:03Z</time></trkpt><trkpt lat="36.329315" lon="29.213040"><ele>101.337</ele><time>2017-05-22T08:29:39Z</time></trkpt><trkpt lat="36.329490" lon="29.219332"><ele>50.150</ele><time>2017-05-22T08:38:17Z</time></trkpt><trkpt lat="36.330308" lon="29.220258"><ele>40.270</ele><time>2017-05-22T08:39:54Z</time></trkpt><trkpt lat="36.330213" lon="29.221383"><ele>48.822</ele><time>2017-05-22T08:41:12Z</time></trkpt><trkpt lat="36.334248" lon="29.230042"><ele>1.662</ele><time>2017-05-22T08:53:12Z</time></trkpt><trkpt lat="36.333482" lon="29.232890"><ele>-0.908</ele><time>2017-05-22T09:03:38Z</time></trkpt><trkpt lat="36.332483" lon="29.232410"><ele>1.608</ele><time>2017-05-22T09:06:21Z</time></trkpt><trkpt lat="36.331770" lon="29.228213"><ele>-8.927</ele><time>2017-05-22T09:14:09Z</time></trkpt><trkpt lat="36.330120" lon="29.226103"><ele>-7.558</ele><time>2017-05-22T09:19:48Z</time></trkpt><trkpt lat="36.329752" lon="29.227392"><ele>-1.845</ele><time>2017-05-22T09:22:15Z</time></trkpt><trkpt lat="36.328182" lon="29.225858"><ele>-11.560</ele><time>2017-05-22T09:28:36Z</time></trkpt><trkpt lat="36.329060" lon="29.226475"><ele>-0.687</ele><time>2017-05-22T09:31:59Z</time></trkpt><trkpt lat="36.328968" lon="29.230802"><ele>-40.631</ele><time>2017-05-22T10:10:22Z</time></trkpt><trkpt lat="36.330123" lon="29.238055"><ele>-12.454</ele><time>2017-05-22T10:18:49Z</time></trkpt><trkpt lat="36.333650" lon="29.241672"><ele>-17.534</ele><time>2017-05-22T10:25:35Z</time></trkpt><trkpt lat="36.335618" lon="29.246138"><ele>-11.881</ele><time>2017-05-22T10:30:52Z</time></trkpt><trkpt lat="36.335242" lon="29.251673"><ele>-2.061</ele><time>2017-05-22T10:40:35Z</time></trkpt><trkpt lat="36.333868" lon="29.255382"><ele>6.517</ele><time>2017-05-22T10:44:56Z</time></trkpt><trkpt lat="36.334812" lon="29.258168"><ele>-22.008</ele><time>2017-05-22T10:48:28Z</time></trkpt><trkpt lat="36.336603" lon="29.259272"><ele>-19.333</ele><time>2017-05-22T10:51:08Z</time></trkpt><trkpt lat="36.339203" lon="29.259452"><ele>-11.944</ele><time>2017-05-22T10:54:44Z</time></trkpt><trkpt lat="36.339267" lon="29.262352"><ele>-7.861</ele><time>2017-05-22T10:59:01Z</time></trkpt><trkpt lat="36.338453" lon="29.263660"><ele>-15.066</ele><time>2017-05-22T11:01:24Z</time></trkpt><trkpt lat="36.337647" lon="29.262988"><ele>-13.693</ele><time>2017-05-22T11:03:36Z</time></trkpt><trkpt lat="36.337363" lon="29.264350"><ele>-11.317</ele><time>2017-05-22T11:05:34Z</time></trkpt><trkpt lat="36.336357" lon="29.264418"><ele>-17.320</ele><time>2017-05-22T11:07:48Z</time></trkpt><trkpt lat="36.337615" lon="29.266257"><ele>-18.640</ele><time>2017-05-22T11:11:07Z</time></trkpt><trkpt lat="36.335042" lon="29.276660"><ele>-12.844</ele><time>2017-05-22T11:21:58Z</time></trkpt><trkpt lat="36.334580" lon="29.275450"><ele>-15.705</ele><time>2017-05-22T11:22:24Z</time></trkpt><trkpt lat="36.329938" lon="29.275792"><ele>-21.015</ele><time>2017-05-22T11:25:45Z</time></trkpt><trkpt lat="36.329962" lon="29.271508"><ele>-11.008</ele><time>2017-05-22T11:26:32Z</time></trkpt><trkpt lat="36.329045" lon="29.269578"><ele>-4.049</ele><time>2017-05-22T11:27:12Z</time></trkpt><trkpt lat="36.326830" lon="29.268943"><ele>-9.780</ele><time>2017-05-22T11:27:58Z</time></trkpt><trkpt lat="36.323838" lon="29.272622"><ele>-5.697</ele><time>2017-05-22T11:28:51Z</time></trkpt><trkpt lat="36.323330" lon="29.278328"><ele>-11.452</ele><time>2017-05-22T11:29:38Z</time></trkpt><trkpt lat="36.323753" lon="29.284345"><ele>-14.859</ele><time>2017-05-22T11:30:26Z</time></trkpt><trkpt lat="36.327550" lon="29.285567"><ele>-16.143</ele><time>2017-05-22T11:31:25Z</time></trkpt><trkpt lat="36.328810" lon="29.284592"><ele>-15.026</ele><time>2017-05-22T11:31:48Z</time></trkpt><trkpt lat="36.328793" lon="29.286365"><ele>-15.616</ele><time>2017-05-22T11:32:05Z</time></trkpt><trkpt lat="36.332262" lon="29.289055"><ele>-17.352</ele><time>2017-05-22T11:32:54Z</time></trkpt><trkpt lat="36.332132" lon="29.289703"><ele>-13.053</ele><time>2017-05-22T11:42:30Z</time></trkpt><trkpt lat="36.330953" lon="29.288672"><ele>-8.008</ele><time>2017-05-22T11:48:29Z</time></trkpt><trkpt lat="36.331403" lon="29.289385"><ele>-10.108</ele><time>2017-05-22T11:50:22Z</time></trkpt><trkpt lat="36.332847" lon="29.289232"><ele>-1.910</ele><time>2017-05-22T11:55:13Z</time></trkpt><trkpt lat="36.333615" lon="29.293170"><ele>-1.341</ele><time>2017-05-22T11:59:53Z</time></trkpt><trkpt lat="36.337328" lon="29.294928"><ele>3.238</ele><time>2017-05-22T12:06:33Z</time></trkpt><trkpt lat="36.336325" lon="29.297950"><ele>-7.293</ele><time>2017-05-22T12:10:19Z</time></trkpt><trkpt lat="36.336398" lon="29.303863"><ele>-21.920</ele><time>2017-05-22T12:20:41Z</time></trkpt><trkpt lat="36.339772" lon="29.311293"><ele>2.824</ele><time>2017-05-22T12:38:00Z</time></trkpt><trkpt lat="36.345413" lon="29.311622"><ele>11.467</ele><time>2017-05-22T12:42:54Z</time></trkpt><trkpt lat="36.346382" lon="29.314055"><ele>8.717</ele><time>2017-05-22T12:43:20Z</time></trkpt><trkpt lat="36.350133" lon="29.317143"><ele>4.885</ele><time>2017-05-22T12:44:03Z</time></trkpt><trkpt lat="36.351948" lon="29.317055"><ele>4.789</ele><time>2017-05-22T12:44:21Z</time></trkpt><trkpt lat="36.355962" lon="29.314462"><ele>15.617</ele><time>2017-05-22T12:45:13Z</time></trkpt><trkpt lat="36.354585" lon="29.317907"><ele>6.208</ele><time>2017-05-22T12:45:49Z</time></trkpt><trkpt lat="36.352163" lon="29.319357"><ele>8.933</ele><time>2017-05-22T12:47:45Z</time></trkpt><trkpt lat="36.353837" lon="29.320607"><ele>4.564</ele><time>2017-05-22T12:50:52Z</time></trkpt><trkpt lat="36.356332" lon="29.318787"><ele>29.791</ele><time>2017-05-22T12:56:37Z</time></trkpt><trkpt lat="36.357180" lon="29.319173"><ele>32.886</ele><time>2017-05-22T12:58:37Z</time></trkpt><trkpt lat="36.356860" lon="29.317930"><ele>34.463</ele><time>2017-05-22T13:03:56Z</time></trkpt><trkpt lat="36.356840" lon="29.321680"><ele>39.557</ele><time>2017-05-22T13:10:08Z</time></trkpt><trkpt lat="36.357273" lon="29.318965"><ele>40.830</ele><time>2017-05-22T13:17:00Z</time></trkpt><trkpt lat="36.361043" lon="29.317795"><ele>54.340</ele><time>2017-05-22T13:23:15Z</time></trkpt><trkpt lat="36.361970" lon="29.320758"><ele>57.921</ele><time>2017-05-22T13:27:14Z</time></trkpt><trkpt lat="36.359988" lon="29.327322"><ele>63.041</ele><time>2017-05-22T13:38:59Z</time></trkpt><trkpt lat="36.359877" lon="29.330635"><ele>54.205</ele><time>2017-05-22T13:44:15Z</time></trkpt><trkpt lat="36.360722" lon="29.330630"><ele>57.108</ele><time>2017-05-22T13:46:36Z</time></trkpt><trkpt lat="36.358960" lon="29.335285"><ele>54.127</ele><time>2017-05-22T14:18:23Z</time></trkpt><trkpt lat="36.360258" lon="29.336890"><ele>56.148</ele><time>2017-05-22T14:33:19Z</time></trkpt><trkpt lat="36.357477" lon="29.333642"><ele>-418.085</ele><time>2017-05-23T05:16:03Z</time></trkpt><trkpt lat="36.359588" lon="29.337838"><ele>-109.190</ele><time>2017-05-23T05:16:12Z</time></trkpt><trkpt lat="36.358185" lon="29.345132"><ele>80.387</ele><time>2017-05-23T06:35:19Z</time></trkpt><trkpt lat="36.360540" lon="29.350633"><ele>77.731</ele><time>2017-05-23T06:46:29Z</time></trkpt><trkpt lat="36.363522" lon="29.352732"><ele>99.324</ele><time>2017-05-23T06:51:05Z</time></trkpt><trkpt lat="36.361248" lon="29.353130"><ele>96.174</ele><time>2017-05-23T06:54:19Z</time></trkpt><trkpt lat="36.359788" lon="29.354617"><ele>85.055</ele><time>2017-05-23T06:56:56Z</time></trkpt><trkpt lat="36.359267" lon="29.354092"><ele>85.907</ele><time>2017-05-23T06:57:47Z</time></trkpt><trkpt lat="36.359820" lon="29.354553"><ele>81.417</ele><time>2017-05-23T06:59:31Z</time></trkpt><trkpt lat="36.361188" lon="29.353233"><ele>90.108</ele><time>2017-05-23T07:01:54Z</time></trkpt><trkpt lat="36.359410" lon="29.361903"><ele>149.820</ele><time>2017-05-23T07:16:34Z</time></trkpt><trkpt lat="36.357022" lon="29.360475"><ele>149.021</ele><time>2017-05-23T07:20:18Z</time></trkpt><trkpt lat="36.355550" lon="29.360515"><ele>141.258</ele><time>2017-05-23T07:23:32Z</time></trkpt><trkpt lat="36.353960" lon="29.365092"><ele>154.213</ele><time>2017-05-23T07:30:03Z</time></trkpt><trkpt lat="36.354498" lon="29.365705"><ele>172.520</ele><time>2017-05-23T07:32:03Z</time></trkpt><trkpt lat="36.353683" lon="29.368925"><ele>168.584</ele><time>2017-05-23T07:38:50Z</time></trkpt><trkpt lat="36.351623" lon="29.369737"><ele>171.587</ele><time>2017-05-23T07:43:54Z</time></trkpt><trkpt lat="36.351045" lon="29.373678"><ele>173.357</ele><time>2017-05-23T07:54:02Z</time></trkpt><trkpt lat="36.349683" lon="29.376380"><ele>182.597</ele><time>2017-05-23T07:59:40Z</time></trkpt><trkpt lat="36.350122" lon="29.378938"><ele>174.323</ele><time>2017-05-23T08:03:59Z</time></trkpt><trkpt lat="36.348947" lon="29.379688"><ele>184.125</ele><time>2017-05-23T08:08:15Z</time></trkpt><trkpt lat="36.348530" lon="29.384745"><ele>192.508</ele><time>2017-05-23T08:16:39Z</time></trkpt><trkpt lat="36.346470" lon="29.386838"><ele>199.094</ele><time>2017-05-23T08:21:33Z</time></trkpt><trkpt lat="36.346117" lon="29.390812"><ele>194.225</ele><time>2017-05-23T08:26:51Z</time></trkpt><trkpt lat="36.343363" lon="29.392978"><ele>182.912</ele><time>2017-05-23T08:36:16Z</time></trkpt><trkpt lat="36.340413" lon="29.392627"><ele>166.567</ele><time>2017-05-23T08:42:52Z</time></trkpt><trkpt lat="36.340508" lon="29.393385"><ele>163.324</ele><time>2017-05-23T08:44:52Z</time></trkpt><trkpt lat="36.338408" lon="29.393908"><ele>168.148</ele><time>2017-05-23T08:48:48Z</time></trkpt><trkpt lat="36.337443" lon="29.395022"><ele>168.011</ele><time>2017-05-23T08:50:46Z</time></trkpt><trkpt lat="36.331947" lon="29.394615"><ele>198.471</ele><time>2017-05-23T09:08:33Z</time></trkpt><trkpt lat="36.331625" lon="29.397292"><ele>205.388</ele><time>2017-05-23T09:12:46Z</time></trkpt><trkpt lat="36.332278" lon="29.399352"><ele>222.724</ele><time>2017-05-23T09:15:22Z</time></trkpt><trkpt lat="36.331580" lon="29.400293"><ele>242.226</ele><time>2017-05-23T09:17:20Z</time></trkpt><trkpt lat="36.326800" lon="29.397520"><ele>270.408</ele><time>2017-05-23T09:29:08Z</time></trkpt><trkpt lat="36.322925" lon="29.398025"><ele>285.283</ele><time>2017-05-23T09:35:43Z</time></trkpt><trkpt lat="36.321628" lon="29.396997"><ele>291.974</ele><time>2017-05-23T09:37:51Z</time></trkpt><trkpt lat="36.318582" lon="29.397247"><ele>261.021</ele><time>2017-05-23T09:42:45Z</time></trkpt><trkpt lat="36.318135" lon="29.400845"><ele>287.496</ele><time>2017-05-23T10:42:19Z</time></trkpt><trkpt lat="36.315867" lon="29.403357"><ele>304.823</ele><time>2017-05-23T10:47:53Z</time></trkpt><trkpt lat="36.308792" lon="29.404967"><ele>361.317</ele><time>2017-05-23T10:59:34Z</time></trkpt><trkpt lat="36.307808" lon="29.407075"><ele>398.280</ele><time>2017-05-23T11:03:12Z</time></trkpt><trkpt lat="36.305343" lon="29.406625"><ele>403.250</ele><time>2017-05-23T11:09:47Z</time></trkpt><trkpt lat="36.302405" lon="29.408208"><ele>376.315</ele><time>2017-05-23T11:17:33Z</time></trkpt><trkpt lat="36.297575" lon="29.405743"><ele>315.365</ele><time>2017-05-23T11:38:21Z</time></trkpt><trkpt lat="36.296650" lon="29.406313"><ele>305.111</ele><time>2017-05-23T11:44:13Z</time></trkpt><trkpt lat="36.297862" lon="29.405120"><ele>302.508</ele><time>2017-05-23T11:47:14Z</time></trkpt><trkpt lat="36.296280" lon="29.402975"><ele>222.376</ele><time>2017-05-23T11:56:21Z</time></trkpt><trkpt lat="36.294555" lon="29.404538"><ele>223.587</ele><time>2017-05-23T12:00:22Z</time></trkpt><trkpt lat="36.294520" lon="29.406500"><ele>219.554</ele><time>2017-05-23T12:10:11Z</time></trkpt><trkpt lat="36.292077" lon="29.405867"><ele>200.049</ele><time>2017-05-23T12:13:59Z</time></trkpt><trkpt lat="36.288043" lon="29.406858"><ele>140.946</ele><time>2017-05-23T12:19:39Z</time></trkpt><trkpt lat="36.288472" lon="29.407593"><ele>168.140</ele><time>2017-05-23T12:20:48Z</time></trkpt><trkpt lat="36.286152" lon="29.408207"><ele>160.353</ele><time>2017-05-23T12:25:01Z</time></trkpt><trkpt lat="36.285043" lon="29.407192"><ele>182.583</ele><time>2017-05-23T12:27:38Z</time></trkpt><trkpt lat="36.283317" lon="29.408373"><ele>210.734</ele><time>2017-05-23T12:32:00Z</time></trkpt><trkpt lat="36.282417" lon="29.407675"><ele>223.355</ele><time>2017-05-23T12:33:54Z</time></trkpt><trkpt lat="36.279927" lon="29.408515"><ele>224.210</ele><time>2017-05-23T12:39:02Z</time></trkpt><trkpt lat="36.277543" lon="29.410627"><ele>189.408</ele><time>2017-05-23T12:43:06Z</time></trkpt><trkpt lat="36.277015" lon="29.412210"><ele>168.888</ele><time>2017-05-23T12:45:40Z</time></trkpt><trkpt lat="36.275012" lon="29.412278"><ele>152.799</ele><time>2017-05-23T12:49:04Z</time></trkpt><trkpt lat="36.273517" lon="29.413323"><ele>126.636</ele><time>2017-05-23T12:51:34Z</time></trkpt><trkpt lat="36.273268" lon="29.412667"><ele>116.211</ele><time>2017-05-23T12:52:34Z</time></trkpt><trkpt lat="36.267662" lon="29.412523"><ele>43.238</ele><time>2017-05-23T13:01:53Z</time></trkpt><trkpt lat="36.264240" lon="29.415455"><ele>8.682</ele><time>2017-05-23T13:08:28Z</time></trkpt><trkpt lat="36.261992" lon="29.415432"><ele>-23.725</ele><time>2017-05-23T13:13:15Z</time></trkpt><trkpt lat="36.263543" lon="29.414838"><ele>94.965</ele><time>2017-05-23T14:56:49Z</time></trkpt><trkpt lat="36.262525" lon="29.415117"><ele>18.016</ele><time>2017-05-23T14:58:03Z</time></trkpt><trkpt lat="36.264380" lon="29.415370"><ele>33.776</ele><time>2017-05-24T06:31:03Z</time></trkpt><trkpt lat="36.266663" lon="29.413238"><ele>43.513</ele><time>2017-05-24T06:45:21Z</time></trkpt><trkpt lat="36.273223" lon="29.412670"><ele>131.208</ele><time>2017-05-24T06:59:00Z</time></trkpt><trkpt lat="36.273485" lon="29.413327"><ele>144.896</ele><time>2017-05-24T07:00:22Z</time></trkpt><trkpt lat="36.274923" lon="29.412232"><ele>162.077</ele><time>2017-05-24T07:03:28Z</time></trkpt><trkpt lat="36.276820" lon="29.412297"><ele>195.214</ele><time>2017-05-24T07:08:33Z</time></trkpt><trkpt lat="36.277688" lon="29.410270"><ele>225.939</ele><time>2017-05-24T07:11:36Z</time></trkpt><trkpt lat="36.280208" lon="29.408398"><ele>250.176</ele><time>2017-05-24T07:15:56Z</time></trkpt><trkpt lat="36.282847" lon="29.407768"><ele>252.020</ele><time>2017-05-24T07:19:50Z</time></trkpt><trkpt lat="36.280365" lon="29.408243"><ele>246.143</ele><time>2017-05-24T07:23:47Z</time></trkpt><trkpt lat="36.277373" lon="29.412548"><ele>229.643</ele><time>2017-05-24T07:34:09Z</time></trkpt><trkpt lat="36.277547" lon="29.411510"><ele>227.672</ele><time>2017-05-24T07:35:28Z</time></trkpt><trkpt lat="36.273628" lon="29.417960"><ele>209.813</ele><time>2017-05-24T07:44:30Z</time></trkpt><trkpt lat="36.265383" lon="29.423400"><ele>254.414</ele><time>2017-05-24T07:59:18Z</time></trkpt><trkpt lat="36.254938" lon="29.435142"><ele>329.908</ele><time>2017-05-24T08:23:32Z</time></trkpt><trkpt lat="36.256417" lon="29.435845"><ele>340.362</ele><time>2017-05-24T08:28:37Z</time></trkpt><trkpt lat="36.259382" lon="29.435412"><ele>371.743</ele><time>2017-05-24T08:38:50Z</time></trkpt><trkpt lat="36.257940" lon="29.437535"><ele>453.460</ele><time>2017-05-24T08:49:37Z</time></trkpt><trkpt lat="36.260453" lon="29.436992"><ele>513.075</ele><time>2017-05-24T09:02:34Z</time></trkpt><trkpt lat="36.261212" lon="29.435803"><ele>527.142</ele><time>2017-05-24T09:11:14Z</time></trkpt><trkpt lat="36.266165" lon="29.435410"><ele>612.816</ele><time>2017-05-24T09:28:45Z</time></trkpt><trkpt lat="36.265492" lon="29.436897"><ele>646.089</ele><time>2017-05-24T09:34:03Z</time></trkpt><trkpt lat="36.267042" lon="29.436725"><ele>683.169</ele><time>2017-05-24T09:40:00Z</time></trkpt><trkpt lat="36.266253" lon="29.438177"><ele>705.212</ele><time>2017-05-24T09:44:02Z</time></trkpt><trkpt lat="36.270042" lon="29.436705"><ele>778.232</ele><time>2017-05-24T09:56:08Z</time></trkpt><trkpt lat="36.270248" lon="29.438688"><ele>778.605</ele><time>2017-05-24T09:59:49Z</time></trkpt><trkpt lat="36.274318" lon="29.444542"><ele>748.408</ele><time>2017-05-24T10:12:00Z</time></trkpt><trkpt lat="36.275512" lon="29.447877"><ele>732.016</ele><time>2017-05-24T10:30:18Z</time></trkpt><trkpt lat="36.274967" lon="29.450323"><ele>734.647</ele><time>2017-05-24T11:22:00Z</time></trkpt><trkpt lat="36.275628" lon="29.451180"><ele>719.824</ele><time>2017-05-24T11:25:36Z</time></trkpt><trkpt lat="36.275352" lon="29.462580"><ele>708.219</ele><time>2017-05-24T11:38:54Z</time></trkpt><trkpt lat="36.271788" lon="29.462282"><ele>709.026</ele><time>2017-05-24T11:45:05Z</time></trkpt><trkpt lat="36.271710" lon="29.463427"><ele>710.810</ele><time>2017-05-24T11:46:36Z</time></trkpt><trkpt lat="36.270580" lon="29.464285"><ele>719.733</ele><time>2017-05-24T11:49:32Z</time></trkpt><trkpt lat="36.268490" lon="29.463612"><ele>713.333</ele><time>2017-05-24T11:53:25Z</time></trkpt><trkpt lat="36.267137" lon="29.465565"><ele>765.043</ele><time>2017-05-24T12:08:34Z</time></trkpt><trkpt lat="36.265938" lon="29.465767"><ele>812.564</ele><time>2017-05-24T12:14:09Z</time></trkpt><trkpt lat="36.266118" lon="29.464797"><ele>837.010</ele><time>2017-05-24T12:17:39Z</time></trkpt><trkpt lat="36.264330" lon="29.465473"><ele>871.308</ele><time>2017-05-24T12:21:58Z</time></trkpt><trkpt lat="36.262108" lon="29.463192"><ele>884.069</ele><time>2017-05-24T12:27:11Z</time></trkpt><trkpt lat="36.262327" lon="29.459727"><ele>901.830</ele><time>2017-05-24T12:32:06Z</time></trkpt><trkpt lat="36.260932" lon="29.462157"><ele>853.327</ele><time>2017-05-24T12:43:44Z</time></trkpt><trkpt lat="36.261380" lon="29.461540"><ele>851.112</ele><time>2017-05-24T12:45:39Z</time></trkpt><trkpt lat="36.261880" lon="29.464982"><ele>840.529</ele><time>2017-05-24T13:00:41Z</time></trkpt><trkpt lat="36.261132" lon="29.466307"><ele>813.393</ele><time>2017-05-24T13:06:30Z</time></trkpt><trkpt lat="36.260332" lon="29.465782"><ele>749.196</ele><time>2017-05-24T13:11:06Z</time></trkpt><trkpt lat="36.260255" lon="29.466427"><ele>737.856</ele><time>2017-05-24T13:12:22Z</time></trkpt><trkpt lat="36.258918" lon="29.466377"><ele>721.955</ele><time>2017-05-24T13:17:47Z</time></trkpt><trkpt lat="36.259383" lon="29.466695"><ele>711.007</ele><time>2017-05-24T13:19:41Z</time></trkpt><trkpt lat="36.257182" lon="29.467795"><ele>672.517</ele><time>2017-05-24T13:26:13Z</time></trkpt><trkpt lat="36.256737" lon="29.470742"><ele>670.308</ele><time>2017-05-24T13:33:03Z</time></trkpt><trkpt lat="36.254667" lon="29.469388"><ele>649.380</ele><time>2017-05-24T13:41:09Z</time></trkpt><trkpt lat="36.251852" lon="29.469913"><ele>672.251</ele><time>2017-05-24T13:46:49Z</time></trkpt><trkpt lat="36.251945" lon="29.471675"><ele>710.898</ele><time>2017-05-24T13:59:14Z</time></trkpt><trkpt lat="36.254125" lon="29.473415"><ele>731.413</ele><time>2017-05-24T14:05:09Z</time></trkpt><trkpt lat="36.255777" lon="29.473098"><ele>745.320</ele><time>2017-05-24T14:08:33Z</time></trkpt><trkpt lat="36.254043" lon="29.476747"><ele>762.974</ele><time>2017-05-25T04:47:51Z</time></trkpt><trkpt lat="36.251922" lon="29.476920"><ele>826.687</ele><time>2017-05-25T05:00:59Z</time></trkpt><trkpt lat="36.251780" lon="29.478668"><ele>829.597</ele><time>2017-05-25T05:05:10Z</time></trkpt><trkpt lat="36.250187" lon="29.479630"><ele>850.113</ele><time>2017-05-25T05:08:09Z</time></trkpt><trkpt lat="36.245660" lon="29.472638"><ele>875.643</ele><time>2017-05-25T05:21:40Z</time></trkpt><trkpt lat="36.243343" lon="29.473142"><ele>915.807</ele><time>2017-05-25T05:28:01Z</time></trkpt><trkpt lat="36.242673" lon="29.474667"><ele>930.508</ele><time>2017-05-25T05:30:40Z</time></trkpt><trkpt lat="36.239757" lon="29.476147"><ele>937.296</ele><time>2017-05-25T05:35:54Z</time></trkpt><trkpt lat="36.237377" lon="29.474912"><ele>924.267</ele><time>2017-05-25T05:40:06Z</time></trkpt><trkpt lat="36.236580" lon="29.475355"><ele>936.594</ele><time>2017-05-25T05:46:40Z</time></trkpt><trkpt lat="36.235122" lon="29.478958"><ele>913.159</ele><time>2017-05-25T05:52:43Z</time></trkpt><trkpt lat="36.235277" lon="29.488057"><ele>938.986</ele><time>2017-05-25T06:04:58Z</time></trkpt><trkpt lat="36.235875" lon="29.487860"><ele>919.810</ele><time>2017-05-25T06:08:11Z</time></trkpt><trkpt lat="36.237632" lon="29.490345"><ele>882.493</ele><time>2017-05-25T06:13:04Z</time></trkpt><trkpt lat="36.238665" lon="29.489792"><ele>874.163</ele><time>2017-05-25T06:14:47Z</time></trkpt><trkpt lat="36.240425" lon="29.491930"><ele>872.898</ele><time>2017-05-25T06:19:15Z</time></trkpt><trkpt lat="36.239563" lon="29.497220"><ele>909.115</ele><time>2017-05-25T06:31:04Z</time></trkpt><trkpt lat="36.240142" lon="29.501047"><ele>939.126</ele><time>2017-05-25T06:40:32Z</time></trkpt><trkpt lat="36.239205" lon="29.503462"><ele>940.808</ele><time>2017-05-25T06:45:56Z</time></trkpt><trkpt lat="36.239518" lon="29.506618"><ele>910.524</ele><time>2017-05-25T06:50:43Z</time></trkpt><trkpt lat="36.238753" lon="29.507017"><ele>915.825</ele><time>2017-05-25T06:52:38Z</time></trkpt><trkpt lat="36.238452" lon="29.512422"><ele>916.932</ele><time>2017-05-25T06:59:40Z</time></trkpt><trkpt lat="36.237597" lon="29.514157"><ele>903.967</ele><time>2017-05-25T07:03:12Z</time></trkpt><trkpt lat="36.238515" lon="29.520607"><ele>907.754</ele><time>2017-05-25T07:13:01Z</time></trkpt><trkpt lat="36.242963" lon="29.527790"><ele>942.358</ele><time>2017-05-25T07:23:25Z</time></trkpt><trkpt lat="36.242625" lon="29.531710"><ele>913.611</ele><time>2017-05-25T07:30:12Z</time></trkpt><trkpt lat="36.240535" lon="29.536348"><ele>874.611</ele><time>2017-05-25T07:41:51Z</time></trkpt><trkpt lat="36.239395" lon="29.537170"><ele>869.358</ele><time>2017-05-25T07:44:55Z</time></trkpt><trkpt lat="36.240220" lon="29.539338"><ele>843.552</ele><time>2017-05-25T07:50:15Z</time></trkpt><trkpt lat="36.240103" lon="29.541520"><ele>832.717</ele><time>2017-05-25T08:15:02Z</time></trkpt><trkpt lat="36.244855" lon="29.546388"><ele>834.308</ele><time>2017-05-25T08:23:11Z</time></trkpt><trkpt lat="36.241012" lon="29.542532"><ele>836.030</ele><time>2017-05-25T08:24:16Z</time></trkpt><trkpt lat="36.239105" lon="29.545320"><ele>837.331</ele><time>2017-05-25T08:24:46Z</time></trkpt><trkpt lat="36.241185" lon="29.546338"><ele>840.548</ele><time>2017-05-25T09:20:44Z</time></trkpt><trkpt lat="36.249615" lon="29.554597"><ele>850.853</ele><time>2017-05-25T09:36:09Z</time></trkpt><trkpt lat="36.250160" lon="29.554363"><ele>849.510</ele><time>2017-05-25T09:36:56Z</time></trkpt><trkpt lat="36.253423" lon="29.557657"><ele>813.614</ele><time>2017-05-25T09:43:00Z</time></trkpt><trkpt lat="36.256357" lon="29.559262"><ele>818.487</ele><time>2017-05-25T09:47:15Z</time></trkpt><trkpt lat="36.256887" lon="29.560913"><ele>815.997</ele><time>2017-05-25T09:49:24Z</time></trkpt><trkpt lat="36.257942" lon="29.561580"><ele>807.732</ele><time>2017-05-25T09:51:29Z</time></trkpt><trkpt lat="36.261748" lon="29.568177"><ele>769.992</ele><time>2017-05-25T10:00:17Z</time></trkpt><trkpt lat="36.262153" lon="29.570120"><ele>771.711</ele><time>2017-05-25T10:02:18Z</time></trkpt><trkpt lat="36.264055" lon="29.572793"><ele>746.308</ele><time>2017-05-25T10:06:59Z</time></trkpt><trkpt lat="36.264920" lon="29.578848"><ele>741.038</ele><time>2017-05-25T10:13:13Z</time></trkpt><trkpt lat="36.264363" lon="29.578495"><ele>722.249</ele><time>2017-05-25T10:14:14Z</time></trkpt><trkpt lat="36.267477" lon="29.587695"><ele>678.476</ele><time>2017-05-25T10:26:53Z</time></trkpt><trkpt lat="36.267663" lon="29.590782"><ele>653.741</ele><time>2017-05-25T10:31:08Z</time></trkpt><trkpt lat="36.272232" lon="29.597198"><ele>592.658</ele><time>2017-05-25T10:43:51Z</time></trkpt><trkpt lat="36.274700" lon="29.599432"><ele>590.692</ele><time>2017-05-25T10:47:50Z</time></trkpt><trkpt lat="36.276020" lon="29.603118"><ele>578.735</ele><time>2017-05-25T10:52:05Z</time></trkpt><trkpt lat="36.277328" lon="29.604640"><ele>563.515</ele><time>2017-05-25T10:54:59Z</time></trkpt><trkpt lat="36.278842" lon="29.604540"><ele>560.742</ele><time>2017-05-25T10:57:24Z</time></trkpt><trkpt lat="36.281288" lon="29.606123"><ele>547.822</ele><time>2017-05-25T11:01:14Z</time></trkpt><trkpt lat="36.279320" lon="29.611195"><ele>569.614</ele><time>2017-05-25T11:12:04Z</time></trkpt><trkpt lat="36.279795" lon="29.619127"><ele>688.008</ele><time>2017-05-25T11:33:48Z</time></trkpt><trkpt lat="36.279150" lon="29.619803"><ele>720.169</ele><time>2017-05-25T11:37:48Z</time></trkpt><trkpt lat="36.279637" lon="29.622010"><ele>763.080</ele><time>2017-05-25T11:44:19Z</time></trkpt><trkpt lat="36.279042" lon="29.624493"><ele>818.067</ele><time>2017-05-25T11:55:16Z</time></trkpt><trkpt lat="36.278165" lon="29.624840"><ele>824.372</ele><time>2017-05-25T11:57:23Z</time></trkpt><trkpt lat="36.276712" lon="29.628152"><ele>869.589</ele><time>2017-05-25T12:05:44Z</time></trkpt><trkpt lat="36.274468" lon="29.629167"><ele>876.433</ele><time>2017-05-25T12:12:09Z</time></trkpt><trkpt lat="36.272543" lon="29.628450"><ele>899.976</ele><time>2017-05-25T12:16:52Z</time></trkpt><trkpt lat="36.271938" lon="29.627290"><ele>903.586</ele><time>2017-05-25T12:20:24Z</time></trkpt><trkpt lat="36.269915" lon="29.627440"><ele>913.411</ele><time>2017-05-25T12:26:20Z</time></trkpt><trkpt lat="36.269028" lon="29.626202"><ele>927.621</ele><time>2017-05-25T12:30:33Z</time></trkpt><trkpt lat="36.266147" lon="29.627158"><ele>927.203</ele><time>2017-05-25T12:38:38Z</time></trkpt><trkpt lat="36.262710" lon="29.627020"><ele>955.308</ele><time>2017-05-25T12:46:56Z</time></trkpt><trkpt lat="36.261773" lon="29.625773"><ele>963.836</ele><time>2017-05-25T12:50:17Z</time></trkpt><trkpt lat="36.260828" lon="29.626290"><ele>966.797</ele><time>2017-05-25T12:52:37Z</time></trkpt><trkpt lat="36.259845" lon="29.624635"><ele>981.294</ele><time>2017-05-25T12:57:53Z</time></trkpt><trkpt lat="36.255278" lon="29.621463"><ele>1007.249</ele><time>2017-05-25T13:07:30Z</time></trkpt><trkpt lat="36.255980" lon="29.620950"><ele>995.666</ele><time>2017-05-25T13:08:58Z</time></trkpt><trkpt lat="36.255823" lon="29.619878"><ele>990.510</ele><time>2017-05-25T13:11:39Z</time></trkpt><trkpt lat="36.251122" lon="29.624395"><ele>974.733</ele><time>2017-05-25T13:27:17Z</time></trkpt><trkpt lat="36.248282" lon="29.633253"><ele>907.853</ele><time>2017-05-25T13:44:30Z</time></trkpt><trkpt lat="36.248992" lon="29.635497"><ele>879.253</ele><time>2017-05-25T13:47:41Z</time></trkpt><trkpt lat="36.248788" lon="29.638035"><ele>899.304</ele><time>2017-05-25T13:50:47Z</time></trkpt><trkpt lat="36.245748" lon="29.643252"><ele>886.214</ele><time>2017-05-25T14:01:17Z</time></trkpt><trkpt lat="36.244800" lon="29.646417"><ele>876.108</ele><time>2017-05-25T14:07:46Z</time></trkpt><trkpt lat="36.242578" lon="29.647658"><ele>879.530</ele><time>2017-05-25T14:39:15Z</time></trkpt><trkpt lat="36.239767" lon="29.647090"><ele>820.321</ele><time>2017-05-25T15:12:52Z</time></trkpt><trkpt lat="36.235498" lon="29.648382"><ele>712.528</ele><time>2017-05-25T15:49:22Z</time></trkpt><trkpt lat="36.235297" lon="29.651340"><ele>549.873</ele><time>2017-05-25T15:57:39Z</time></trkpt><trkpt lat="36.234750" lon="29.651547"><ele>500.050</ele><time>2017-05-25T15:59:05Z</time></trkpt><trkpt lat="36.235807" lon="29.656518"><ele>473.664</ele><time>2017-05-25T16:11:10Z</time></trkpt><trkpt lat="36.235220" lon="29.659373"><ele>488.177</ele><time>2017-05-25T16:15:07Z</time></trkpt><trkpt lat="36.235943" lon="29.662712"><ele>477.117</ele><time>2017-05-25T16:19:28Z</time></trkpt><trkpt lat="36.235122" lon="29.666585"><ele>482.083</ele><time>2017-05-26T05:09:51Z</time></trkpt><trkpt lat="36.235775" lon="29.661630"><ele>472.925</ele><time>2017-05-26T05:17:35Z</time></trkpt><trkpt lat="36.235073" lon="29.660510"><ele>459.117</ele><time>2017-05-26T05:19:10Z</time></trkpt><trkpt lat="36.233587" lon="29.660225"><ele>450.008</ele><time>2017-05-26T05:22:16Z</time></trkpt><trkpt lat="36.230497" lon="29.661605"><ele>433.013</ele><time>2017-05-26T05:26:55Z</time></trkpt><trkpt lat="36.226428" lon="29.658073"><ele>420.284</ele><time>2017-05-26T05:34:07Z</time></trkpt><trkpt lat="36.223395" lon="29.656892"><ele>439.981</ele><time>2017-05-26T05:39:20Z</time></trkpt><trkpt lat="36.222530" lon="29.657517"><ele>443.596</ele><time>2017-05-26T05:41:57Z</time></trkpt><trkpt lat="36.218095" lon="29.654145"><ele>459.023</ele><time>2017-05-26T05:51:02Z</time></trkpt><trkpt lat="36.213768" lon="29.647580"><ele>432.487</ele><time>2017-05-26T06:00:48Z</time></trkpt><trkpt lat="36.210503" lon="29.645408"><ele>446.730</ele><time>2017-05-26T06:06:34Z</time></trkpt><trkpt lat="36.207710" lon="29.645505"><ele>430.230</ele><time>2017-05-26T06:28:26Z</time></trkpt><trkpt lat="36.207840" lon="29.644765"><ele>417.021</ele><time>2017-05-26T06:31:08Z</time></trkpt><trkpt lat="36.205855" lon="29.645508"><ele>322.741</ele><time>2017-05-26T06:43:02Z</time></trkpt><trkpt lat="36.206408" lon="29.642447"><ele>232.805</ele><time>2017-05-26T06:56:49Z</time></trkpt><trkpt lat="36.204727" lon="29.642990"><ele>172.908</ele><time>2017-05-26T07:02:39Z</time></trkpt><trkpt lat="36.205512" lon="29.640622"><ele>123.017</ele><time>2017-05-26T07:10:40Z</time></trkpt><trkpt lat="36.203480" lon="29.642098"><ele>97.898</ele><time>2017-05-26T07:18:24Z</time></trkpt><trkpt lat="36.204478" lon="29.640503"><ele>100.625</ele><time>2017-05-26T07:20:50Z</time></trkpt><trkpt lat="36.203703" lon="29.641098"><ele>88.930</ele><time>2017-05-26T07:22:04Z</time></trkpt><trkpt lat="36.203942" lon="29.640403"><ele>76.087</ele><time>2017-05-26T07:23:26Z</time></trkpt></trkseg></trk></gpx>